PostcodeID,Postcode,SuburbName,Latitude,Longitude
1,2000,Barangaroo,-33.86,151.21
2,2000,Dawes Point,-33.86,151.21
3,2000,Haymarket,-33.86,151.21
4,2000,Millers Point,-33.86,151.21
5,2000,Parliament House,-33.86,151.21
6,2000,Sydney,-33.86,151.21
7,2000,Sydney South,-33.86,151.21
8,2000,The Rocks,-33.86,151.21
9,2001,Sydney,-33.79,151.27
10,2002,World Square,-35.97,146.41
11,2004,Alexandria MC,0,0
12,2004,Eastern Suburbs MC,0,0
13,2006,The University Of Sydney,-33.89,151.19
14,2007,Broadway,-33.88,151.2
15,2007,Ultimo,-33.88,151.2
16,2008,Chippendale,-33.89,151.2
17,2008,Darlington,-33.89,151.2
18,2009,Pyrmont,-33.87,151.19
19,2010,Darlinghurst,-33.88,151.22
20,2010,Surry Hills,-33.88,151.22
21,2011,Elizabeth Bay,-33.87,151.23
22,2011,Hmas Kuttabul,-33.87,151.23
23,2011,Potts Point,-33.87,151.23
24,2011,Rushcutters Bay,-33.87,151.23
25,2011,Woolloomooloo,-33.87,151.23
26,2012,Strawberry Hills,-33.73,150.93
27,2013,Strawberry Hills,-33.73,150.93
28,2015,Alexandria,-33.9,151.2
29,2015,Beaconsfield,-33.9,151.2
30,2015,Eveleigh,-33.9,151.2
31,2016,Redfern,-33.89,151.2
32,2017,Waterloo,-33.9,151.21
33,2017,Zetland,-33.9,151.21
34,2018,Eastlakes,-33.93,151.21
35,2018,Rosebery,-33.93,151.21
36,2019,Banksmeadow,-33.96,151.21
37,2019,Botany,-33.96,151.21
38,2020,Mascot,-33.93,151.19
39,2020,Sydney Domestic Airport,-33.93,151.19
40,2020,Sydney International Airport,-33.93,151.19
41,2021,Centennial Park,-33.89,151.22
42,2021,Moore Park,-33.89,151.22
43,2021,Paddington,-33.89,151.22
44,2022,Bondi Junction,-33.89,151.25
45,2022,Bondi Junction Plaza,-33.89,151.25
46,2022,Queens Park,-33.89,151.25
47,2023,Bellevue Hill,-33.89,151.26
48,2024,Bronte,-33.9,151.26
49,2024,Waverley,-33.9,151.26
50,2025,Woollahra,-33.89,151.24
51,2026,Bondi,-33.89,151.26
52,2026,Bondi Beach,-33.89,151.26
53,2026,North Bondi,-33.89,151.26
54,2026,Tamarama,-33.89,151.26
55,2027,Darling Point,-33.87,151.24
56,2027,Edgecliff,-33.87,151.24
57,2027,Hmas Rushcutters,-33.87,151.24
58,2027,Point Piper,-33.87,151.24
59,2028,Double Bay,-33.88,151.24
60,2029,Rose Bay,-33.87,151.28
61,2030,Dover Heights,-33.87,151.28
62,2030,Hmas Watson,-33.87,151.28
63,2030,Rose Bay North,-33.87,151.28
64,2030,Vaucluse,-33.87,151.28
65,2030,Watsons Bay,-33.87,151.28
66,2031,Clovelly,-33.91,151.26
67,2031,Clovelly West,-33.91,151.26
68,2031,Randwick,-33.91,151.26
69,2031,St Pauls,-33.91,151.26
70,2032,Daceyville,-33.93,151.23
71,2032,Kingsford,-33.93,151.23
72,2033,Kensington,-33.91,151.22
73,2034,Coogee,-33.92,151.25
74,2034,South Coogee,-33.92,151.25
75,2035,Maroubra,-33.95,151.24
76,2035,Maroubra South,-33.95,151.24
77,2035,Pagewood,-33.95,151.24
78,2036,Chifley,-33.98,151.24
79,2036,Eastgardens,-33.98,151.24
80,2036,Hillsdale,-33.98,151.24
81,2036,La Perouse,-33.98,151.24
82,2036,Little Bay,-33.98,151.24
83,2036,Malabar,-33.98,151.24
84,2036,Matraville,-33.98,151.24
85,2036,Phillip Bay,-33.98,151.24
86,2036,Port Botany,-33.98,151.24
87,2037,Forest Lodge,-33.88,151.18
88,2037,Glebe,-33.88,151.18
89,2038,Annandale,-33.88,151.17
90,2039,Rozelle,-33.86,151.17
91,2040,Leichhardt,-33.88,151.16
92,2040,Lilyfield,-33.88,151.16
93,2041,Balmain,-33.86,151.18
94,2041,Balmain East,-33.86,151.18
95,2041,Birchgrove,-33.86,151.18
96,2042,Enmore,-33.9,151.17
97,2042,Newtown,-33.9,151.17
98,2043,Erskineville,-33.9,151.19
99,2044,St Peters,-33.91,151.18
100,2044,Sydenham,-33.91,151.18
101,2044,Tempe,-33.91,151.18
102,2045,Haberfield,-33.88,151.14
103,2046,Abbotsford,-33.85,151.13
104,2046,Canada Bay,-33.85,151.13
105,2046,Chiswick,-33.85,151.13
106,2046,Five Dock,-33.85,151.13
107,2046,Rodd Point,-33.85,151.13
108,2046,Russell Lea,-33.85,151.13
109,2046,Wareemba,-33.85,151.13
110,2047,Drummoyne,-33.85,151.15
111,2048,Stanmore,-33.9,151.17
112,2048,Westgate,-33.9,151.17
113,2049,Lewisham,-33.89,151.14
114,2049,Petersham,-33.89,151.14
115,2049,Petersham North,-33.89,151.14
116,2050,Camperdown,-33.89,151.18
117,2050,Missenden Road,-33.89,151.18
118,2052,Unsw Sydney,-33.91,151.23
119,2055,North Sydney,-33.8,151.1
120,2057,Chatswood,-33.79,151.19
121,2058,Northern Suburbs MC,0,0
122,2059,North Sydney,-33.8,151.1
123,2060,Hmas Platypus,-33.84,151.19
124,2060,Hmas Waterhen,-33.84,151.19
125,2060,Lavender Bay,-33.84,151.19
126,2060,Mcmahons Point,-33.84,151.19
127,2060,North Sydney,-33.84,151.19
128,2060,North Sydney Shoppingworld,-33.84,151.19
129,2060,Waverton,-33.84,151.19
130,2061,Kirribilli,-33.85,151.21
131,2061,Milsons Point,-33.85,151.21
132,2062,Cammeray,-33.82,151.21
133,2063,Northbridge,-33.82,151.22
134,2064,Artarmon,-33.81,151.19
135,2065,Crows Nest,-33.83,151.2
136,2065,Greenwich,-33.83,151.2
137,2065,Naremburn,-33.83,151.2
138,2065,Royal North Shore Hospital,-33.83,151.2
139,2065,St Leonards,-33.83,151.2
140,2065,Wollstonecraft,-33.83,151.2
141,2066,Lane Cove,-33.81,151.17
142,2066,Lane Cove North,-33.81,151.17
143,2066,Lane Cove West,-33.81,151.17
144,2066,Linley Point,-33.81,151.17
145,2066,Longueville,-33.81,151.17
146,2066,Northwood,-33.81,151.17
147,2066,Riverview,-33.81,151.17
148,2067,Chatswood,-33.8,151.19
149,2067,Chatswood West,-33.8,151.19
150,2068,Castlecrag,-33.8,151.21
151,2068,Middle Cove,-33.8,151.21
152,2068,North Willoughby,-33.8,151.21
153,2068,Willoughby,-33.8,151.21
154,2068,Willoughby East,-33.8,151.21
155,2068,Willoughby North,-33.8,151.21
156,2069,Castle Cove,-33.78,151.2
157,2069,Roseville,-33.78,151.2
158,2069,Roseville Chase,-33.78,151.2
159,2070,East Lindfield,-33.77,151.19
160,2070,Lindfield,-33.77,151.19
161,2070,Lindfield West,-33.77,151.19
162,2071,East Killara,-33.75,151.17
163,2071,Killara,-33.75,151.17
164,2072,Gordon,-33.76,151.16
165,2073,Pymble,-33.74,151.14
166,2073,West Pymble,-33.74,151.14
167,2074,North Turramurra,-33.71,151.15
168,2074,South Turramurra,-33.71,151.15
169,2074,Turramurra,-33.71,151.15
170,2074,Warrawee,-33.71,151.15
171,2075,St Ives,-33.73,151.16
172,2075,St Ives Chase,-33.73,151.16
173,2076,Normanhurst,-33.72,151.1
174,2076,North Wahroonga,-33.72,151.1
175,2076,Wahroonga,-33.72,151.1
176,2077,Asquith,-33.69,151.11
177,2077,Hornsby,-33.69,151.11
178,2077,Hornsby Heights,-33.69,151.11
179,2077,Waitara,-33.69,151.11
180,2079,Mount Colah,-33.66,151.12
181,2080,Mount Kuring-Gai,-33.63,151.23
182,2081,Berowra,-33.62,151.15
183,2081,Cowan,-33.62,151.15
184,2082,Berowra Creek,-33.61,151.14
185,2082,Berowra Heights,-33.61,151.14
186,2082,Berowra Waters,-33.61,151.14
187,2083,Bar Point,-33.51,151.16
188,2083,Brooklyn,-33.51,151.16
189,2083,Cheero Point,-33.51,151.16
190,2083,Cogra Bay,-33.51,151.16
191,2083,Dangar Island,-33.51,151.16
192,2083,Milsons Passage,-33.51,151.16
193,2083,Mooney Mooney,-33.51,151.16
194,2084,Cottage Point,-33.62,151.2
195,2084,Duffys Forest,-33.62,151.2
196,2084,Terrey Hills,-33.62,151.2
197,2085,Belrose,-33.74,151.21
198,2085,Belrose West,-33.74,151.21
199,2085,Davidson,-33.74,151.21
200,2086,Frenchs Forest,-33.75,151.23
201,2086,Frenchs Forest East,-33.75,151.23
202,2087,Forestville,-33.76,151.21
203,2087,Killarney Heights,-33.76,151.21
204,2088,Mosman,-33.83,151.24
205,2088,Spit Junction,-33.83,151.24
206,2089,Neutral Bay,-33.83,151.22
207,2089,Neutral Bay Junction,-33.83,151.22
208,2090,Cremorne,-33.83,151.23
209,2090,Cremorne Junction,-33.83,151.23
210,2090,Cremorne Point,-33.83,151.23
211,2091,Hmas Penguin,0,0
212,2092,Seaforth,-33.8,151.25
213,2093,Balgowlah,-33.79,151.26
214,2093,Balgowlah Heights,-33.79,151.26
215,2093,Clontarf,-33.79,151.26
216,2093,Manly Vale,-33.79,151.26
217,2093,North Balgowlah,-33.79,151.26
218,2094,Fairlight,-33.79,151.27
219,2095,Manly,-33.8,151.29
220,2095,Manly East,-33.8,151.29
221,2096,Curl Curl,-33.77,151.29
222,2096,Freshwater,-33.77,151.29
223,2096,Queenscliff,-33.77,151.29
224,2097,Collaroy,-33.74,151.3
225,2097,Collaroy Beach,-33.74,151.3
226,2097,Collaroy Plateau West,-33.74,151.3
227,2097,Wheeler Heights,-33.74,151.3
228,2099,Cromer,-33.74,151.28
229,2099,Dee Why,-33.74,151.28
230,2099,Narraweena,-33.74,151.28
231,2099,North Curl Curl,-33.74,151.28
232,2100,Allambie Heights,-33.77,151.25
233,2100,Beacon Hill,-33.77,151.25
234,2100,Brookvale,-33.77,151.25
235,2100,North Manly,-33.77,151.25
236,2100,Oxford Falls,-33.77,151.25
237,2100,Warringah Mall,-33.77,151.25
238,2101,Elanora Heights,-33.7,151.28
239,2101,Ingleside,-33.7,151.28
240,2101,Narrabeen,-33.7,151.28
241,2101,North Narrabeen,-33.7,151.28
242,2102,Warriewood,-33.69,151.3
243,2102,Warriewood Shopping Square,-33.69,151.3
244,2103,Mona Vale,-33.68,151.3
245,2104,Bayview,-33.66,151.3
246,2105,Church Point,-33.64,151.28
247,2105,Elvina Bay,-33.64,151.28
248,2105,Lovett Bay,-33.64,151.28
249,2105,Morning Bay,-33.64,151.28
250,2105,Scotland Island,-33.64,151.28
251,2106,Newport,-33.66,151.31
252,2106,Newport Beach,-33.66,151.31
253,2107,Avalon,-33.64,151.33
254,2107,Avalon Beach,-33.64,151.33
255,2107,Bilgola,-33.64,151.33
256,2107,Clareville,-33.64,151.33
257,2107,Whale Beach,-33.64,151.33
258,2108,Coasters Retreat,-33.6,151.3
259,2108,Great Mackerel Beach,-33.6,151.3
260,2108,Palm Beach,-33.6,151.3
261,2109,Macquarie University,-33.77,151.11
262,2110,Hunters Hill,-33.83,151.15
263,2110,Woolwich,-33.83,151.15
264,2111,Boronia Park,-33.82,151.14
265,2111,Gladesville,-33.82,151.14
266,2111,Henley,-33.82,151.14
267,2111,Huntleys Cove,-33.82,151.14
268,2111,Huntleys Point,-33.82,151.14
269,2111,Monash Park,-33.82,151.14
270,2111,Tennyson Point,-33.82,151.14
271,2112,Denistone East,-33.8,151.1
272,2112,Putney,-33.8,151.1
273,2112,Ryde,-33.8,151.1
274,2113,Blenheim Road,-33.8,151.13
275,2113,East Ryde,-33.8,151.13
276,2113,Macquarie Centre,-33.8,151.13
277,2113,Macquarie Park,-33.8,151.13
278,2113,North Ryde,-33.8,151.13
279,2114,Denistone,-33.8,151.08
280,2114,Denistone West,-33.8,151.08
281,2114,Meadowbank,-33.8,151.08
282,2114,Melrose Park,-33.8,151.08
283,2114,West Ryde,-33.8,151.08
284,2115,Ermington,-33.81,151.05
285,2116,Rydalmere,-33.81,151.03
286,2117,Dundas,-33.8,151.04
287,2117,Dundas Valley,-33.8,151.04
288,2117,Oatlands,-33.8,151.04
289,2117,Telopea,-33.8,151.04
290,2118,Carlingford,-33.78,151.05
291,2118,Carlingford Court,-33.78,151.05
292,2118,Carlingford North,-33.78,151.05
293,2118,Kingsdene,-33.78,151.05
294,2119,Beecroft,-33.75,151.06
295,2119,Cheltenham,-33.75,151.06
296,2120,Pennant Hills,-33.74,151.07
297,2120,Thornleigh,-33.74,151.07
298,2120,Westleigh,-33.74,151.07
299,2121,Epping,-33.77,151.08
300,2121,North Epping,-33.77,151.08
301,2122,Eastwood,-33.79,151.08
302,2122,Marsfield,-33.79,151.08
303,2123,Parramatta,-33.89,151.14
304,2124,Parramatta,-33.89,151.14
305,2125,West Pennant Hills,-33.75,151.04
306,2126,Cherrybrook,-33.72,151.04
307,2127,Newington,-33.85,151.08
308,2127,Sydney Olympic Park,-33.85,151.08
309,2127,Wentworth Point,-33.85,151.08
310,2128,Silverwater,-33.84,151.05
311,2129,Sydney Markets,-33.87,151.19
312,2130,Summer Hill,-33.89,151.14
313,2131,Ashfield,-33.89,151.13
314,2132,Croydon,-33.88,151.11
315,2133,Croydon Park,-33.9,151.11
316,2133,Enfield South,-33.9,151.11
317,2134,Burwood,-33.88,151.1
318,2134,Burwood North,-33.88,151.1
319,2135,Strathfield,-33.87,151.09
320,2136,Burwood Heights,-33.89,151.1
321,2136,Enfield,-33.89,151.1
322,2136,Strathfield South,-33.89,151.1
323,2137,Breakfast Point,-33.84,151.11
324,2137,Cabarita,-33.84,151.11
325,2137,Concord,-33.84,151.11
326,2137,Mortlake,-33.84,151.11
327,2137,North Strathfield,-33.84,151.11
328,2138,Concord West,-33.85,151.09
329,2138,Liberty Grove,-33.85,151.09
330,2138,Rhodes,-33.85,151.09
331,2139,Concord Repatriation Hospital,-33.84,151.1
332,2140,Homebush,-33.86,151.08
333,2140,Homebush South,-33.86,151.08
334,2140,Homebush West,-33.86,151.08
335,2141,Berala,-33.87,151.03
336,2141,Lidcombe,-33.87,151.03
337,2141,Lidcombe North,-33.87,151.03
338,2141,Rookwood,-33.87,151.03
339,2142,Blaxcell,-33.85,151.01
340,2142,Camellia,-33.85,151.01
341,2142,Clyde,-33.85,151.01
342,2142,Granville,-33.85,151.01
343,2142,Holroyd,-33.85,151.01
344,2142,Rosehill,-33.85,151.01
345,2142,South Granville,-33.85,151.01
346,2143,Birrong,-33.89,151.02
347,2143,Potts Hill,-33.89,151.02
348,2143,Regents Park,-33.89,151.02
349,2144,Auburn,-33.85,151.03
350,2145,Constitution Hill,-33.8,150.95
351,2145,Girraween,-33.8,150.95
352,2145,Greystanes,-33.8,150.95
353,2145,Mays Hill,-33.8,150.95
354,2145,Pemulwuy,-33.8,150.95
355,2145,Pendle Hill,-33.8,150.95
356,2145,South Wentworthville,-33.8,150.95
357,2145,Wentworthville,-33.8,150.95
358,2145,Westmead,-33.8,150.95
359,2146,Old Toongabbie,-33.79,150.97
360,2146,Toongabbie,-33.79,150.97
361,2146,Toongabbie East,-33.79,150.97
362,2147,Kings Langley,-33.74,150.92
363,2147,Lalor Park,-33.74,150.92
364,2147,Seven Hills,-33.74,150.92
365,2147,Seven Hills West,-33.74,150.92
366,2148,Arndell Park,-33.79,150.87
367,2148,Blacktown,-33.79,150.87
368,2148,Blacktown Westpoint,-33.79,150.87
369,2148,Huntingwood,-33.79,150.87
370,2148,Kings Park,-33.79,150.87
371,2148,Marayong,-33.79,150.87
372,2148,Prospect,-33.79,150.87
373,2150,Harris Park,-33.82,151.01
374,2150,Parramatta,-33.82,151.01
375,2150,Parramatta Westfield,-33.82,151.01
376,2151,North Parramatta,-33.8,151.01
377,2151,North Rocks,-33.8,151.01
378,2152,Northmead,-33.78,150.99
379,2153,Baulkham Hills,-33.76,150.99
380,2153,Bella Vista,-33.76,150.99
381,2153,Winston Hills,-33.76,150.99
382,2154,Castle Hill,-33.73,151.01
383,2155,Beaumont Hills,-33.7,150.95
384,2155,Kellyville,-33.7,150.95
385,2155,Kellyville Ridge,-33.7,150.95
386,2155,Rouse Hill,-33.7,150.95
387,2156,Annangrove,-33.66,150.94
388,2156,Glenhaven,-33.66,150.94
389,2156,Kenthurst,-33.66,150.94
390,2157,Canoelands,-33.51,151.06
391,2157,Forest Glen,-33.51,151.06
392,2157,Glenorie,-33.51,151.06
393,2158,Dural,-33.68,151.03
394,2158,Middle Dural,-33.68,151.03
395,2158,Round Corner,-33.68,151.03
396,2159,Arcadia,-33.62,151.05
397,2159,Berrilee,-33.62,151.05
398,2159,Fiddletown,-33.62,151.05
399,2159,Galston,-33.62,151.05
400,2160,Merrylands,-33.84,150.99
401,2160,Merrylands West,-33.84,150.99
402,2161,Guildford,-33.85,150.99
403,2161,Guildford West,-33.85,150.99
404,2161,Old Guildford,-33.85,150.99
405,2161,Yennora,-33.85,150.99
406,2162,Chester Hill,-33.88,151
407,2162,Sefton,-33.88,151
408,2163,Carramar,-33.88,150.96
409,2163,Lansdowne,-33.88,150.96
410,2163,Villawood,-33.88,150.96
411,2164,Smithfield,-33.85,150.94
412,2164,Smithfield West,-33.85,150.94
413,2164,Wetherill Park,-33.85,150.94
414,2164,Woodpark,-33.85,150.94
415,2165,Fairfield,-33.87,150.96
416,2165,Fairfield East,-33.87,150.96
417,2165,Fairfield Heights,-33.87,150.96
418,2165,Fairfield West,-33.87,150.96
419,2166,Cabramatta,-33.9,150.94
420,2166,Cabramatta West,-33.9,150.94
421,2166,Canley Heights,-33.9,150.94
422,2166,Canley Vale,-33.9,150.94
423,2166,Lansvale,-33.9,150.94
424,2167,Glenfield,-33.97,150.89
425,2168,Ashcroft,-33.92,150.9
426,2168,Busby,-33.92,150.9
427,2168,Cartwright,-33.92,150.9
428,2168,Green Valley,-33.92,150.9
429,2168,Heckenberg,-33.92,150.9
430,2168,Hinchinbrook,-33.92,150.9
431,2168,Miller,-33.92,150.9
432,2168,Sadleir,-33.92,150.9
433,2170,Casula,-33.95,150.91
434,2170,Casula Mall,-33.95,150.91
435,2170,Chipping Norton,-33.95,150.91
436,2170,Hammondville,-33.95,150.91
437,2170,Liverpool,-33.95,150.91
438,2170,Liverpool South,-33.95,150.91
439,2170,Liverpool Westfield,-33.95,150.91
440,2170,Lurnea,-33.95,150.91
441,2170,Moorebank,-33.95,150.91
442,2170,Mount Pritchard,-33.95,150.91
443,2170,Prestons,-33.95,150.91
444,2170,Warwick Farm,-33.95,150.91
445,2171,Cecil Hills,-33.88,150.85
446,2171,Elizabeth Hills,-33.88,150.85
447,2171,Horningsea Park,-33.88,150.85
448,2171,Hoxton Park,-33.88,150.85
449,2171,Len Waters Estate,-33.88,150.85
450,2171,Middleton Grange,-33.88,150.85
451,2171,West Hoxton,-33.88,150.85
452,2172,Pleasure Point,-33.97,150.99
453,2172,Sandy Point,-33.97,150.99
454,2172,Voyager Point,-33.97,150.99
455,2173,Holsworthy,-33.95,150.95
456,2173,Wattle Grove,-33.95,150.95
457,2174,Edmondson Park,0,0
458,2174,Ingleburn Milpo,0,0
459,2175,Horsley Park,-33.85,150.85
460,2176,Abbotsbury,-33.88,150.87
461,2176,Bossley Park,-33.88,150.87
462,2176,Edensor Park,-33.88,150.87
463,2176,Greenfield Park,-33.88,150.87
464,2176,Prairiewood,-33.88,150.87
465,2176,St Johns Park,-33.88,150.87
466,2176,Wakeley,-33.88,150.87
467,2177,Bonnyrigg,-33.89,150.89
468,2177,Bonnyrigg Heights,-33.89,150.89
469,2178,Cecil Park,-33.87,150.84
470,2178,Kemps Creek,-33.87,150.84
471,2178,Mount Vernon,-33.87,150.84
472,2179,Austral,-33.93,150.81
473,2179,Leppington,-33.93,150.81
474,2190,Chullora,-33.89,151.06
475,2190,Greenacre,-33.89,151.06
476,2190,Mount Lewis,-33.89,151.06
477,2191,Belfield,-33.9,151.08
478,2192,Belmore,-33.92,151.09
479,2193,Ashbury,-33.9,151.12
480,2193,Canterbury,-33.9,151.12
481,2193,Hurlstone Park,-33.9,151.12
482,2194,Campsie,-33.91,151.1
483,2195,Lakemba,-33.92,151.08
484,2195,Wiley Park,-33.92,151.08
485,2196,Punchbowl,-33.93,151.05
486,2196,Roselands,-33.93,151.05
487,2197,Bass Hill,-33.9,150.99
488,2198,Georges Hall,-33.91,150.98
489,2199,Yagoona,-33.91,151.03
490,2199,Yagoona West,-33.91,151.03
491,2200,Bankstown,-33.92,151.03
492,2200,Bankstown Aerodrome,-33.92,151.03
493,2200,Bankstown North,-33.92,151.03
494,2200,Bankstown Square,-33.92,151.03
495,2200,Condell Park,-33.92,151.03
496,2200,Manahan,-33.92,151.03
497,2200,Mount Lewis,-33.92,151.03
498,2203,Dulwich Hill,-33.9,151.14
499,2204,Marrickville,-33.91,151.16
500,2204,Marrickville Metro,-33.91,151.16
501,2204,Marrickville South,-33.91,151.16
502,2205,Arncliffe,-33.94,151.15
503,2205,Turrella,-33.94,151.15
504,2205,Wolli Creek,-33.94,151.15
505,2206,Clemton Park,-33.93,151.1
506,2206,Earlwood,-33.93,151.1
507,2207,Bardwell Park,-33.93,151.13
508,2207,Bardwell Valley,-33.93,151.13
509,2207,Bexley,-33.93,151.13
510,2207,Bexley North,-33.93,151.13
511,2207,Bexley South,-33.93,151.13
512,2208,Kingsgrove,-33.94,151.1
513,2208,Kingsway West,-33.94,151.1
514,2209,Beverly Hills,-33.95,151.08
515,2209,Narwee,-33.95,151.08
516,2210,Lugarno,-33.98,151.05
517,2210,Peakhurst,-33.98,151.05
518,2210,Peakhurst Heights,-33.98,151.05
519,2210,Riverwood,-33.98,151.05
520,2211,Padstow,-33.95,151.04
521,2211,Padstow Heights,-33.95,151.04
522,2212,Revesby,-33.95,151.02
523,2212,Revesby Heights,-33.95,151.02
524,2212,Revesby North,-33.95,151.02
525,2213,East Hills,-33.96,150.99
526,2213,Panania,-33.96,150.99
527,2213,Picnic Point,-33.96,150.99
528,2214,Milperra,-33.94,150.99
529,2216,Banksia,-33.95,151.14
530,2216,Brighton-Le-Sands,-33.95,151.14
531,2216,Kyeemagh,-33.95,151.14
532,2216,Rockdale,-33.95,151.14
533,2217,Beverley Park,-33.98,151.13
534,2217,Kogarah,-33.98,151.13
535,2217,Kogarah Bay,-33.98,151.13
536,2217,Monterey,-33.98,151.13
537,2217,Ramsgate,-33.98,151.13
538,2217,Ramsgate Beach,-33.98,151.13
539,2218,Allawah,-33.97,151.11
540,2218,Carlton,-33.97,151.11
541,2219,Dolls Point,-33.99,151.15
542,2219,Sandringham,-33.99,151.15
543,2219,Sans Souci,-33.99,151.15
544,2220,Hurstville,-33.97,151.1
545,2220,Hurstville Grove,-33.97,151.1
546,2220,Hurstville Westfield,-33.97,151.1
547,2221,Blakehurst,-33.99,151.11
548,2221,Carss Park,-33.99,151.11
549,2221,Connells Point,-33.99,151.11
550,2221,Kyle Bay,-33.99,151.11
551,2221,South Hurstville,-33.99,151.11
552,2222,Penshurst,-33.96,151.09
553,2223,Mortdale,-33.97,151.08
554,2223,Oatley,-33.97,151.08
555,2224,Kangaroo Point,-34,151.1
556,2224,Sylvania,-34,151.1
557,2224,Sylvania Southgate,-34,151.1
558,2224,Sylvania Waters,-34,151.1
559,2225,Oyster Bay,-34,151.09
560,2226,Bonnet Bay,-34.01,151.05
561,2226,Como,-34.01,151.05
562,2226,Jannali,-34.01,151.05
563,2227,Gymea,-34.03,151.09
564,2227,Gymea Bay,-34.03,151.09
565,2228,Miranda,-34.03,151.1
566,2228,Yowie Bay,-34.03,151.1
567,2229,Caringbah,-34.04,151.12
568,2229,Caringbah South,-34.04,151.12
569,2229,Dolans Bay,-34.04,151.12
570,2229,Lilli Pilli,-34.04,151.12
571,2229,Port Hacking,-34.04,151.12
572,2229,Taren Point,-34.04,151.12
573,2230,Bundeena,-34.09,151.15
574,2230,Burraneer,-34.09,151.15
575,2230,Cronulla,-34.09,151.15
576,2230,Maianbar,-34.09,151.15
577,2230,Woolooware,-34.09,151.15
578,2231,Kurnell,-34.01,151.2
579,2232,Audley,-34.08,151.06
580,2232,Garie,-34.08,151.06
581,2232,Grays Point,-34.08,151.06
582,2232,Kareela,-34.08,151.06
583,2232,Kirrawee,-34.08,151.06
584,2232,Loftus,-34.08,151.06
585,2232,Sutherland,-34.08,151.06
586,2232,Woronora,-34.08,151.06
587,2233,Engadine,-34.07,151.01
588,2233,Heathcote,-34.07,151.01
589,2233,Waterfall,-34.07,151.01
590,2233,Woronora Heights,-34.07,151.01
591,2233,Yarrawarrah,-34.07,151.01
592,2234,Alfords Point,-33.99,151.02
593,2234,Bangor,-33.99,151.02
594,2234,Barden Ridge,-33.99,151.02
595,2234,Illawong,-33.99,151.02
596,2234,Lucas Heights,-33.99,151.02
597,2234,Menai,-33.99,151.02
598,2234,Menai Central,-33.99,151.02
599,2250,Bucketty,-33.11,151.14
600,2250,Calga,-33.11,151.14
601,2250,Central Mangrove,-33.11,151.14
602,2250,East Gosford,-33.11,151.14
603,2250,Erina,-33.11,151.14
604,2250,Erina Fair,-33.11,151.14
605,2250,Glenworth Valley,-33.11,151.14
606,2250,Gosford,-33.11,151.14
607,2250,Greengrove,-33.11,151.14
608,2250,Holgate,-33.11,151.14
609,2250,Kariong,-33.11,151.14
610,2250,Kulnura,-33.11,151.14
611,2250,Lisarow,-33.11,151.14
612,2250,Lower Mangrove,-33.11,151.14
613,2250,Mangrove Creek,-33.11,151.14
614,2250,Mangrove Mountain,-33.11,151.14
615,2250,Matcham,-33.11,151.14
616,2250,Mooney Mooney Creek,-33.11,151.14
617,2250,Mount Elliot,-33.11,151.14
618,2250,Mount White,-33.11,151.14
619,2250,Narara,-33.11,151.14
620,2250,Niagara Park,-33.11,151.14
621,2250,North Gosford,-33.11,151.14
622,2250,Peats Ridge,-33.11,151.14
623,2250,Point Clare,-33.11,151.14
624,2250,Point Frederick,-33.11,151.14
625,2250,Somersby,-33.11,151.14
626,2250,Springfield,-33.11,151.14
627,2250,Tascott,-33.11,151.14
628,2250,Ten Mile Hollow,-33.11,151.14
629,2250,Upper Mangrove,-33.11,151.14
630,2250,Wendoree Park,-33.11,151.14
631,2250,West Gosford,-33.11,151.14
632,2250,Wyoming,-33.11,151.14
633,2251,Avoca Beach,-33.46,151.43
634,2251,Bensville,-33.46,151.43
635,2251,Bouddi,-33.46,151.43
636,2251,Copacabana,-33.46,151.43
637,2251,Davistown,-33.46,151.43
638,2251,Green Point,-33.46,151.43
639,2251,Kincumber,-33.46,151.43
640,2251,Kincumber South,-33.46,151.43
641,2251,Macmasters Beach,-33.46,151.43
642,2251,Picketts Valley,-33.46,151.43
643,2251,Saratoga,-33.46,151.43
644,2251,Yattalunga,-33.46,151.43
645,2252,Central Coast MC,0,0
646,2256,Blackwall,-33.5,151.33
647,2256,Horsfield Bay,-33.5,151.33
648,2256,Koolewong,-33.5,151.33
649,2256,Little Wobby,-33.5,151.33
650,2256,Patonga,-33.5,151.33
651,2256,Pearl Beach,-33.5,151.33
652,2256,Phegans Bay,-33.5,151.33
653,2256,Wondabyne,-33.5,151.33
654,2256,Woy Woy,-33.5,151.33
655,2256,Woy Woy Bay,-33.5,151.33
656,2257,Booker Bay,-33.51,151.34
657,2257,Box Head,-33.51,151.34
658,2257,Daleys Point,-33.51,151.34
659,2257,Empire Bay,-33.51,151.34
660,2257,Ettalong Beach,-33.51,151.34
661,2257,Hardys Bay,-33.51,151.34
662,2257,Killcare,-33.51,151.34
663,2257,Killcare Heights,-33.51,151.34
664,2257,Pretty Beach,-33.51,151.34
665,2257,St Huberts Island,-33.51,151.34
666,2257,Umina Beach,-33.51,151.34
667,2257,Wagstaffe,-33.51,151.34
668,2258,Fountaindale,-33.34,151.39
669,2258,Kangy Angy,-33.34,151.39
670,2258,Ourimbah,-33.34,151.39
671,2258,Palm Grove,-33.34,151.39
672,2258,Palmdale,-33.34,151.39
673,2259,Alison,-33.27,151.4
674,2259,Bushells Ridge,-33.27,151.4
675,2259,Cedar Brush Creek,-33.27,151.4
676,2259,Chain Valley Bay,-33.27,151.4
677,2259,Crangan Bay,-33.27,151.4
678,2259,Dooralong,-33.27,151.4
679,2259,Durren Durren,-33.27,151.4
680,2259,Frazer Park,-33.27,151.4
681,2259,Freemans,-33.27,151.4
682,2259,Gwandalan,-33.27,151.4
683,2259,Halloran,-33.27,151.4
684,2259,Hamlyn Terrace,-33.27,151.4
685,2259,Jilliby,-33.27,151.4
686,2259,Kanwal,-33.27,151.4
687,2259,Kiar,-33.27,151.4
688,2259,Kingfisher Shores,-33.27,151.4
689,2259,Lake Munmorah,-33.27,151.4
690,2259,Lemon Tree,-33.27,151.4
691,2259,Little Jilliby,-33.27,151.4
692,2259,Mannering Park,-33.27,151.4
693,2259,Mardi,-33.27,151.4
694,2259,Moonee,-33.27,151.4
695,2259,Point Wolstoncroft,-33.27,151.4
696,2259,Ravensdale,-33.27,151.4
697,2259,Rocky Point,-33.27,151.4
698,2259,Summerland Point,-33.27,151.4
699,2259,Tacoma,-33.27,151.4
700,2259,Tacoma South,-33.27,151.4
701,2259,Tuggerah,-33.27,151.4
702,2259,Tuggerawong,-33.27,151.4
703,2259,Wadalba,-33.27,151.4
704,2259,Wallarah,-33.27,151.4
705,2259,Warnervale,-33.27,151.4
706,2259,Watanobbi,-33.27,151.4
707,2259,Woongarrah,-33.27,151.4
708,2259,Wybung,-33.27,151.4
709,2259,Wyee,-33.27,151.4
710,2259,Wyee Point,-33.27,151.4
711,2259,Wyong,-33.27,151.4
712,2259,Wyong Creek,-33.27,151.4
713,2259,Wyongah,-33.27,151.4
714,2259,Yarramalong,-33.27,151.4
715,2260,Erina Heights,-33.43,151.41
716,2260,Forresters Beach,-33.43,151.41
717,2260,North Avoca,-33.43,151.41
718,2260,Terrigal,-33.43,151.41
719,2260,Wamberal,-33.43,151.41
720,2261,Bateau Bay,-33.38,151.48
721,2261,Bay Village,-33.38,151.48
722,2261,Berkeley Vale,-33.38,151.48
723,2261,Blue Bay,-33.38,151.48
724,2261,Chittaway Bay,-33.38,151.48
725,2261,Chittaway Point,-33.38,151.48
726,2261,Glenning Valley,-33.38,151.48
727,2261,Killarney Vale,-33.38,151.48
728,2261,Long Jetty,-33.38,151.48
729,2261,Magenta,-33.38,151.48
730,2261,Shelly Beach,-33.38,151.48
731,2261,The Entrance,-33.38,151.48
732,2261,The Entrance North,-33.38,151.48
733,2261,Toowoon Bay,-33.38,151.48
734,2261,Tumbi Umbi,-33.38,151.48
735,2262,Blue Haven,-33.21,151.49
736,2262,Budgewoi,-33.21,151.49
737,2262,Budgewoi Peninsula,-33.21,151.49
738,2262,Buff Point,-33.21,151.49
739,2262,Colongra,-33.21,151.49
740,2262,Doyalson,-33.21,151.49
741,2262,Doyalson North,-33.21,151.49
742,2262,Halekulani,-33.21,151.49
743,2262,San Remo,-33.21,151.49
744,2263,Canton Beach,-33.27,151.54
745,2263,Charmhaven,-33.27,151.54
746,2263,Gorokan,-33.27,151.54
747,2263,Lake Haven,-33.27,151.54
748,2263,Norah Head,-33.27,151.54
749,2263,Noraville,-33.27,151.54
750,2263,Toukley,-33.27,151.54
751,2264,Balcolyn,-33.1,151.55
752,2264,Bonnells Bay,-33.1,151.55
753,2264,Brightwaters,-33.1,151.55
754,2264,Dora Creek,-33.1,151.55
755,2264,Eraring,-33.1,151.55
756,2264,Mandalong,-33.1,151.55
757,2264,Mirrabooka,-33.1,151.55
758,2264,Morisset,-33.1,151.55
759,2264,Morisset Park,-33.1,151.55
760,2264,Myuna Bay,-33.1,151.55
761,2264,Silverwater,-33.1,151.55
762,2264,Sunshine,-33.1,151.55
763,2264,Windermere Park,-33.1,151.55
764,2264,Yarrawonga Park,-33.1,151.55
765,2265,Cooranbong,-33.08,151.45
766,2265,Martinsville,-33.08,151.45
767,2267,Wangi Wangi,-33.07,151.58
768,2278,Barnsley,-32.93,151.59
769,2278,Killingworth,-32.93,151.59
770,2278,Wakefield,-32.93,151.59
771,2280,Belmont,-33.04,151.66
772,2280,Belmont North,-33.04,151.66
773,2280,Belmont South,-33.04,151.66
774,2280,Croudace Bay,-33.04,151.66
775,2280,Floraville,-33.04,151.66
776,2280,Jewells,-33.04,151.66
777,2280,Marks Point,-33.04,151.66
778,2280,Valentine,-33.04,151.66
779,2281,Blacksmiths,-33.08,151.65
780,2281,Cams Wharf,-33.08,151.65
781,2281,Catherine Hill Bay,-33.08,151.65
782,2281,Caves Beach,-33.08,151.65
783,2281,Little Pelican,-33.08,151.65
784,2281,Murrays Beach,-33.08,151.65
785,2281,Nords Wharf,-33.08,151.65
786,2281,Pelican,-33.08,151.65
787,2281,Pinny Beach,-33.08,151.65
788,2281,Swansea,-33.08,151.65
789,2281,Swansea Heads,-33.08,151.65
790,2282,Eleebana,-32.99,151.64
791,2282,Lakelands,-32.99,151.64
792,2282,Warners Bay,-32.99,151.64
793,2283,Arcadia Vale,-33.06,151.58
794,2283,Awaba,-33.06,151.58
795,2283,Balmoral,-33.06,151.58
796,2283,Blackalls Park,-33.06,151.58
797,2283,Bolton Point,-33.06,151.58
798,2283,Buttaba,-33.06,151.58
799,2283,Carey Bay,-33.06,151.58
800,2283,Coal Point,-33.06,151.58
801,2283,Fassifern,-33.06,151.58
802,2283,Fennell Bay,-33.06,151.58
803,2283,Fishing Point,-33.06,151.58
804,2283,Kilaben Bay,-33.06,151.58
805,2283,Rathmines,-33.06,151.58
806,2283,Ryhope,-33.06,151.58
807,2283,Toronto,-33.06,151.58
808,2284,Argenton,-32.93,151.63
809,2284,Boolaroo,-32.93,151.63
810,2284,Booragul,-32.93,151.63
811,2284,Marmong Point,-32.93,151.63
812,2284,Speers Point,-32.93,151.63
813,2284,Teralba,-32.93,151.63
814,2284,Woodrising,-32.93,151.63
815,2285,Cameron Park,-32.93,151.66
816,2285,Cardiff,-32.93,151.66
817,2285,Cardiff Heights,-32.93,151.66
818,2285,Cardiff South,-32.93,151.66
819,2285,Edgeworth,-32.93,151.66
820,2285,Glendale,-32.93,151.66
821,2285,Macquarie Hills,-32.93,151.66
822,2286,Holmesville,-32.91,151.58
823,2286,Seahampton,-32.91,151.58
824,2286,West Wallsend,-32.91,151.58
825,2287,Birmingham Gardens,-32.89,151.69
826,2287,Elermore Vale,-32.89,151.69
827,2287,Fletcher,-32.89,151.69
828,2287,Maryland,-32.89,151.69
829,2287,Minmi,-32.89,151.69
830,2287,Rankin Park,-32.89,151.69
831,2287,Wallsend,-32.89,151.69
832,2287,Wallsend South,-32.89,151.69
833,2289,Adamstown,-32.93,151.73
834,2289,Adamstown Heights,-32.93,151.73
835,2289,Garden Suburb,-32.93,151.73
836,2289,Highfields,-32.93,151.73
837,2289,Kotara,-32.93,151.73
838,2289,Kotara Fair,-32.93,151.73
839,2289,Kotara South,-32.93,151.73
840,2290,Bennetts Green,-33,151.69
841,2290,Charlestown,-33,151.69
842,2290,Dudley,-33,151.69
843,2290,Gateshead,-33,151.69
844,2290,Hillsborough,-33,151.69
845,2290,Kahibah,-33,151.69
846,2290,Mount Hutton,-33,151.69
847,2290,Redhead,-33,151.69
848,2290,Tingira Heights,-33,151.69
849,2290,Whitebridge,-33,151.69
850,2291,Merewether,-32.94,151.75
851,2291,Merewether Heights,-32.94,151.75
852,2291,The Junction,-32.94,151.75
853,2292,Broadmeadow,-32.92,151.74
854,2292,Hamilton North,-32.92,151.74
855,2293,Maryville,-32.91,151.75
856,2293,Wickham,-32.91,151.75
857,2294,Carrington,-32.92,151.77
858,2295,Fern Bay,-32.85,151.81
859,2295,Stockton,-32.85,151.81
860,2296,Islington,-32.91,151.75
861,2297,Tighes Hill,-32.91,151.75
862,2298,Georgetown,-32.91,151.73
863,2298,Waratah,-32.91,151.73
864,2298,Waratah West,-32.91,151.73
865,2299,Jesmond,-32.9,151.69
866,2299,Lambton,-32.9,151.69
867,2299,North Lambton,-32.9,151.69
868,2300,Bar Beach,-32.94,151.77
869,2300,Cooks Hill,-32.94,151.77
870,2300,Newcastle,-32.94,151.77
871,2300,Newcastle East,-32.94,151.77
872,2300,The Hill,-32.94,151.77
873,2302,Newcastle West,-32.92,151.76
874,2303,Hamilton,-32.92,151.75
875,2303,Hamilton East,-32.92,151.75
876,2303,Hamilton South,-32.92,151.75
877,2304,Kooragang,-32.88,151.75
878,2304,Mayfield,-32.88,151.75
879,2304,Mayfield East,-32.88,151.75
880,2304,Mayfield North,-32.88,151.75
881,2304,Mayfield West,-32.88,151.75
882,2304,Sandgate,-32.88,151.75
883,2304,Warabrook,-32.88,151.75
884,2305,Kotara East,-32.93,151.71
885,2305,New Lambton,-32.93,151.71
886,2305,New Lambton Heights,-32.93,151.71
887,2306,Windale,-33,151.68
888,2307,Shortland,-32.88,151.69
889,2308,Callaghan,-35.13,147.32
890,2308,Newcastle University,-35.13,147.32
891,2309,Dangar,-30.35,148.89
892,2310,Hunter Region MC,0,0
893,2311,Allynbrook,-32.36,151.54
894,2311,Bingleburra,-32.36,151.54
895,2311,Carrabolla,-32.36,151.54
896,2311,East Gresford,-32.36,151.54
897,2311,Eccleston,-32.36,151.54
898,2311,Gresford,-32.36,151.54
899,2311,Halton,-32.36,151.54
900,2311,Lewinsbrook,-32.36,151.54
901,2311,Lostock,-32.36,151.54
902,2311,Mount Rivers,-32.36,151.54
903,2311,Upper Allyn,-32.36,151.54
904,2312,Minimbah,-32.15,152.36
905,2312,Nabiac,-32.15,152.36
906,2314,Williamtown Raaf,-32.8,151.84
907,2315,Corlette,-32.72,152.11
908,2315,Fingal Bay,-32.72,152.11
909,2315,Nelson Bay,-32.72,152.11
910,2315,Shoal Bay,-32.72,152.11
911,2316,Anna Bay,-32.78,152.08
912,2316,Boat Harbour,-32.78,152.08
913,2316,Bobs Farm,-32.78,152.08
914,2316,Fishermans Bay,-32.78,152.08
915,2316,One Mile,-32.78,152.08
916,2316,Taylors Beach,-32.78,152.08
917,2317,Salamander Bay,-32.72,152.08
918,2317,Soldiers Point,-32.72,152.08
919,2318,Campvale,-32.77,151.85
920,2318,Ferodale,-32.77,151.85
921,2318,Fullerton Cove,-32.77,151.85
922,2318,Medowie,-32.77,151.85
923,2318,Oyster Cove,-32.77,151.85
924,2318,Salt Ash,-32.77,151.85
925,2318,Williamtown,-32.77,151.85
926,2319,Lemon Tree Passage,-32.73,152.04
927,2319,Mallabula,-32.73,152.04
928,2319,Tanilba Bay,-32.73,152.04
929,2319,Tilligerry Creek,-32.73,152.04
930,2320,Aberglasslyn,-32.69,151.53
931,2320,Allandale,-32.69,151.53
932,2320,Anambah,-32.69,151.53
933,2320,Bolwarra,-32.69,151.53
934,2320,Bolwarra Heights,-32.69,151.53
935,2320,Farley,-32.69,151.53
936,2320,Glen Oak,-32.69,151.53
937,2320,Gosforth,-32.69,151.53
938,2320,Hillsborough,-32.69,151.53
939,2320,Horseshoe Bend,-32.69,151.53
940,2320,Keinbah,-32.69,151.53
941,2320,Largs,-32.69,151.53
942,2320,Lorn,-32.69,151.53
943,2320,Louth Park,-32.69,151.53
944,2320,Maitland,-32.69,151.53
945,2320,Maitland North,-32.69,151.53
946,2320,Maitland Vale,-32.69,151.53
947,2320,Melville,-32.69,151.53
948,2320,Mindaribba,-32.69,151.53
949,2320,Mount Dee,-32.69,151.53
950,2320,Oakhampton,-32.69,151.53
951,2320,Oakhampton Heights,-32.69,151.53
952,2320,Pokolbin,-32.69,151.53
953,2320,Rosebrook,-32.69,151.53
954,2320,Rothbury,-32.69,151.53
955,2320,Rutherford,-32.69,151.53
956,2320,South Maitland,-32.69,151.53
957,2320,Telarah,-32.69,151.53
958,2320,Wallalong,-32.69,151.53
959,2320,Windella,-32.69,151.53
960,2321,Berry Park,-32.76,151.65
961,2321,Butterwick,-32.76,151.65
962,2321,Clarence Town,-32.76,151.65
963,2321,Cliftleigh,-32.76,151.65
964,2321,Duckenfield,-32.76,151.65
965,2321,Duns Creek,-32.76,151.65
966,2321,Gillieston Heights,-32.76,151.65
967,2321,Glen Martin,-32.76,151.65
968,2321,Glen William,-32.76,151.65
969,2321,Harpers Hill,-32.76,151.65
970,2321,Heddon Greta,-32.76,151.65
971,2321,Hinton,-32.76,151.65
972,2321,Lochinvar,-32.76,151.65
973,2321,Luskintyre,-32.76,151.65
974,2321,Morpeth,-32.76,151.65
975,2321,Oswald,-32.76,151.65
976,2321,Phoenix Park,-32.76,151.65
977,2321,Raworth,-32.76,151.65
978,2321,Windermere,-32.76,151.65
979,2321,Woodville,-32.76,151.65
980,2322,Beresfield,-32.8,151.66
981,2322,Black Hill,-32.8,151.66
982,2322,Chisholm,-32.8,151.66
983,2322,Hexham,-32.8,151.66
984,2322,Lenaghan,-32.8,151.66
985,2322,Stockrington,-32.8,151.66
986,2322,Tarro,-32.8,151.66
987,2322,Thornton,-32.8,151.66
988,2322,Tomago,-32.8,151.66
989,2322,Woodberry,-32.8,151.66
990,2323,Ashtonfield,-32.77,151.6
991,2323,Brunkerville,-32.77,151.6
992,2323,Buchanan,-32.77,151.6
993,2323,Buttai,-32.77,151.6
994,2323,East Maitland,-32.77,151.6
995,2323,Four Mile Creek,-32.77,151.6
996,2323,Freemans Waterhole,-32.77,151.6
997,2323,Green Hills,-32.77,151.6
998,2323,Metford,-32.77,151.6
999,2323,Metford DC,-32.77,151.6
1000,2323,Mount Vincent,-32.77,151.6
1001,2323,Mulbring,-32.77,151.6
1002,2323,Pitnacree,-32.77,151.6
1003,2323,Richmond Vale,-32.77,151.6
1004,2323,Tenambit,-32.77,151.6
1005,2324,Balickera,-32.67,151.81
1006,2324,Brandy Hill,-32.67,151.81
1007,2324,Bundabah,-32.67,151.81
1008,2324,Carrington,-32.67,151.81
1009,2324,Eagleton,-32.67,151.81
1010,2324,East Seaham,-32.67,151.81
1011,2324,Hawks Nest,-32.67,151.81
1012,2324,Heatherbrae,-32.67,151.81
1013,2324,Karuah,-32.67,151.81
1014,2324,Limeburners Creek,-32.67,151.81
1015,2324,Millers Forest,-32.67,151.81
1016,2324,Nelsons Plains,-32.67,151.81
1017,2324,North Arm Cove,-32.67,151.81
1018,2324,Osterley,-32.67,151.81
1019,2324,Pindimar,-32.67,151.81
1020,2324,Raymond Terrace,-32.67,151.81
1021,2324,Raymond Terrace East,-32.67,151.81
1022,2324,Seaham,-32.67,151.81
1023,2324,Swan Bay,-32.67,151.81
1024,2324,Tahlee,-32.67,151.81
1025,2324,Tea Gardens,-32.67,151.81
1026,2324,Twelve Mile Creek,-32.67,151.81
1027,2325,Aberdare,-32.84,151.38
1028,2325,Abernethy,-32.84,151.38
1029,2325,Bellbird,-32.84,151.38
1030,2325,Bellbird Heights,-32.84,151.38
1031,2325,Cedar Creek,-32.84,151.38
1032,2325,Cessnock,-32.84,151.38
1033,2325,Cessnock West,-32.84,151.38
1034,2325,Congewai,-32.84,151.38
1035,2325,Corrabare,-32.84,151.38
1036,2325,Ellalong,-32.84,151.38
1037,2325,Elrington,-32.84,151.38
1038,2325,Greta Main,-32.84,151.38
1039,2325,Kearsley,-32.84,151.38
1040,2325,Kitchener,-32.84,151.38
1041,2325,Laguna,-32.84,151.38
1042,2325,Lovedale,-32.84,151.38
1043,2325,Millfield,-32.84,151.38
1044,2325,Moruben,-32.84,151.38
1045,2325,Mount View,-32.84,151.38
1046,2325,Nulkaba,-32.84,151.38
1047,2325,Olney,-32.84,151.38
1048,2325,Paxton,-32.84,151.38
1049,2325,Paynes Crossing,-32.84,151.38
1050,2325,Pelton,-32.84,151.38
1051,2325,Quorrobolong,-32.84,151.38
1052,2325,Sweetmans Creek,-32.84,151.38
1053,2325,Wollombi,-32.84,151.38
1054,2326,Abermain,-32.81,151.43
1055,2326,Bishops Bridge,-32.81,151.43
1056,2326,Loxford,-32.81,151.43
1057,2326,Neath,-32.81,151.43
1058,2326,Sawyers Gully,-32.81,151.43
1059,2326,Weston,-32.81,151.43
1060,2327,Kurri Kurri,-32.82,151.48
1061,2327,Pelaw Main,-32.82,151.48
1062,2327,Stanford Merthyr,-32.82,151.48
1063,2328,Bureen,-32.46,150.74
1064,2328,Dalswinton,-32.46,150.74
1065,2328,Denman,-32.46,150.74
1066,2328,Giants Creek,-32.46,150.74
1067,2328,Hollydeen,-32.46,150.74
1068,2328,Kerrabee,-32.46,150.74
1069,2328,Mangoola,-32.46,150.74
1070,2328,Martindale,-32.46,150.74
1071,2328,Widden,-32.46,150.74
1072,2328,Yarrawa,-32.46,150.74
1073,2329,Cassilis,-31.51,150.64
1074,2329,Merriwa,-31.51,150.64
1075,2329,Uarbry,-31.51,150.64
1076,2330,Appletree Flat,-32.51,150.86
1077,2330,Big Ridge,-32.51,150.86
1078,2330,Big Yengo,-32.51,150.86
1079,2330,Bowmans Creek,-32.51,150.86
1080,2330,Bridgman,-32.51,150.86
1081,2330,Broke,-32.51,150.86
1082,2330,Bulga,-32.51,150.86
1083,2330,Camberwell,-32.51,150.86
1084,2330,Carrowbrook,-32.51,150.86
1085,2330,Clydesdale,-32.51,150.86
1086,2330,Combo,-32.51,150.86
1087,2330,Darlington,-32.51,150.86
1088,2330,Doyles Creek,-32.51,150.86
1089,2330,Dunolly,-32.51,150.86
1090,2330,Dural,-32.51,150.86
1091,2330,Dyrring,-32.51,150.86
1092,2330,Falbrook,-32.51,150.86
1093,2330,Fern Gully,-32.51,150.86
1094,2330,Fordwich,-32.51,150.86
1095,2330,Garland Valley,-32.51,150.86
1096,2330,Glendon,-32.51,150.86
1097,2330,Glendon Brook,-32.51,150.86
1098,2330,Glennies Creek,-32.51,150.86
1099,2330,Glenridding,-32.51,150.86
1100,2330,Goorangoola,-32.51,150.86
1101,2330,Gouldsville,-32.51,150.86
1102,2330,Gowrie,-32.51,150.86
1103,2330,Greenlands,-32.51,150.86
1104,2330,Hambledon Hill,-32.51,150.86
1105,2330,Hebden,-32.51,150.86
1106,2330,Howes Valley,-32.51,150.86
1107,2330,Howick,-32.51,150.86
1108,2330,Hunterview,-32.51,150.86
1109,2330,Jerrys Plains,-32.51,150.86
1110,2330,Lemington,-32.51,150.86
1111,2330,Long Point,-32.51,150.86
1112,2330,Maison Dieu,-32.51,150.86
1113,2330,Mcdougalls Hill,-32.51,150.86
1114,2330,Middle Falbrook,-32.51,150.86
1115,2330,Milbrodale,-32.51,150.86
1116,2330,Mirannie,-32.51,150.86
1117,2330,Mitchells Flat,-32.51,150.86
1118,2330,Mount Olive,-32.51,150.86
1119,2330,Mount Royal,-32.51,150.86
1120,2330,Mount Thorley,-32.51,150.86
1121,2330,Obanvale,-32.51,150.86
1122,2330,Putty,-32.51,150.86
1123,2330,Ravensworth,-32.51,150.86
1124,2330,Redbournberry,-32.51,150.86
1125,2330,Reedy Creek,-32.51,150.86
1126,2330,Rixs Creek,-32.51,150.86
1127,2330,Roughit,-32.51,150.86
1128,2330,Scotts Flat,-32.51,150.86
1129,2330,Sedgefield,-32.51,150.86
1130,2330,Singleton,-32.51,150.86
1131,2330,Singleton Heights,-32.51,150.86
1132,2330,St Clair,-32.51,150.86
1133,2330,Warkworth,-32.51,150.86
1134,2330,Wattle Ponds,-32.51,150.86
1135,2330,Westbrook,-32.51,150.86
1136,2330,Whittingham,-32.51,150.86
1137,2330,Wollemi,-32.51,150.86
1138,2330,Wylies Flat,-32.51,150.86
1139,2331,Singleton Military Area,-32.69,151.18
1140,2331,Singleton Milpo,-32.69,151.18
1141,2333,Baerami,-32.39,150.47
1142,2333,Baerami Creek,-32.39,150.47
1143,2333,Bengalla,-32.39,150.47
1144,2333,Castle Rock,-32.39,150.47
1145,2333,Edderton,-32.39,150.47
1146,2333,Gungal,-32.39,150.47
1147,2333,Kayuga,-32.39,150.47
1148,2333,Liddell,-32.39,150.47
1149,2333,Manobalai,-32.39,150.47
1150,2333,Mccullys Gap,-32.39,150.47
1151,2333,Muscle Creek,-32.39,150.47
1152,2333,Muswellbrook,-32.39,150.47
1153,2333,Sandy Hollow,-32.39,150.47
1154,2333,Wybong,-32.39,150.47
1155,2334,Greta,-32.68,151.39
1156,2335,Belford,-32.65,151.28
1157,2335,Branxton,-32.65,151.28
1158,2335,Dalwood,-32.65,151.28
1159,2335,East Branxton,-32.65,151.28
1160,2335,Elderslie,-32.65,151.28
1161,2335,Lambs Valley,-32.65,151.28
1162,2335,Leconfield,-32.65,151.28
1163,2335,Lower Belford,-32.65,151.28
1164,2335,North Rothbury,-32.65,151.28
1165,2335,Stanhope,-32.65,151.28
1166,2336,Aberdeen,-32.16,150.89
1167,2336,Dartbrook,-32.16,150.89
1168,2336,Davis Creek,-32.16,150.89
1169,2336,Rossgole,-32.16,150.89
1170,2336,Rouchel,-32.16,150.89
1171,2336,Rouchel Brook,-32.16,150.89
1172,2336,Upper Dartbrook,-32.16,150.89
1173,2336,Upper Rouchel,-32.16,150.89
1174,2337,Belltrees,-31.99,151.12
1175,2337,Brawboy,-31.99,151.12
1176,2337,Bunnan,-31.99,151.12
1177,2337,Dry Creek,-31.99,151.12
1178,2337,Ellerston,-31.99,151.12
1179,2337,Glenbawn,-31.99,151.12
1180,2337,Glenrock,-31.99,151.12
1181,2337,Gundy,-31.99,151.12
1182,2337,Kars Springs,-31.99,151.12
1183,2337,Middle Brook,-31.99,151.12
1184,2337,Moobi,-31.99,151.12
1185,2337,Moonan Brook,-31.99,151.12
1186,2337,Moonan Flat,-31.99,151.12
1187,2337,Murulla,-31.99,151.12
1188,2337,Omadale,-31.99,151.12
1189,2337,Owens Gap,-31.99,151.12
1190,2337,Pages Creek,-31.99,151.12
1191,2337,Parkville,-31.99,151.12
1192,2337,Scone,-31.99,151.12
1193,2337,Segenhoe,-31.99,151.12
1194,2337,Stewarts Brook,-31.99,151.12
1195,2337,Tomalla,-31.99,151.12
1196,2337,Waverly,-31.99,151.12
1197,2337,Wingen,-31.99,151.12
1198,2337,Woolooma,-31.99,151.12
1199,2338,Ardglen,-31.73,150.79
1200,2338,Blandford,-31.73,150.79
1201,2338,Crawney,-31.73,150.79
1202,2338,Green Creek,-31.73,150.79
1203,2338,Murrurundi,-31.73,150.79
1204,2338,Pages River,-31.73,150.79
1205,2338,Sandy Creek,-31.73,150.79
1206,2338,Scotts Creek,-31.73,150.79
1207,2338,Timor,-31.73,150.79
1208,2339,Big Jacks Creek,-31.77,150.62
1209,2339,Braefield,-31.77,150.62
1210,2339,Cattle Creek,-31.77,150.62
1211,2339,Chilcotts Creek,-31.77,150.62
1212,2339,Little Jacks Creek,-31.77,150.62
1213,2339,Macdonalds Creek,-31.77,150.62
1214,2339,Parraweena,-31.77,150.62
1215,2339,Warrah,-31.77,150.62
1216,2339,Warrah Creek,-31.77,150.62
1217,2339,Willow Tree,-31.77,150.62
1218,2340,Appleby,-30.96,150.83
1219,2340,Barry,-30.96,150.83
1220,2340,Bective,-30.96,150.83
1221,2340,Bithramere,-30.96,150.83
1222,2340,Bowling Alley Point,-30.96,150.83
1223,2340,Calala,-30.96,150.83
1224,2340,Carroll,-30.96,150.83
1225,2340,Daruka,-30.96,150.83
1226,2340,Duncans Creek,-30.96,150.83
1227,2340,Dungowan,-30.96,150.83
1228,2340,East Tamworth,-30.96,150.83
1229,2340,Garoo,-30.96,150.83
1230,2340,Gidley,-30.96,150.83
1231,2340,Goonoo Goonoo,-30.96,150.83
1232,2340,Gowrie,-30.96,150.83
1233,2340,Hallsville,-30.96,150.83
1234,2340,Hanging Rock,-30.96,150.83
1235,2340,Hillvue,-30.96,150.83
1236,2340,Keepit,-30.96,150.83
1237,2340,Kingswood,-30.96,150.83
1238,2340,Loomberah,-30.96,150.83
1239,2340,Moore Creek,-30.96,150.83
1240,2340,Nemingha,-30.96,150.83
1241,2340,North Tamworth,-30.96,150.83
1242,2340,Nundle,-30.96,150.83
1243,2340,Ogunbil,-30.96,150.83
1244,2340,Oxley Vale,-30.96,150.83
1245,2340,Piallamore,-30.96,150.83
1246,2340,Somerton,-30.96,150.83
1247,2340,South Tamworth,-30.96,150.83
1248,2340,Taminda,-30.96,150.83
1249,2340,Tamworth,-30.96,150.83
1250,2340,Timbumburi,-30.96,150.83
1251,2340,Wallamore,-30.96,150.83
1252,2340,Warral,-30.96,150.83
1253,2340,Weabonga,-30.96,150.83
1254,2340,West Tamworth,-30.96,150.83
1255,2340,Westdale,-30.96,150.83
1256,2340,Woolomin,-30.96,150.83
1257,2341,Werris Creek,-31.35,150.62
1258,2342,Currabubula,-31.26,150.73
1259,2342,Piallaway,-31.26,150.73
1260,2343,Blackville,-31.66,150.3
1261,2343,Borambil,-31.66,150.3
1262,2343,Bundella,-31.66,150.3
1263,2343,Caroona,-31.66,150.3
1264,2343,Colly Blue,-31.66,150.3
1265,2343,Coomoo Coomoo,-31.66,150.3
1266,2343,Pine Ridge,-31.66,150.3
1267,2343,Quipolly,-31.66,150.3
1268,2343,Quirindi,-31.66,150.3
1269,2343,Spring Ridge,-31.66,150.3
1270,2343,Wallabadah,-31.66,150.3
1271,2343,Warrah Ridge,-31.66,150.3
1272,2343,Windy,-31.66,150.3
1273,2343,Yannergee,-31.66,150.3
1274,2343,Yarraman,-31.66,150.3
1275,2344,Duri,-31.22,150.82
1276,2344,Winton,-31.22,150.82
1277,2345,Attunga,-30.93,150.85
1278,2345,Garthowen,-30.93,150.85
1279,2346,Borah Creek,-30.61,150.51
1280,2346,Halls Creek,-30.61,150.51
1281,2346,Klori,-30.61,150.51
1282,2346,Manilla,-30.61,150.51
1283,2346,Namoi River,-30.61,150.51
1284,2346,New Mexico,-30.61,150.51
1285,2346,Rushes Creek,-30.61,150.51
1286,2346,Upper Manilla,-30.61,150.51
1287,2346,Warrabah,-30.61,150.51
1288,2346,Wimborne,-30.61,150.51
1289,2346,Wongo Creek,-30.61,150.51
1290,2347,Banoon,-30.53,150.44
1291,2347,Barraba,-30.53,150.44
1292,2347,Cobbadah,-30.53,150.44
1293,2347,Gulf Creek,-30.53,150.44
1294,2347,Gundamulda,-30.53,150.44
1295,2347,Ironbark,-30.53,150.44
1296,2347,Lindesay,-30.53,150.44
1297,2347,Longarm,-30.53,150.44
1298,2347,Mayvale,-30.53,150.44
1299,2347,Red Hill,-30.53,150.44
1300,2347,Thirloene,-30.53,150.44
1301,2347,Upper Horton,-30.53,150.44
1302,2347,Woodsreef,-30.53,150.44
1303,2348,New England MC,0,0
1304,2350,Aberfoyle,-30.24,152.01
1305,2350,Abington,-30.24,152.01
1306,2350,Argyle,-30.24,152.01
1307,2350,Armidale,-30.24,152.01
1308,2350,Boorolong,-30.24,152.01
1309,2350,Castle Doyle,-30.24,152.01
1310,2350,Dangarsleigh,-30.24,152.01
1311,2350,Donald Creek,-30.24,152.01
1312,2350,Dumaresq,-30.24,152.01
1313,2350,Duval,-30.24,152.01
1314,2350,Enmore,-30.24,152.01
1315,2350,Hillgrove,-30.24,152.01
1316,2350,Invergowrie,-30.24,152.01
1317,2350,Jeogla,-30.24,152.01
1318,2350,Kellys Plains,-30.24,152.01
1319,2350,Lyndhurst,-30.24,152.01
1320,2350,Puddledock,-30.24,152.01
1321,2350,Saumarez,-30.24,152.01
1322,2350,Saumarez Ponds,-30.24,152.01
1323,2350,Thalgarrah,-30.24,152.01
1324,2350,Tilbuster,-30.24,152.01
1325,2350,Wards Mistake,-30.24,152.01
1326,2350,West Armidale,-30.24,152.01
1327,2350,Wollomombi,-30.24,152.01
1328,2350,Wongwibinda,-30.24,152.01
1329,2351,University Of New England,-30.49,151.64
1330,2352,Kootingal,-31.06,151.05
1331,2352,Limbri,-31.06,151.05
1332,2352,Mulla Creek,-31.06,151.05
1333,2352,Tintinhull,-31.06,151.05
1334,2353,Moonbi,-30.95,151.05
1335,2354,Kentucky,-31.27,151.55
1336,2354,Kentucky South,-31.27,151.55
1337,2354,Niangala,-31.27,151.55
1338,2354,Nowendoc,-31.27,151.55
1339,2354,Walcha,-31.27,151.55
1340,2354,Walcha Road,-31.27,151.55
1341,2354,Wollun,-31.27,151.55
1342,2354,Woolbrook,-31.27,151.55
1343,2354,Yarrowitch,-31.27,151.55
1344,2355,Bendemeer,-30.88,151.16
1345,2355,Retreat,-30.88,151.16
1346,2355,Watsons Creek,-30.88,151.16
1347,2356,Gwabegar,-30.62,148.97
1348,2357,Bomera,-31.51,149.79
1349,2357,Box Ridge,-31.51,149.79
1350,2357,Bugaldie,-31.51,149.79
1351,2357,Coonabarabran,-31.51,149.79
1352,2357,Dandry,-31.51,149.79
1353,2357,Gowang,-31.51,149.79
1354,2357,Purlewaugh,-31.51,149.79
1355,2357,Rocky Glen,-31.51,149.79
1356,2357,Tannabar,-31.51,149.79
1357,2357,Ulamambri,-31.51,149.79
1358,2357,Wattle Springs,-31.51,149.79
1359,2358,Arding,-30.59,151.56
1360,2358,Balala,-30.59,151.56
1361,2358,Gostwyck,-30.59,151.56
1362,2358,Kingstown,-30.59,151.56
1363,2358,Mihi,-30.59,151.56
1364,2358,Rocky River,-30.59,151.56
1365,2358,Salisbury Plains,-30.59,151.56
1366,2358,Torryburn,-30.59,151.56
1367,2358,Uralla,-30.59,151.56
1368,2358,Yarrowyck,-30.59,151.56
1369,2359,Aberdeen,-30,151.08
1370,2359,Bakers Creek,-30,151.08
1371,2359,Bundarra,-30,151.08
1372,2359,Camerons Creek,-30,151.08
1373,2360,Auburn Vale,-29.84,151.04
1374,2360,Brodies Plains,-29.84,151.04
1375,2360,Bukkulla,-29.84,151.04
1376,2360,Cherry Tree Hill,-29.84,151.04
1377,2360,Copeton,-29.84,151.04
1378,2360,Elsmore,-29.84,151.04
1379,2360,Gilgai,-29.84,151.04
1380,2360,Graman,-29.84,151.04
1381,2360,Gum Flat,-29.84,151.04
1382,2360,Howell,-29.84,151.04
1383,2360,Inverell,-29.84,151.04
1384,2360,Kings Plains,-29.84,151.04
1385,2360,Little Plain,-29.84,151.04
1386,2360,Long Plain,-29.84,151.04
1387,2360,Mount Russell,-29.84,151.04
1388,2360,Newstead,-29.84,151.04
1389,2360,Nullamanna,-29.84,151.04
1390,2360,Oakwood,-29.84,151.04
1391,2360,Paradise,-29.84,151.04
1392,2360,Rob Roy,-29.84,151.04
1393,2360,Sapphire,-29.84,151.04
1394,2360,Spring Mountain,-29.84,151.04
1395,2360,Stanborough,-29.84,151.04
1396,2360,Swanbrook,-29.84,151.04
1397,2360,Wallangra,-29.84,151.04
1398,2360,Wandera,-29.84,151.04
1399,2360,Woodstock,-29.84,151.04
1400,2361,Ashford,-29.32,151.1
1401,2361,Atholwood,-29.32,151.1
1402,2361,Bonshaw,-29.32,151.1
1403,2361,Limestone,-29.32,151.1
1404,2361,Pindaroi,-29.32,151.1
1405,2365,Backwater,-30.08,151.88
1406,2365,Bald Blair,-30.08,151.88
1407,2365,Baldersleigh,-30.08,151.88
1408,2365,Bassendean,-30.08,151.88
1409,2365,Ben Lomond,-30.08,151.88
1410,2365,Black Mountain,-30.08,151.88
1411,2365,Briarbrook,-30.08,151.88
1412,2365,Brockley,-30.08,151.88
1413,2365,Brushy Creek,-30.08,151.88
1414,2365,Falconer,-30.08,151.88
1415,2365,Georges Creek,-30.08,151.88
1416,2365,Glen Nevis,-30.08,151.88
1417,2365,Glencoe,-30.08,151.88
1418,2365,Green Hills,-30.08,151.88
1419,2365,Guyra,-30.08,151.88
1420,2365,Llangothlin,-30.08,151.88
1421,2365,Maybole,-30.08,151.88
1422,2365,Mount Mitchell,-30.08,151.88
1423,2365,New Valley,-30.08,151.88
1424,2365,Oban,-30.08,151.88
1425,2365,South Guyra,-30.08,151.88
1426,2365,Tenterden,-30.08,151.88
1427,2365,The Basin,-30.08,151.88
1428,2365,The Gulf,-30.08,151.88
1429,2365,Tubbamurra,-30.08,151.88
1430,2365,Wandsworth,-30.08,151.88
1431,2369,Old Mill,-29.91,151.21
1432,2369,Stannifer,-29.91,151.21
1433,2369,Tingha,-29.91,151.21
1434,2370,Bald Nob,-29.64,151.96
1435,2370,Diehard,-29.64,151.96
1436,2370,Dundee,-29.64,151.96
1437,2370,Furracabad,-29.64,151.96
1438,2370,Gibraltar Range,-29.64,151.96
1439,2370,Glen Elgin,-29.64,151.96
1440,2370,Glen Innes,-29.64,151.96
1441,2370,Kingsgate,-29.64,151.96
1442,2370,Kookabookra,-29.64,151.96
1443,2370,Lambs Valley,-29.64,151.96
1444,2370,Matheson,-29.64,151.96
1445,2370,Moggs Swamp,-29.64,151.96
1446,2370,Moogem,-29.64,151.96
1447,2370,Morven,-29.64,151.96
1448,2370,Newton Boyd,-29.64,151.96
1449,2370,Pinkett,-29.64,151.96
1450,2370,Rangers Valley,-29.64,151.96
1451,2370,Red Range,-29.64,151.96
1452,2370,Reddestone,-29.64,151.96
1453,2370,Shannon Vale,-29.64,151.96
1454,2370,Stonehenge,-29.64,151.96
1455,2370,Swan Vale,-29.64,151.96
1456,2370,Wellingrove,-29.64,151.96
1457,2370,Yarrowford,-29.64,151.96
1458,2371,Capoompeta,-29.39,152.04
1459,2371,Deepwater,-29.39,152.04
1460,2371,Emmaville,-29.39,152.04
1461,2371,Rocky Creek,-29.39,152.04
1462,2371,Stannum,-29.39,152.04
1463,2371,The Gulf,-29.39,152.04
1464,2371,Torrington,-29.39,152.04
1465,2371,Wellington Vale,-29.39,152.04
1466,2371,Yellow Dam,-29.39,152.04
1467,2372,Back Creek,-28.93,151.7
1468,2372,Bolivia,-28.93,151.7
1469,2372,Boonoo Boonoo,-28.93,151.7
1470,2372,Boorook,-28.93,151.7
1471,2372,Carrolls Creek,-28.93,151.7
1472,2372,Cullendore,-28.93,151.7
1473,2372,Forest Land,-28.93,151.7
1474,2372,Liston,-28.93,151.7
1475,2372,Mole River,-28.93,151.7
1476,2372,Rivertree,-28.93,151.7
1477,2372,Rocky River,-28.93,151.7
1478,2372,Sandy Flat,-28.93,151.7
1479,2372,Sandy Hill,-28.93,151.7
1480,2372,Silent Grove,-28.93,151.7
1481,2372,Tarban,-28.93,151.7
1482,2372,Tenterfield,-28.93,151.7
1483,2372,Timbarra,-28.93,151.7
1484,2372,Willsons Downfall,-28.93,151.7
1485,2372,Woodside,-28.93,151.7
1486,2372,Wylie Creek,-28.93,151.7
1487,2379,Goolhi,-31.07,149.71
1488,2379,Mullaley,-31.07,149.71
1489,2379,Napier Lane,-31.07,149.71
1490,2379,Nombi,-31.07,149.71
1491,2380,Blue Vale,-30.8,150.2
1492,2380,Emerald Hill,-30.8,150.2
1493,2380,Ghoolendaadi,-30.8,150.2
1494,2380,Gunnedah,-30.8,150.2
1495,2380,Kelvin,-30.8,150.2
1496,2380,Marys Mount,-30.8,150.2
1497,2380,Milroy,-30.8,150.2
1498,2380,Orange Grove,-30.8,150.2
1499,2380,Rangari,-30.8,150.2
1500,2381,Breeza,-31.24,150.46
1501,2381,Curlewis,-31.24,150.46
1502,2381,Premer,-31.24,150.46
1503,2381,Tambar Springs,-31.24,150.46
1504,2382,Boggabri,-30.7,150.04
1505,2382,Maules Creek,-30.7,150.04
1506,2382,Wean,-30.7,150.04
1507,2382,Willala,-30.7,150.04
1508,2386,Burren Junction,-30.11,148.97
1509,2386,Drildool,-30.11,148.97
1510,2386,Nowley,-30.11,148.97
1511,2387,Bulyeroi,-29.78,149.09
1512,2387,Rowena,-29.78,149.09
1513,2388,Boolcarroll,-30.09,149.44
1514,2388,Cuttabri,-30.09,149.44
1515,2388,Jews Lagoon,-30.09,149.44
1516,2388,Merah North,-30.09,149.44
1517,2388,Pilliga,-30.09,149.44
1518,2388,Spring Plains,-30.09,149.44
1519,2388,The Pilliga,-30.09,149.44
1520,2388,Wee Waa,-30.09,149.44
1521,2388,Yarrie Lake,-30.09,149.44
1522,2390,Baan Baa,-30.6,149.97
1523,2390,Back Creek,-30.6,149.97
1524,2390,Berrigal,-30.6,149.97
1525,2390,Bohena Creek,-30.6,149.97
1526,2390,Bullawa Creek,-30.6,149.97
1527,2390,Couradda,-30.6,149.97
1528,2390,Edgeroi,-30.6,149.97
1529,2390,Eulah Creek,-30.6,149.97
1530,2390,Harparary,-30.6,149.97
1531,2390,Jacks Creek,-30.6,149.97
1532,2390,Kaputar,-30.6,149.97
1533,2390,Narrabri,-30.6,149.97
1534,2390,Narrabri West,-30.6,149.97
1535,2390,Rocky Creek,-30.6,149.97
1536,2390,Tarriaro,-30.6,149.97
1537,2390,Turrawan,-30.6,149.97
1538,2395,Binnaway,-31.55,149.38
1539,2395,Ropers Road,-31.55,149.38
1540,2395,Weetaliba,-31.55,149.38
1541,2396,Baradine,-30.94,149.07
1542,2396,Barwon,-30.94,149.07
1543,2396,Goorianawa,-30.94,149.07
1544,2396,Kenebri,-30.94,149.07
1545,2397,Bellata,-29.92,149.79
1546,2397,Millie,-29.92,149.79
1547,2398,Gurley,-29.74,149.8
1548,2399,Biniguy,-29.58,150.14
1549,2399,Pallamallawa,-29.58,150.14
1550,2400,Ashley,-29.32,149.81
1551,2400,Bullarah,-29.32,149.81
1552,2400,Crooble,-29.32,149.81
1553,2400,Mallowa,-29.32,149.81
1554,2400,Moree,-29.32,149.81
1555,2400,Moree East,-29.32,149.81
1556,2400,Terry Hie Hie,-29.32,149.81
1557,2400,Tulloona,-29.32,149.81
1558,2401,Gravesend,-29.58,150.34
1559,2402,Balfours Peak,-29.51,150.75
1560,2402,Coolatai,-29.51,150.75
1561,2402,Warialda,-29.51,150.75
1562,2402,Warialda Rail,-29.51,150.75
1563,2403,Delungra,-29.65,150.83
1564,2403,Gragin,-29.65,150.83
1565,2403,Myall Creek,-29.65,150.83
1566,2404,Bangheet,-29.8,150.48
1567,2404,Bingara,-29.8,150.48
1568,2404,Dinoga,-29.8,150.48
1569,2404,Elcombe,-29.8,150.48
1570,2404,Gineroi,-29.8,150.48
1571,2404,Keera,-29.8,150.48
1572,2404,Pallal,-29.8,150.48
1573,2404,Riverview,-29.8,150.48
1574,2404,Upper Bingara,-29.8,150.48
1575,2405,Boomi,-28.73,149.58
1576,2405,Garah,-28.73,149.58
1577,2406,Mungindi,-29,149.1
1578,2406,Mungindi,-29,149.1
1579,2406,Weemelah,-29,149.1
1580,2408,Blue Nobby,-28.93,150.39
1581,2408,North Star,-28.93,150.39
1582,2408,Yallaroi,-28.93,150.39
1583,2409,Boggabilla,-28.74,150.42
1584,2409,Boonal,-28.74,150.42
1585,2410,Twin Rivers,-29.05,150.64
1586,2410,Yetman,-29.05,150.64
1587,2411,Croppa Creek,-29.13,150.38
1588,2415,Monkerai,-32.29,151.86
1589,2415,Nooroo,-32.29,151.86
1590,2415,Stroud Road,-32.29,151.86
1591,2415,Upper Karuah River,-32.29,151.86
1592,2415,Weismantels,-32.29,151.86
1593,2420,Alison,-32.43,151.77
1594,2420,Bandon Grove,-32.43,151.77
1595,2420,Bendolba,-32.43,151.77
1596,2420,Brookfield,-32.43,151.77
1597,2420,Cambra,-32.43,151.77
1598,2420,Chichester,-32.43,151.77
1599,2420,Dungog,-32.43,151.77
1600,2420,Flat Tops,-32.43,151.77
1601,2420,Fosterton,-32.43,151.77
1602,2420,Hanleys Creek,-32.43,151.77
1603,2420,Hilldale,-32.43,151.77
1604,2420,Main Creek,-32.43,151.77
1605,2420,Marshdale,-32.43,151.77
1606,2420,Martins Creek,-32.43,151.77
1607,2420,Munni,-32.43,151.77
1608,2420,Salisbury,-32.43,151.77
1609,2420,Stroud Hill,-32.43,151.77
1610,2420,Sugarloaf,-32.43,151.77
1611,2420,Tabbil Creek,-32.43,151.77
1612,2420,Underbank,-32.43,151.77
1613,2420,Wallaringa,-32.43,151.77
1614,2420,Wallarobba,-32.43,151.77
1615,2420,Wirragulla,-32.43,151.77
1616,2421,Fishers Hill,-32.51,151.53
1617,2421,Paterson,-32.51,151.53
1618,2421,Summer Hill,-32.51,151.53
1619,2421,Tocal,-32.51,151.53
1620,2421,Torryburn,-32.51,151.53
1621,2421,Vacy,-32.51,151.53
1622,2421,Webbers Creek,-32.51,151.53
1623,2422,Back Creek,-31.97,152.07
1624,2422,Bakers Creek,-31.97,152.07
1625,2422,Barrington,-31.97,152.07
1626,2422,Barrington Tops,-31.97,152.07
1627,2422,Baxters Ridge,-31.97,152.07
1628,2422,Belbora,-31.97,152.07
1629,2422,Berrico,-31.97,152.07
1630,2422,Bindera,-31.97,152.07
1631,2422,Bowman,-31.97,152.07
1632,2422,Bowman Farm,-31.97,152.07
1633,2422,Bretti,-31.97,152.07
1634,2422,Bulliac,-31.97,152.07
1635,2422,Bundook,-31.97,152.07
1636,2422,Callaghans Creek,-31.97,152.07
1637,2422,Cobark,-31.97,152.07
1638,2422,Coneac,-31.97,152.07
1639,2422,Copeland,-31.97,152.07
1640,2422,Craven,-31.97,152.07
1641,2422,Craven Plateau,-31.97,152.07
1642,2422,Curricabark,-31.97,152.07
1643,2422,Dewitt,-31.97,152.07
1644,2422,Faulkland,-31.97,152.07
1645,2422,Forbesdale,-31.97,152.07
1646,2422,Gangat,-31.97,152.07
1647,2422,Giro,-31.97,152.07
1648,2422,Glen Ward,-31.97,152.07
1649,2422,Gloucester,-31.97,152.07
1650,2422,Gloucester Tops,-31.97,152.07
1651,2422,Invergordon,-31.97,152.07
1652,2422,Kia Ora,-31.97,152.07
1653,2422,Mares Run,-31.97,152.07
1654,2422,Mernot,-31.97,152.07
1655,2422,Mograni,-31.97,152.07
1656,2422,Moppy,-31.97,152.07
1657,2422,Rawdon Vale,-31.97,152.07
1658,2422,Rookhurst,-31.97,152.07
1659,2422,Stratford,-31.97,152.07
1660,2422,Terreel,-31.97,152.07
1661,2422,Tibbuc,-31.97,152.07
1662,2422,Titaatee Creek,-31.97,152.07
1663,2422,Tugrabakh,-31.97,152.07
1664,2422,Wallanbah,-31.97,152.07
1665,2422,Wards River,-31.97,152.07
1666,2422,Waukivory,-31.97,152.07
1667,2422,Woko,-31.97,152.07
1668,2423,Bombah Point,-32.49,152.28
1669,2423,Boolambayte,-32.49,152.28
1670,2423,Bulahdelah,-32.49,152.28
1671,2423,Bungwahl,-32.49,152.28
1672,2423,Coolongolook,-32.49,152.28
1673,2423,Crawford River,-32.49,152.28
1674,2423,Markwell,-32.49,152.28
1675,2423,Mayers Flat,-32.49,152.28
1676,2423,Mungo Brush,-32.49,152.28
1677,2423,Myall Lake,-32.49,152.28
1678,2423,Nerong,-32.49,152.28
1679,2423,Seal Rocks,-32.49,152.28
1680,2423,Topi Topi,-32.49,152.28
1681,2423,Upper Myall,-32.49,152.28
1682,2423,Violet Hill,-32.49,152.28
1683,2423,Wang Wauk,-32.49,152.28
1684,2423,Warranulla,-32.49,152.28
1685,2423,Willina,-32.49,152.28
1686,2423,Wootton,-32.49,152.28
1687,2423,Yagon,-32.49,152.28
1688,2424,Caffreys Flat,-31.8,152.07
1689,2424,Cells River,-31.8,152.07
1690,2424,Cooplacurripa,-31.8,152.07
1691,2424,Cundle Flat,-31.8,152.07
1692,2424,Knorrit Flat,-31.8,152.07
1693,2424,Knorrit Forest,-31.8,152.07
1694,2424,Mount George,-31.8,152.07
1695,2424,Number One,-31.8,152.07
1696,2424,Tiri,-31.8,152.07
1697,2425,Allworth,-32.54,151.96
1698,2425,Booral,-32.54,151.96
1699,2425,Girvan,-32.54,151.96
1700,2425,Stroud,-32.54,151.96
1701,2425,The Branch,-32.54,151.96
1702,2425,Washpool,-32.54,151.96
1703,2426,Coopernook,-31.83,152.61
1704,2426,Langley Vale,-31.83,152.61
1705,2426,Moto,-31.83,152.61
1706,2427,Crowdy Head,-31.84,152.74
1707,2427,Harrington,-31.84,152.74
1708,2428,Blueys Beach,-32.35,152.54
1709,2428,Boomerang Beach,-32.35,152.54
1710,2428,Booti Booti,-32.35,152.54
1711,2428,Charlotte Bay,-32.35,152.54
1712,2428,Coomba Bay,-32.35,152.54
1713,2428,Coomba Park,-32.35,152.54
1714,2428,Darawank,-32.35,152.54
1715,2428,Elizabeth Beach,-32.35,152.54
1716,2428,Forster,-32.35,152.54
1717,2428,Forster Shopping Village,-32.35,152.54
1718,2428,Green Point,-32.35,152.54
1719,2428,Pacific Palms,-32.35,152.54
1720,2428,Sandbar,-32.35,152.54
1721,2428,Shallow Bay,-32.35,152.54
1722,2428,Smiths Lake,-32.35,152.54
1723,2428,Tarbuck Bay,-32.35,152.54
1724,2428,Tiona,-32.35,152.54
1725,2428,Tuncurry,-32.35,152.54
1726,2428,Wallingat,-32.35,152.54
1727,2428,Wallis Lake,-32.35,152.54
1728,2428,Whoota,-32.35,152.54
1729,2429,Bobin,-31.73,152.28
1730,2429,Boorganna,-31.73,152.28
1731,2429,Bucca Wauka,-31.73,152.28
1732,2429,Bulga Forest,-31.73,152.28
1733,2429,Bunyah,-31.73,152.28
1734,2429,Burrell Creek,-31.73,152.28
1735,2429,Caparra,-31.73,152.28
1736,2429,Cedar Party,-31.73,152.28
1737,2429,Comboyne,-31.73,152.28
1738,2429,Dingo Forest,-31.73,152.28
1739,2429,Dollys Flat,-31.73,152.28
1740,2429,Dyers Crossing,-31.73,152.28
1741,2429,Elands,-31.73,152.28
1742,2429,Firefly,-31.73,152.28
1743,2429,Innes View,-31.73,152.28
1744,2429,Karaak Flat,-31.73,152.28
1745,2429,Khatambuhl,-31.73,152.28
1746,2429,Killabakh,-31.73,152.28
1747,2429,Killawarra,-31.73,152.28
1748,2429,Kimbriki,-31.73,152.28
1749,2429,Kippaxs,-31.73,152.28
1750,2429,Krambach,-31.73,152.28
1751,2429,Kundibakh,-31.73,152.28
1752,2429,Marlee,-31.73,152.28
1753,2429,Mooral Creek,-31.73,152.28
1754,2429,Strathcedar,-31.73,152.28
1755,2429,The Bight,-31.73,152.28
1756,2429,Tipperary,-31.73,152.28
1757,2429,Warriwillah,-31.73,152.28
1758,2429,Wherrol Flat,-31.73,152.28
1759,2429,Wingham,-31.73,152.28
1760,2429,Yarratt Forest,-31.73,152.28
1761,2430,Black Head,-32.07,152.54
1762,2430,Bohnock,-32.07,152.54
1763,2430,Bootawa,-32.07,152.54
1764,2430,Brimbin,-32.07,152.54
1765,2430,Cabbage Tree Island,-32.07,152.54
1766,2430,Chatham,-32.07,152.54
1767,2430,Croki,-32.07,152.54
1768,2430,Cundletown,-32.07,152.54
1769,2430,Diamond Beach,-32.07,152.54
1770,2430,Dumaresq Island,-32.07,152.54
1771,2430,Failford,-32.07,152.54
1772,2430,Ghinni Ghinni,-32.07,152.54
1773,2430,Glenthorne,-32.07,152.54
1774,2430,Hallidays Point,-32.07,152.54
1775,2430,Hillville,-32.07,152.54
1776,2430,Jones Island,-32.07,152.54
1777,2430,Kiwarrak,-32.07,152.54
1778,2430,Koorainghat,-32.07,152.54
1779,2430,Kundle Kundle,-32.07,152.54
1780,2430,Lansdowne,-32.07,152.54
1781,2430,Lansdowne Forest,-32.07,152.54
1782,2430,Manning Point,-32.07,152.54
1783,2430,Melinga,-32.07,152.54
1784,2430,Mitchells Island,-32.07,152.54
1785,2430,Mondrook,-32.07,152.54
1786,2430,Old Bar,-32.07,152.54
1787,2430,Oxley Island,-32.07,152.54
1788,2430,Pampoolah,-32.07,152.54
1789,2430,Possum Brush,-32.07,152.54
1790,2430,Purfleet,-32.07,152.54
1791,2430,Rainbow Flat,-32.07,152.54
1792,2430,Red Head,-32.07,152.54
1793,2430,Saltwater,-32.07,152.54
1794,2430,Tallwoods Village,-32.07,152.54
1795,2430,Taree,-32.07,152.54
1796,2430,Taree South,-32.07,152.54
1797,2430,Tinonee,-32.07,152.54
1798,2430,Upper Lansdowne,-32.07,152.54
1799,2430,Wallabi Point,-32.07,152.54
1800,2431,Arakoon,-30.89,153.07
1801,2431,Jerseyville,-30.89,153.07
1802,2431,South West Rocks,-30.89,153.07
1803,2439,Batar Creek,-31.66,152.68
1804,2439,Black Creek,-31.66,152.68
1805,2439,Kendall,-31.66,152.68
1806,2439,Kerewong,-31.66,152.68
1807,2439,Kew,-31.66,152.68
1808,2439,Logans Crossing,-31.66,152.68
1809,2439,Lorne,-31.66,152.68
1810,2439,Rossglen,-31.66,152.68
1811,2439,Swans Crossing,-31.66,152.68
1812,2439,Upsalls Creek,-31.66,152.68
1813,2440,Aldavilla,-31.06,152.77
1814,2440,Austral Eden,-31.06,152.77
1815,2440,Bellbrook,-31.06,152.77
1816,2440,Bellimbopinni,-31.06,152.77
1817,2440,Belmore River,-31.06,152.77
1818,2440,Burnt Bridge,-31.06,152.77
1819,2440,Carrai,-31.06,152.77
1820,2440,Clybucca,-31.06,152.77
1821,2440,Collombatti,-31.06,152.77
1822,2440,Comara,-31.06,152.77
1823,2440,Corangula,-31.06,152.77
1824,2440,Crescent Head,-31.06,152.77
1825,2440,Deep Creek,-31.06,152.77
1826,2440,Dondingalong,-31.06,152.77
1827,2440,East Kempsey,-31.06,152.77
1828,2440,Euroka,-31.06,152.77
1829,2440,Frederickton,-31.06,152.77
1830,2440,Gladstone,-31.06,152.77
1831,2440,Greenhill,-31.06,152.77
1832,2440,Hampden Hall,-31.06,152.77
1833,2440,Hat Head,-31.06,152.77
1834,2440,Hickeys Creek,-31.06,152.77
1835,2440,Kempsey,-31.06,152.77
1836,2440,Kinchela,-31.06,152.77
1837,2440,Lower Creek,-31.06,152.77
1838,2440,Millbank,-31.06,152.77
1839,2440,Mooneba,-31.06,152.77
1840,2440,Moparrabah,-31.06,152.77
1841,2440,Mungay Creek,-31.06,152.77
1842,2440,Old Station,-31.06,152.77
1843,2440,Pola Creek,-31.06,152.77
1844,2440,Rainbow Reach,-31.06,152.77
1845,2440,Seven Oaks,-31.06,152.77
1846,2440,Sherwood,-31.06,152.77
1847,2440,Skillion Flat,-31.06,152.77
1848,2440,Smithtown,-31.06,152.77
1849,2440,South Kempsey,-31.06,152.77
1850,2440,Summer Island,-31.06,152.77
1851,2440,Temagog,-31.06,152.77
1852,2440,Toorooka,-31.06,152.77
1853,2440,Turners Flat,-31.06,152.77
1854,2440,Verges Creek,-31.06,152.77
1855,2440,West Kempsey,-31.06,152.77
1856,2440,Willawarrin,-31.06,152.77
1857,2440,Willi Willi,-31.06,152.77
1858,2440,Wittitrin,-31.06,152.77
1859,2440,Yarravel,-31.06,152.77
1860,2440,Yessabah,-31.06,152.77
1861,2441,Allgomera,-30.82,152.83
1862,2441,Ballengarra,-30.82,152.83
1863,2441,Barraganyatti,-30.82,152.83
1864,2441,Bonville,-30.82,152.83
1865,2441,Bril Bril,-30.82,152.83
1866,2441,Brinerville,-30.82,152.83
1867,2441,Cooperabung,-30.82,152.83
1868,2441,Eungai Creek,-30.82,152.83
1869,2441,Eungai Rail,-30.82,152.83
1870,2441,Fishermans Reach,-30.82,152.83
1871,2441,Grassy Head,-30.82,152.83
1872,2441,Gum Scrub,-30.82,152.83
1873,2441,Hacks Ferry,-30.82,152.83
1874,2441,Kippara,-30.82,152.83
1875,2441,Kundabung,-30.82,152.83
1876,2441,Rollands Plains,-30.82,152.83
1877,2441,Stuarts Point,-30.82,152.83
1878,2441,Tamban,-30.82,152.83
1879,2441,Telegraph Point,-30.82,152.83
1880,2441,Upper Rollands Plains,-30.82,152.83
1881,2441,Yarrahapinni,-30.82,152.83
1882,2442,Kempsey Msc,0,0
1883,2442,Mid North Coast Msc,0,0
1884,2443,Bobs Creek,-31.58,152.74
1885,2443,Camden Head,-31.58,152.74
1886,2443,Coralville,-31.58,152.74
1887,2443,Crowdy Bay National Park,-31.58,152.74
1888,2443,Deauville,-31.58,152.74
1889,2443,Diamond Head,-31.58,152.74
1890,2443,Dunbogan,-31.58,152.74
1891,2443,Hannam Vale,-31.58,152.74
1892,2443,Herons Creek,-31.58,152.74
1893,2443,Johns River,-31.58,152.74
1894,2443,Lakewood,-31.58,152.74
1895,2443,Laurieton,-31.58,152.74
1896,2443,Middle Brother,-31.58,152.74
1897,2443,Moorland,-31.58,152.74
1898,2443,North Brother,-31.58,152.74
1899,2443,North Haven,-31.58,152.74
1900,2443,Stewarts River,-31.58,152.74
1901,2443,Waitui,-31.58,152.74
1902,2443,West Haven,-31.58,152.74
1903,2444,Blackmans Point,-31.4,152.85
1904,2444,Fernbank Creek,-31.4,152.85
1905,2444,Flynns Beach,-31.4,152.85
1906,2444,Lighthouse Beach,-31.4,152.85
1907,2444,Limeburners Creek,-31.4,152.85
1908,2444,North Shore,-31.4,152.85
1909,2444,Port Macquarie,-31.4,152.85
1910,2444,Port Macquarie BC,-31.4,152.85
1911,2444,Riverside,-31.4,152.85
1912,2444,Settlement City,-31.4,152.85
1913,2444,The Hatch,-31.4,152.85
1914,2444,Thrumster,-31.4,152.85
1915,2445,Bonny Hills,-31.59,152.84
1916,2445,Grants Beach,-31.59,152.84
1917,2445,Jolly Nose,-31.59,152.84
1918,2445,Lake Cathie,-31.59,152.84
1919,2446,Bagnoo,-31.46,152.53
1920,2446,Bago,-31.46,152.53
1921,2446,Banda Banda,-31.46,152.53
1922,2446,Beechwood,-31.46,152.53
1923,2446,Bellangry,-31.46,152.53
1924,2446,Birdwood,-31.46,152.53
1925,2446,Brombin,-31.46,152.53
1926,2446,Byabarra,-31.46,152.53
1927,2446,Cairncross,-31.46,152.53
1928,2446,Crosslands,-31.46,152.53
1929,2446,Debenham,-31.46,152.53
1930,2446,Doyles River,-31.46,152.53
1931,2446,Ellenborough,-31.46,152.53
1932,2446,Forbes River,-31.46,152.53
1933,2446,Frazers Creek,-31.46,152.53
1934,2446,Gearys Flat,-31.46,152.53
1935,2446,Hartys Plains,-31.46,152.53
1936,2446,Hollisdale,-31.46,152.53
1937,2446,Huntingdon,-31.46,152.53
1938,2446,Hyndmans Creek,-31.46,152.53
1939,2446,Kindee,-31.46,152.53
1940,2446,King Creek,-31.46,152.53
1941,2446,Lake Innes,-31.46,152.53
1942,2446,Long Flat,-31.46,152.53
1943,2446,Lower Pappinbarra,-31.46,152.53
1944,2446,Marlo Merrican,-31.46,152.53
1945,2446,Mortons Creek,-31.46,152.53
1946,2446,Mount Seaview,-31.46,152.53
1947,2446,Pappinbarra,-31.46,152.53
1948,2446,Pembrooke,-31.46,152.53
1949,2446,Pipeclay,-31.46,152.53
1950,2446,Rawdon Island,-31.46,152.53
1951,2446,Redbank,-31.46,152.53
1952,2446,Rosewood,-31.46,152.53
1953,2446,Sancrox,-31.46,152.53
1954,2446,Toms Creek,-31.46,152.53
1955,2446,Upper Pappinbarra,-31.46,152.53
1956,2446,Wauchope,-31.46,152.53
1957,2446,Werrikimbe,-31.46,152.53
1958,2446,Yarras,-31.46,152.53
1959,2446,Yippin Creek,-31.46,152.53
1960,2447,Bakers Creek,-30.8,152.73
1961,2447,Burrapine,-30.8,152.73
1962,2447,Congarinni,-30.8,152.73
1963,2447,Congarinni North,-30.8,152.73
1964,2447,Donnellyville,-30.8,152.73
1965,2447,Gumma,-30.8,152.73
1966,2447,Macksville,-30.8,152.73
1967,2447,Newee Creek,-30.8,152.73
1968,2447,North Macksville,-30.8,152.73
1969,2447,Scotts Head,-30.8,152.73
1970,2447,Talarm,-30.8,152.73
1971,2447,Taylors Arm,-30.8,152.73
1972,2447,Thumb Creek,-30.8,152.73
1973,2447,Upper Taylors Arm,-30.8,152.73
1974,2447,Utungun,-30.8,152.73
1975,2447,Warrell Creek,-30.8,152.73
1976,2447,Way Way,-30.8,152.73
1977,2447,Wirrimbi,-30.8,152.73
1978,2447,Yarranbella,-30.8,152.73
1979,2448,Hyland Park,-30.62,153
1980,2448,Nambucca Heads,-30.62,153
1981,2448,Valla,-30.62,153
1982,2448,Valla Beach,-30.62,153
1983,2449,Argents Hill,-30.62,152.75
1984,2449,Bowraville,-30.62,152.75
1985,2449,Buckra Bendinni,-30.62,152.75
1986,2449,Girralong,-30.62,152.75
1987,2449,Kennaicle Creek,-30.62,152.75
1988,2449,Killiekrankie,-30.62,152.75
1989,2449,Missabotti,-30.62,152.75
1990,2449,South Arm,-30.62,152.75
1991,2449,Tewinga,-30.62,152.75
1992,2450,Boambee,-30.34,153.07
1993,2450,Brooklana,-30.34,153.07
1994,2450,Bucca,-30.34,153.07
1995,2450,Coffs Harbour,-30.34,153.07
1996,2450,Coffs Harbour Jetty,-30.34,153.07
1997,2450,Coffs Harbour Plaza,-30.34,153.07
1998,2450,Coramba,-30.34,153.07
1999,2450,Glenreagh,-30.34,153.07
2000,2450,Karangi,-30.34,153.07
2001,2450,Korora,-30.34,153.07
2002,2450,Lowanna,-30.34,153.07
2003,2450,Moonee Beach,-30.34,153.07
2004,2450,Nana Glen,-30.34,153.07
2005,2450,North Boambee Valley,-30.34,153.07
2006,2450,Sapphire Beach,-30.34,153.07
2007,2450,Sherwood,-30.34,153.07
2008,2450,Ulong,-30.34,153.07
2009,2450,Upper Orara,-30.34,153.07
2010,2452,Boambee East,-30.34,153.08
2011,2452,Sawtell,-30.34,153.08
2012,2452,Toormina,-30.34,153.08
2013,2453,Bielsdown Hills,-30.14,152.6
2014,2453,Billys Creek,-30.14,152.6
2015,2453,Bostobrick,-30.14,152.6
2016,2453,Cascade,-30.14,152.6
2017,2453,Clouds Creek,-30.14,152.6
2018,2453,Deer Vale,-30.14,152.6
2019,2453,Dorrigo,-30.14,152.6
2020,2453,Dorrigo Mountain,-30.14,152.6
2021,2453,Dundurrabin,-30.14,152.6
2022,2453,Ebor,-30.14,152.6
2023,2453,Fernbrook,-30.14,152.6
2024,2453,Hernani,-30.14,152.6
2025,2453,Marengo,-30.14,152.6
2026,2453,Megan,-30.14,152.6
2027,2453,Moonpar,-30.14,152.6
2028,2453,Never Never,-30.14,152.6
2029,2453,North Dorrigo,-30.14,152.6
2030,2453,Tallowwood Ridge,-30.14,152.6
2031,2453,Tyringham,-30.14,152.6
2032,2453,Wild Cattle Creek,-30.14,152.6
2033,2454,Bellingen,-30.45,152.9
2034,2454,Brierfield,-30.45,152.9
2035,2454,Bundagen,-30.45,152.9
2036,2454,Darkwood,-30.45,152.9
2037,2454,Fernmount,-30.45,152.9
2038,2454,Gleniffer,-30.45,152.9
2039,2454,Kalang,-30.45,152.9
2040,2454,Mylestom,-30.45,152.9
2041,2454,Raleigh,-30.45,152.9
2042,2454,Repton,-30.45,152.9
2043,2454,Spicketts Creek,-30.45,152.9
2044,2454,Thora,-30.45,152.9
2045,2454,Valery,-30.45,152.9
2046,2455,Urunga,-30.52,152.98
2047,2456,Arrawarra,-30.06,153.19
2048,2456,Arrawarra Headland,-30.06,153.19
2049,2456,Corindi Beach,-30.06,153.19
2050,2456,Emerald Beach,-30.06,153.19
2051,2456,Mullaway,-30.06,153.19
2052,2456,Red Rock,-30.06,153.19
2053,2456,Safety Beach,-30.06,153.19
2054,2456,Sandy Beach,-30.06,153.19
2055,2456,Upper Corindi,-30.06,153.19
2056,2456,Woolgoolga,-30.06,153.19
2057,2460,Alumy Creek,-29.05,152.59
2058,2460,Barcoongere,-29.05,152.59
2059,2460,Barretts Creek,-29.05,152.59
2060,2460,Baryulgil,-29.05,152.59
2061,2460,Blaxlands Creek,-29.05,152.59
2062,2460,Bom Bom,-29.05,152.59
2063,2460,Bookram,-29.05,152.59
2064,2460,Braunstone,-29.05,152.59
2065,2460,Brushgrove,-29.05,152.59
2066,2460,Buccarumbi,-29.05,152.59
2067,2460,Calamia,-29.05,152.59
2068,2460,Cangai,-29.05,152.59
2069,2460,Carnham,-29.05,152.59
2070,2460,Carrs Creek,-29.05,152.59
2071,2460,Carrs Island,-29.05,152.59
2072,2460,Carrs Peninsular,-29.05,152.59
2073,2460,Chaelundi,-29.05,152.59
2074,2460,Chambigne,-29.05,152.59
2075,2460,Clarenza,-29.05,152.59
2076,2460,Clifden,-29.05,152.59
2077,2460,Coaldale,-29.05,152.59
2078,2460,Collum Collum,-29.05,152.59
2079,2460,Coombadjha,-29.05,152.59
2080,2460,Copmanhurst,-29.05,152.59
2081,2460,Coutts Crossing,-29.05,152.59
2082,2460,Cowper,-29.05,152.59
2083,2460,Crowther Island,-29.05,152.59
2084,2460,Dalmorton,-29.05,152.59
2085,2460,Deep Creek,-29.05,152.59
2086,2460,Dilkoon,-29.05,152.59
2087,2460,Dirty Creek,-29.05,152.59
2088,2460,Dumbudgery,-29.05,152.59
2089,2460,Eatonsville,-29.05,152.59
2090,2460,Eighteen Mile,-29.05,152.59
2091,2460,Elland,-29.05,152.59
2092,2460,Fine Flower,-29.05,152.59
2093,2460,Fortis Creek,-29.05,152.59
2094,2460,Glenugie,-29.05,152.59
2095,2460,Grafton,-29.05,152.59
2096,2460,Grafton West,-29.05,152.59
2097,2460,Great Marlow,-29.05,152.59
2098,2460,Gurranang,-29.05,152.59
2099,2460,Halfway Creek,-29.05,152.59
2100,2460,Heifer Station,-29.05,152.59
2101,2460,Jackadgery,-29.05,152.59
2102,2460,Junction Hill,-29.05,152.59
2103,2460,Kangaroo Creek,-29.05,152.59
2104,2460,Koolkhan,-29.05,152.59
2105,2460,Kremnos,-29.05,152.59
2106,2460,Kungala,-29.05,152.59
2107,2460,Kyarran,-29.05,152.59
2108,2460,Lanitza,-29.05,152.59
2109,2460,Lawrence,-29.05,152.59
2110,2460,Levenstrath,-29.05,152.59
2111,2460,Lilydale,-29.05,152.59
2112,2460,Lionsville,-29.05,152.59
2113,2460,Lower Southgate,-29.05,152.59
2114,2460,Malabugilmah,-29.05,152.59
2115,2460,Moleville Creek,-29.05,152.59
2116,2460,Mountain View,-29.05,152.59
2117,2460,Mylneford,-29.05,152.59
2118,2460,Newbold,-29.05,152.59
2119,2460,Nymboida,-29.05,152.59
2120,2460,Pulganbar,-29.05,152.59
2121,2460,Punchbowl,-29.05,152.59
2122,2460,Ramornie,-29.05,152.59
2123,2460,Rushforth,-29.05,152.59
2124,2460,Sandy Crossing,-29.05,152.59
2125,2460,Seelands,-29.05,152.59
2126,2460,Shannondale,-29.05,152.59
2127,2460,Smiths Creek,-29.05,152.59
2128,2460,South Arm,-29.05,152.59
2129,2460,South Grafton,-29.05,152.59
2130,2460,Southampton,-29.05,152.59
2131,2460,Southgate,-29.05,152.59
2132,2460,Stockyard Creek,-29.05,152.59
2133,2460,The Pinnacles,-29.05,152.59
2134,2460,The Whiteman,-29.05,152.59
2135,2460,Towallum,-29.05,152.59
2136,2460,Trenayr,-29.05,152.59
2137,2460,Tyndale,-29.05,152.59
2138,2460,Upper Copmanhurst,-29.05,152.59
2139,2460,Upper Fine Flower,-29.05,152.59
2140,2460,Warragai Creek,-29.05,152.59
2141,2460,Washpool,-29.05,152.59
2142,2460,Waterview,-29.05,152.59
2143,2460,Waterview Heights,-29.05,152.59
2144,2460,Wells Crossing,-29.05,152.59
2145,2460,Whiteman Creek,-29.05,152.59
2146,2460,Winegrove,-29.05,152.59
2147,2460,Wombat Creek,-29.05,152.59
2148,2462,Calliope,-29.62,153.07
2149,2462,Coldstream,-29.62,153.07
2150,2462,Diggers Camp,-29.62,153.07
2151,2462,Gilletts Ridge,-29.62,153.07
2152,2462,Lake Hiawatha,-29.62,153.07
2153,2462,Lavadia,-29.62,153.07
2154,2462,Minnie Water,-29.62,153.07
2155,2462,Pillar Valley,-29.62,153.07
2156,2462,Swan Creek,-29.62,153.07
2157,2462,Tucabia,-29.62,153.07
2158,2462,Ulmarra,-29.62,153.07
2159,2462,Wooli,-29.62,153.07
2160,2463,Ashby,-29.42,153.19
2161,2463,Ashby Heights,-29.42,153.19
2162,2463,Ashby Island,-29.42,153.19
2163,2463,Brooms Head,-29.42,153.19
2164,2463,Gulmarrad,-29.42,153.19
2165,2463,Ilarwill,-29.42,153.19
2166,2463,Jacky Bulbin Flat,-29.42,153.19
2167,2463,James Creek,-29.42,153.19
2168,2463,Maclean,-29.42,153.19
2169,2463,Palmers Channel,-29.42,153.19
2170,2463,Palmers Island,-29.42,153.19
2171,2463,Sandon,-29.42,153.19
2172,2463,Shark Creek,-29.42,153.19
2173,2463,Taloumbi,-29.42,153.19
2174,2463,The Sandon,-29.42,153.19
2175,2463,Townsend,-29.42,153.19
2176,2463,Tullymorgan,-29.42,153.19
2177,2463,Woodford Island,-29.42,153.19
2178,2464,Angourie,-29.48,153.36
2179,2464,Freeburn Island,-29.48,153.36
2180,2464,Micalo Island,-29.48,153.36
2181,2464,Wooloweyah,-29.48,153.36
2182,2464,Yamba,-29.48,153.36
2183,2464,Yuraygir,-29.48,153.36
2184,2465,Harwood,-29.42,153.24
2185,2466,Iluka,-29.41,153.35
2186,2466,The Freshwater,-29.41,153.35
2187,2466,Woody Head,-29.41,153.35
2188,2469,Alice,-29.34,153
2189,2469,Banyabba,-29.34,153
2190,2469,Bean Creek,-29.34,153
2191,2469,Bingeebeebra Creek,-29.34,153
2192,2469,Bonalbo,-29.34,153
2193,2469,Bottle Creek,-29.34,153
2194,2469,Bulldog,-29.34,153
2195,2469,Bungawalbin,-29.34,153
2196,2469,Busbys Flat,-29.34,153
2197,2469,Cambridge Plateau,-29.34,153
2198,2469,Camira,-29.34,153
2199,2469,Capeen Creek,-29.34,153
2200,2469,Chatsworth,-29.34,153
2201,2469,Clearfield,-29.34,153
2202,2469,Coongbar,-29.34,153
2203,2469,Culmaran Creek,-29.34,153
2204,2469,Deep Creek,-29.34,153
2205,2469,Drake,-29.34,153
2206,2469,Drake Village,-29.34,153
2207,2469,Duck Creek,-29.34,153
2208,2469,Ewingar,-29.34,153
2209,2469,Gibberagee,-29.34,153
2210,2469,Goodwood Island,-29.34,153
2211,2469,Gorge Creek,-29.34,153
2212,2469,Haystack,-29.34,153
2213,2469,Hogarth Range,-29.34,153
2214,2469,Jacksons Flat,-29.34,153
2215,2469,Joes Box,-29.34,153
2216,2469,Keybarbin,-29.34,153
2217,2469,Kippenduff,-29.34,153
2218,2469,Louisa Creek,-29.34,153
2219,2469,Lower Bottle Creek,-29.34,153
2220,2469,Lower Duck Creek,-29.34,153
2221,2469,Lower Peacock,-29.34,153
2222,2469,Mallanganee,-29.34,153
2223,2469,Mookima Wybra,-29.34,153
2224,2469,Mororo,-29.34,153
2225,2469,Mount Marsh,-29.34,153
2226,2469,Mummulgum,-29.34,153
2227,2469,Myrtle Creek,-29.34,153
2228,2469,Old Bonalbo,-29.34,153
2229,2469,Paddys Flat,-29.34,153
2230,2469,Pagans Flat,-29.34,153
2231,2469,Peacock Creek,-29.34,153
2232,2469,Pikapene,-29.34,153
2233,2469,Rappville,-29.34,153
2234,2469,Sandilands,-29.34,153
2235,2469,Simpkins Creek,-29.34,153
2236,2469,Six Mile Swamp,-29.34,153
2237,2469,Tabulam,-29.34,153
2238,2469,Theresa Creek,-29.34,153
2239,2469,Tunglebung,-29.34,153
2240,2469,Upper Duck Creek,-29.34,153
2241,2469,Warregah Island,-29.34,153
2242,2469,Whiporie,-29.34,153
2243,2469,Woombah,-29.34,153
2244,2469,Wyan,-29.34,153
2245,2469,Yabbra,-29.34,153
2246,2470,Babyl Creek,-28.73,152.8
2247,2470,Backmede,-28.73,152.8
2248,2470,Casino,-28.73,152.8
2249,2470,Coombell,-28.73,152.8
2250,2470,Dobies Bight,-28.73,152.8
2251,2470,Doubtful Creek,-28.73,152.8
2252,2470,Dyraaba,-28.73,152.8
2253,2470,Ellangowan,-28.73,152.8
2254,2470,Fairy Hill,-28.73,152.8
2255,2470,Irvington,-28.73,152.8
2256,2470,Leeville,-28.73,152.8
2257,2470,Lower Dyraaba,-28.73,152.8
2258,2470,Mongogarie,-28.73,152.8
2259,2470,Naughtons Gap,-28.73,152.8
2260,2470,North Casino,-28.73,152.8
2261,2470,Piora,-28.73,152.8
2262,2470,Sextonville,-28.73,152.8
2263,2470,Shannon Brook,-28.73,152.8
2264,2470,Spring Grove,-28.73,152.8
2265,2470,Stratheden,-28.73,152.8
2266,2470,Upper Mongogarie,-28.73,152.8
2267,2470,Woodview,-28.73,152.8
2268,2470,Woolners Arm,-28.73,152.8
2269,2470,Yorklea,-28.73,152.8
2270,2471,Bora Ridge,-29.05,153.23
2271,2471,Codrington,-29.05,153.23
2272,2471,Coraki,-29.05,153.23
2273,2471,East Coraki,-29.05,153.23
2274,2471,Green Forest,-29.05,153.23
2275,2471,Greenridge,-29.05,153.23
2276,2471,North Woodburn,-29.05,153.23
2277,2471,Swan Bay,-29.05,153.23
2278,2471,Tatham,-29.05,153.23
2279,2471,West Coraki,-29.05,153.23
2280,2472,Broadwater,-29.01,153.44
2281,2472,Buckendoon,-29.01,153.44
2282,2472,Esk,-29.01,153.44
2283,2472,Kilgin,-29.01,153.44
2284,2472,Moonem,-29.01,153.44
2285,2472,New Italy,-29.01,153.44
2286,2472,Rileys Hill,-29.01,153.44
2287,2472,Tabbimoble,-29.01,153.44
2288,2472,The Gap,-29.01,153.44
2289,2472,Trustums Hill,-29.01,153.44
2290,2472,Woodburn,-29.01,153.44
2291,2473,Bundjalung,-29.09,153.38
2292,2473,Doonbah,-29.09,153.38
2293,2473,Evans Head,-29.09,153.38
2294,2473,Iron Gates,-29.09,153.38
2295,2473,South Evans Head,-29.09,153.38
2296,2474,Afterlee,-28.59,152.83
2297,2474,Barkers Vale,-28.59,152.83
2298,2474,Border Ranges,-28.59,152.83
2299,2474,Cawongla,-28.59,152.83
2300,2474,Cedar Point,-28.59,152.83
2301,2474,Collins Creek,-28.59,152.83
2302,2474,Cougal,-28.59,152.83
2303,2474,Dairy Flat,-28.59,152.83
2304,2474,Eden Creek,-28.59,152.83
2305,2474,Edenville,-28.59,152.83
2306,2474,Ettrick,-28.59,152.83
2307,2474,Fawcetts Plain,-28.59,152.83
2308,2474,Findon Creek,-28.59,152.83
2309,2474,Geneva,-28.59,152.83
2310,2474,Ghinni Ghi,-28.59,152.83
2311,2474,Gradys Creek,-28.59,152.83
2312,2474,Green Pigeon,-28.59,152.83
2313,2474,Grevillia,-28.59,152.83
2314,2474,Homeleigh,-28.59,152.83
2315,2474,Horse Station Creek,-28.59,152.83
2316,2474,Horseshoe Creek,-28.59,152.83
2317,2474,Iron Pot Creek,-28.59,152.83
2318,2474,Kilgra,-28.59,152.83
2319,2474,Kyogle,-28.59,152.83
2320,2474,Little Back Creek,-28.59,152.83
2321,2474,Loadstone,-28.59,152.83
2322,2474,Lynchs Creek,-28.59,152.83
2323,2474,New Park,-28.59,152.83
2324,2474,Old Grevillia,-28.59,152.83
2325,2474,Roseberry,-28.59,152.83
2326,2474,Roseberry Creek,-28.59,152.83
2327,2474,Rukenvale,-28.59,152.83
2328,2474,Sawpit Creek,-28.59,152.83
2329,2474,Sherwood,-28.59,152.83
2330,2474,Smiths Creek,-28.59,152.83
2331,2474,Terrace Creek,-28.59,152.83
2332,2474,The Risk,-28.59,152.83
2333,2474,Toonumbar,-28.59,152.83
2334,2474,Unumgar,-28.59,152.83
2335,2474,Upper Eden Creek,-28.59,152.83
2336,2474,Upper Horseshoe Creek,-28.59,152.83
2337,2474,Wadeville,-28.59,152.83
2338,2474,Warrazambil Creek,-28.59,152.83
2339,2474,West Wiangaree,-28.59,152.83
2340,2474,Wiangaree,-28.59,152.83
2341,2474,Wyneden,-28.59,152.83
2342,2475,Tooloom,-28.62,152.42
2343,2475,Upper Tooloom,-28.62,152.42
2344,2475,Urbenville,-28.62,152.42
2345,2476,Boomi Creek,-28.37,152.32
2346,2476,Brumby Plains,-28.37,152.32
2347,2476,Koreelah,-28.37,152.32
2348,2476,Legume,-28.37,152.32
2349,2476,Lindesay Creek,-28.37,152.32
2350,2476,Muli Muli,-28.37,152.32
2351,2476,Old Koreelah,-28.37,152.32
2352,2476,The Glen,-28.37,152.32
2353,2476,Woodenbong,-28.37,152.32
2354,2477,Alstonvale,-28.81,153.45
2355,2477,Alstonville,-28.81,153.45
2356,2477,Bagotville,-28.81,153.45
2357,2477,Cabbage Tree Island,-28.81,153.45
2358,2477,Dalwood,-28.81,153.45
2359,2477,East Wardell,-28.81,153.45
2360,2477,Goat Island,-28.81,153.45
2361,2477,Lynwood,-28.81,153.45
2362,2477,Meerschaum Vale,-28.81,153.45
2363,2477,Pearces Creek,-28.81,153.45
2364,2477,Rous,-28.81,153.45
2365,2477,Rous Mill,-28.81,153.45
2366,2477,Tuckombil,-28.81,153.45
2367,2477,Uralba,-28.81,153.45
2368,2477,Wardell,-28.81,153.45
2369,2477,Wollongbar,-28.81,153.45
2370,2478,Ballina,-28.87,153.56
2371,2478,Coolgardie,-28.87,153.56
2372,2478,Cumbalum,-28.87,153.56
2373,2478,East Ballina,-28.87,153.56
2374,2478,Empire Vale,-28.87,153.56
2375,2478,Keith Hall,-28.87,153.56
2376,2478,Lennox Head,-28.87,153.56
2377,2478,Patchs Beach,-28.87,153.56
2378,2478,Pimlico,-28.87,153.56
2379,2478,Pimlico Island,-28.87,153.56
2380,2478,Skennars Head,-28.87,153.56
2381,2478,South Ballina,-28.87,153.56
2382,2478,Teven,-28.87,153.56
2383,2478,Tintenbar,-28.87,153.56
2384,2478,West Ballina,-28.87,153.56
2385,2479,Bangalow,-28.69,153.52
2386,2479,Binna Burra,-28.69,153.52
2387,2479,Brooklet,-28.69,153.52
2388,2479,Coopers Shoot,-28.69,153.52
2389,2479,Coorabell,-28.69,153.52
2390,2479,Fernleigh,-28.69,153.52
2391,2479,Knockrow,-28.69,153.52
2392,2479,Mcleods Shoot,-28.69,153.52
2393,2479,Nashua,-28.69,153.52
2394,2479,Newrybar,-28.69,153.52
2395,2479,Possum Creek,-28.69,153.52
2396,2480,Bentley,-28.61,153.04
2397,2480,Bexhill,-28.61,153.04
2398,2480,Blakebrook,-28.61,153.04
2399,2480,Blue Knob,-28.61,153.04
2400,2480,Boat Harbour,-28.61,153.04
2401,2480,Booerie Creek,-28.61,153.04
2402,2480,Boorabee Park,-28.61,153.04
2403,2480,Booyong,-28.61,153.04
2404,2480,Bungabbee,-28.61,153.04
2405,2480,Caniaba,-28.61,153.04
2406,2480,Chilcotts Grass,-28.61,153.04
2407,2480,Clovass,-28.61,153.04
2408,2480,Clunes,-28.61,153.04
2409,2480,Coffee Camp,-28.61,153.04
2410,2480,Corndale,-28.61,153.04
2411,2480,Dorroughby,-28.61,153.04
2412,2480,Dungarubba,-28.61,153.04
2413,2480,Dunoon,-28.61,153.04
2414,2480,East Lismore,-28.61,153.04
2415,2480,Eltham,-28.61,153.04
2416,2480,Eureka,-28.61,153.04
2417,2480,Federal,-28.61,153.04
2418,2480,Fernside,-28.61,153.04
2419,2480,Georgica,-28.61,153.04
2420,2480,Girards Hill,-28.61,153.04
2421,2480,Goolmangar,-28.61,153.04
2422,2480,Goonellabah,-28.61,153.04
2423,2480,Howards Grass,-28.61,153.04
2424,2480,Jiggi,-28.61,153.04
2425,2480,Keerrong,-28.61,153.04
2426,2480,Koonorigan,-28.61,153.04
2427,2480,Lagoon Grass,-28.61,153.04
2428,2480,Larnook,-28.61,153.04
2429,2480,Leycester,-28.61,153.04
2430,2480,Lillian Rock,-28.61,153.04
2431,2480,Lindendale,-28.61,153.04
2432,2480,Lismore,-28.61,153.04
2433,2480,Lismore Heights,-28.61,153.04
2434,2480,Loftville,-28.61,153.04
2435,2480,Marom Creek,-28.61,153.04
2436,2480,Mckees Hill,-28.61,153.04
2437,2480,Mcleans Ridges,-28.61,153.04
2438,2480,Modanville,-28.61,153.04
2439,2480,Monaltrie,-28.61,153.04
2440,2480,Mountain Top,-28.61,153.04
2441,2480,Nightcap,-28.61,153.04
2442,2480,Nimbin,-28.61,153.04
2443,2480,North Lismore,-28.61,153.04
2444,2480,Numulgi,-28.61,153.04
2445,2480,Repentance Creek,-28.61,153.04
2446,2480,Richmond Hill,-28.61,153.04
2447,2480,Rock Valley,-28.61,153.04
2448,2480,Rosebank,-28.61,153.04
2449,2480,Ruthven,-28.61,153.04
2450,2480,South Gundurimba,-28.61,153.04
2451,2480,South Lismore,-28.61,153.04
2452,2480,Stony Chute,-28.61,153.04
2453,2480,Terania Creek,-28.61,153.04
2454,2480,The Channon,-28.61,153.04
2455,2480,Tregeagle,-28.61,153.04
2456,2480,Tucki Tucki,-28.61,153.04
2457,2480,Tuckurimba,-28.61,153.04
2458,2480,Tullera,-28.61,153.04
2459,2480,Tuncester,-28.61,153.04
2460,2480,Tuntable Creek,-28.61,153.04
2461,2480,Whian Whian,-28.61,153.04
2462,2480,Woodlawn,-28.61,153.04
2463,2480,Wyrallah,-28.61,153.04
2464,2481,Broken Head,-28.72,153.59
2465,2481,Byron Bay,-28.72,153.59
2466,2481,Ewingsdale,-28.72,153.59
2467,2481,Hayters Hill,-28.72,153.59
2468,2481,Myocum,-28.72,153.59
2469,2481,Skinners Shoot,-28.72,153.59
2470,2481,Suffolk Park,-28.72,153.59
2471,2481,Talofa,-28.72,153.59
2472,2481,Tyagarah,-28.72,153.59
2473,2482,Goonengerry,-28.61,153.44
2474,2482,Huonbrook,-28.61,153.44
2475,2482,Koonyum Range,-28.61,153.44
2476,2482,Main Arm,-28.61,153.44
2477,2482,Montecollum,-28.61,153.44
2478,2482,Mullumbimby,-28.61,153.44
2479,2482,Mullumbimby Creek,-28.61,153.44
2480,2482,Palmwoods,-28.61,153.44
2481,2482,Upper Coopers Creek,-28.61,153.44
2482,2482,Upper Main Arm,-28.61,153.44
2483,2482,Upper Wilsons Creek,-28.61,153.44
2484,2482,Wanganui,-28.61,153.44
2485,2482,Wilsons Creek,-28.61,153.44
2486,2483,Billinudgel,-28.5,153.53
2487,2483,Brunswick Heads,-28.5,153.53
2488,2483,Burringbar,-28.5,153.53
2489,2483,Crabbes Creek,-28.5,153.53
2490,2483,Middle Pocket,-28.5,153.53
2491,2483,Mooball,-28.5,153.53
2492,2483,New Brighton,-28.5,153.53
2493,2483,Ocean Shores,-28.5,153.53
2494,2483,Sleepy Hollow,-28.5,153.53
2495,2483,South Golden Beach,-28.5,153.53
2496,2483,The Pocket,-28.5,153.53
2497,2483,Upper Burringbar,-28.5,153.53
2498,2483,Wooyung,-28.5,153.53
2499,2483,Yelgun,-28.5,153.53
2500,2484,Back Creek,-28.4,153.17
2501,2484,Bray Park,-28.4,153.17
2502,2484,Brays Creek,-28.4,153.17
2503,2484,Byangum,-28.4,153.17
2504,2484,Byrrill Creek,-28.4,153.17
2505,2484,Cedar Creek,-28.4,153.17
2506,2484,Chillingham,-28.4,153.17
2507,2484,Chowan Creek,-28.4,153.17
2508,2484,Clothiers Creek,-28.4,153.17
2509,2484,Commissioners Creek,-28.4,153.17
2510,2484,Condong,-28.4,153.17
2511,2484,Crystal Creek,-28.4,153.17
2512,2484,Cudgera Creek,-28.4,153.17
2513,2484,Doon Doon,-28.4,153.17
2514,2484,Dulguigan,-28.4,153.17
2515,2484,Dum Dum,-28.4,153.17
2516,2484,Dunbible,-28.4,153.17
2517,2484,Dungay,-28.4,153.17
2518,2484,Eungella,-28.4,153.17
2519,2484,Eviron,-28.4,153.17
2520,2484,Farrants Hill,-28.4,153.17
2521,2484,Fernvale,-28.4,153.17
2522,2484,Hopkins Creek,-28.4,153.17
2523,2484,Kielvale,-28.4,153.17
2524,2484,Kunghur,-28.4,153.17
2525,2484,Kunghur Creek,-28.4,153.17
2526,2484,Kynnumboon,-28.4,153.17
2527,2484,Limpinwood,-28.4,153.17
2528,2484,Mebbin,-28.4,153.17
2529,2484,Midginbil,-28.4,153.17
2530,2484,Mount Burrell,-28.4,153.17
2531,2484,Mount Warning,-28.4,153.17
2532,2484,Murwillumbah,-28.4,153.17
2533,2484,Murwillumbah South,-28.4,153.17
2534,2484,Nobbys Creek,-28.4,153.17
2535,2484,North Arm,-28.4,153.17
2536,2484,Numinbah,-28.4,153.17
2537,2484,Nunderi,-28.4,153.17
2538,2484,Palmvale,-28.4,153.17
2539,2484,Pumpenbil,-28.4,153.17
2540,2484,Reserve Creek,-28.4,153.17
2541,2484,Round Mountain,-28.4,153.17
2542,2484,Rowlands Creek,-28.4,153.17
2543,2484,Smiths Creek,-28.4,153.17
2544,2484,South Murwillumbah,-28.4,153.17
2545,2484,Stokers Siding,-28.4,153.17
2546,2484,Terragon,-28.4,153.17
2547,2484,Tomewin,-28.4,153.17
2548,2484,Tyalgum,-28.4,153.17
2549,2484,Tyalgum Creek,-28.4,153.17
2550,2484,Tygalgah,-28.4,153.17
2551,2484,Uki,-28.4,153.17
2552,2484,Upper Crystal Creek,-28.4,153.17
2553,2484,Urliup,-28.4,153.17
2554,2484,Wardrop Valley,-28.4,153.17
2555,2484,Zara,-28.4,153.17
2556,2485,Tweed Heads,-28.18,153.54
2557,2485,Tweed Heads West,-28.18,153.54
2558,2486,Banora Point,-28.21,153.54
2559,2486,Bilambil,-28.21,153.54
2560,2486,Bilambil Heights,-28.21,153.54
2561,2486,Bungalora,-28.21,153.54
2562,2486,Carool,-28.21,153.54
2563,2486,Cobaki,-28.21,153.54
2564,2486,Cobaki Lakes,-28.21,153.54
2565,2486,Duroby,-28.21,153.54
2566,2486,Glengarrie,-28.21,153.54
2567,2486,Piggabeen,-28.21,153.54
2568,2486,Terranora,-28.21,153.54
2569,2486,Tweed Heads South,-28.21,153.54
2570,2486,Upper Duroby,-28.21,153.54
2571,2487,Casuarina,-28.3,153.57
2572,2487,Chinderah,-28.3,153.57
2573,2487,Cudgen,-28.3,153.57
2574,2487,Duranbah,-28.3,153.57
2575,2487,Fingal Head,-28.3,153.57
2576,2487,Kings Forest,-28.3,153.57
2577,2487,Kingscliff,-28.3,153.57
2578,2487,Stotts Creek,-28.3,153.57
2579,2488,Bogangar,-28.33,153.54
2580,2488,Cabarita Beach,-28.33,153.54
2581,2488,Tanglewood,-28.33,153.54
2582,2489,Hastings Point,-28.36,153.58
2583,2489,Pottsville,-28.36,153.58
2584,2489,Pottsville Beach,-28.36,153.58
2585,2490,North Tumbulgum,-28.27,153.47
2586,2490,Tumbulgum,-28.27,153.47
2587,2500,Coniston,-34.44,150.89
2588,2500,Gwynneville,-34.44,150.89
2589,2500,Keiraville,-34.44,150.89
2590,2500,Mangerton,-34.44,150.89
2591,2500,Mount Keira,-34.44,150.89
2592,2500,Mount Saint Thomas,-34.44,150.89
2593,2500,North Wollongong,-34.44,150.89
2594,2500,Spring Hill,-34.44,150.89
2595,2500,West Wollongong,-34.44,150.89
2596,2500,Wollongong,-34.44,150.89
2597,2500,Wollongong DC,-34.44,150.89
2598,2500,Wollongong West,-34.44,150.89
2599,2502,Cringila,-34.47,150.87
2600,2502,Lake Heights,-34.47,150.87
2601,2502,Primbee,-34.47,150.87
2602,2502,Warrawong,-34.47,150.87
2603,2505,Port Kembla,-34.49,150.89
2604,2506,Berkeley,-34.48,150.84
2605,2508,Coalcliff,-34.24,150.98
2606,2508,Darkes Forest,-34.24,150.98
2607,2508,Helensburgh,-34.24,150.98
2608,2508,Lilyvale,-34.24,150.98
2609,2508,Maddens Plains,-34.24,150.98
2610,2508,Otford,-34.24,150.98
2611,2508,Stanwell Park,-34.24,150.98
2612,2508,Stanwell Tops,-34.24,150.98
2613,2508,Woronora Dam,-34.24,150.98
2614,2515,Austinmer,-34.31,150.93
2615,2515,Clifton,-34.31,150.93
2616,2515,Coledale,-34.31,150.93
2617,2515,Scarborough,-34.31,150.93
2618,2515,Thirroul,-34.31,150.93
2619,2515,Wombarra,-34.31,150.93
2620,2516,Bulli,-34.33,150.91
2621,2517,Russell Vale,-34.36,150.9
2622,2517,Woonona,-34.36,150.9
2623,2517,Woonona East,-34.36,150.9
2624,2518,Bellambi,-34.37,150.91
2625,2518,Corrimal,-34.37,150.91
2626,2518,Corrimal East,-34.37,150.91
2627,2518,East Corrimal,-34.37,150.91
2628,2518,Tarrawanna,-34.37,150.91
2629,2518,Towradgi,-34.37,150.91
2630,2519,Balgownie,-34.39,150.88
2631,2519,Fairy Meadow,-34.39,150.88
2632,2519,Fernhill,-34.39,150.88
2633,2519,Mount Ousley,-34.39,150.88
2634,2519,Mount Pleasant,-34.39,150.88
2635,2520,Wollongong,-33.94,151.14
2636,2522,University Of Wollongong,-34.41,150.88
2637,2525,Figtree,-34.44,150.86
2638,2526,Cordeaux,-34.38,150.78
2639,2526,Cordeaux Heights,-34.38,150.78
2640,2526,Dombarton,-34.38,150.78
2641,2526,Farmborough Heights,-34.38,150.78
2642,2526,Kembla Grange,-34.38,150.78
2643,2526,Kembla Heights,-34.38,150.78
2644,2526,Mount Kembla,-34.38,150.78
2645,2526,Unanderra,-34.38,150.78
2646,2526,Unanderra DC,-34.38,150.78
2647,2527,Albion Park,-34.57,150.78
2648,2527,Albion Park Rail,-34.57,150.78
2649,2527,Calderwood,-34.57,150.78
2650,2527,Croom,-34.57,150.78
2651,2527,North Macquarie,-34.57,150.78
2652,2527,Tongarra,-34.57,150.78
2653,2527,Tullimbar,-34.57,150.78
2654,2527,Yellow Rock,-34.57,150.78
2655,2528,Barrack Heights,-34.57,150.86
2656,2528,Barrack Point,-34.57,150.86
2657,2528,Lake Illawarra,-34.57,150.86
2658,2528,Mount Warrigal,-34.57,150.86
2659,2528,Warilla,-34.57,150.86
2660,2528,Windang,-34.57,150.86
2661,2529,Blackbutt,-34.57,150.83
2662,2529,Dunmore,-34.57,150.83
2663,2529,Flinders,-34.57,150.83
2664,2529,Oak Flats,-34.57,150.83
2665,2529,Oak Flats DC,-34.57,150.83
2666,2529,Shell Cove,-34.57,150.83
2667,2529,Shellharbour,-34.57,150.83
2668,2529,Shellharbour City Centre,-34.57,150.83
2669,2530,Avondale,-34.51,150.73
2670,2530,Brownsville,-34.51,150.73
2671,2530,Cleveland,-34.51,150.73
2672,2530,Dapto,-34.51,150.73
2673,2530,Haywards Bay,-34.51,150.73
2674,2530,Horsley,-34.51,150.73
2675,2530,Huntley,-34.51,150.73
2676,2530,Kanahooka,-34.51,150.73
2677,2530,Koonawarra,-34.51,150.73
2678,2530,Marshall Mount,-34.51,150.73
2679,2530,Penrose,-34.51,150.73
2680,2530,Wongawilli,-34.51,150.73
2681,2530,Yallah,-34.51,150.73
2682,2533,Bombo,-34.66,150.85
2683,2533,Curramore,-34.66,150.85
2684,2533,Jamberoo,-34.66,150.85
2685,2533,Jerrara,-34.66,150.85
2686,2533,Kiama,-34.66,150.85
2687,2533,Kiama Downs,-34.66,150.85
2688,2533,Kiama Heights,-34.66,150.85
2689,2533,Minnamurra,-34.66,150.85
2690,2533,Saddleback Mountain,-34.66,150.85
2691,2534,Broughton Village,-34.73,150.77
2692,2534,Foxground,-34.73,150.77
2693,2534,Gerringong,-34.73,150.77
2694,2534,Gerroa,-34.73,150.77
2695,2534,Rose Valley,-34.73,150.77
2696,2534,Toolijooa,-34.73,150.77
2697,2534,Werri Beach,-34.73,150.77
2698,2534,Willow Vale,-34.73,150.77
2699,2535,Back Forest,-34.85,150.68
2700,2535,Bellawongarah,-34.85,150.68
2701,2535,Berry,-34.85,150.68
2702,2535,Berry Mountain,-34.85,150.68
2703,2535,Brogers Creek,-34.85,150.68
2704,2535,Broughton,-34.85,150.68
2705,2535,Broughton Vale,-34.85,150.68
2706,2535,Budderoo,-34.85,150.68
2707,2535,Bundewallah,-34.85,150.68
2708,2535,Coolangatta,-34.85,150.68
2709,2535,Far Meadow,-34.85,150.68
2710,2535,Jaspers Brush,-34.85,150.68
2711,2535,Shoalhaven Heads,-34.85,150.68
2712,2535,Wattamolla,-34.85,150.68
2713,2535,Woodhill,-34.85,150.68
2714,2536,Batehaven,-35.73,150.2
2715,2536,Batemans Bay,-35.73,150.2
2716,2536,Benandarah,-35.73,150.2
2717,2536,Bimbimbie,-35.73,150.2
2718,2536,Buckenbowra,-35.73,150.2
2719,2536,Catalina,-35.73,150.2
2720,2536,Currowan,-35.73,150.2
2721,2536,Denhams Beach,-35.73,150.2
2722,2536,Depot Beach,-35.73,150.2
2723,2536,Durras North,-35.73,150.2
2724,2536,East Lynne,-35.73,150.2
2725,2536,Guerilla Bay,-35.73,150.2
2726,2536,Jeremadra,-35.73,150.2
2727,2536,Lilli Pilli,-35.73,150.2
2728,2536,Long Beach,-35.73,150.2
2729,2536,Maloneys Beach,-35.73,150.2
2730,2536,Malua Bay,-35.73,150.2
2731,2536,Mogo,-35.73,150.2
2732,2536,Nelligen,-35.73,150.2
2733,2536,North Batemans Bay,-35.73,150.2
2734,2536,Pebbly Beach,-35.73,150.2
2735,2536,Rosedale,-35.73,150.2
2736,2536,Runnyford,-35.73,150.2
2737,2536,South Durras,-35.73,150.2
2738,2536,Sunshine Bay,-35.73,150.2
2739,2536,Surf Beach,-35.73,150.2
2740,2536,Surfside,-35.73,150.2
2741,2536,Woodlands,-35.73,150.2
2742,2537,Bergalia,-35.98,150.11
2743,2537,Bingie,-35.98,150.11
2744,2537,Broulee,-35.98,150.11
2745,2537,Coila,-35.98,150.11
2746,2537,Congo,-35.98,150.11
2747,2537,Deua,-35.98,150.11
2748,2537,Deua River Valley,-35.98,150.11
2749,2537,Kiora,-35.98,150.11
2750,2537,Meringo,-35.98,150.11
2751,2537,Mogendoura,-35.98,150.11
2752,2537,Moruya,-35.98,150.11
2753,2537,Moruya Heads,-35.98,150.11
2754,2537,Mossy Point,-35.98,150.11
2755,2537,Tomakin,-35.98,150.11
2756,2537,Turlinjah,-35.98,150.11
2757,2537,Tuross Head,-35.98,150.11
2758,2537,Wamban,-35.98,150.11
2759,2538,Brooman,-35.49,150.23
2760,2538,Little Forest,-35.49,150.23
2761,2538,Milton,-35.49,150.23
2762,2538,Mogood,-35.49,150.23
2763,2538,Morton,-35.49,150.23
2764,2538,Porters Creek,-35.49,150.23
2765,2538,Woodburn,-35.49,150.23
2766,2538,Woodstock,-35.49,150.23
2767,2539,Bawley Point,-35.52,150.39
2768,2539,Bendalong,-35.52,150.39
2769,2539,Berringer Lake,-35.52,150.39
2770,2539,Burrill Lake,-35.52,150.39
2771,2539,Cockwhy,-35.52,150.39
2772,2539,Conjola,-35.52,150.39
2773,2539,Conjola Park,-35.52,150.39
2774,2539,Croobyar,-35.52,150.39
2775,2539,Cunjurong Point,-35.52,150.39
2776,2539,Dolphin Point,-35.52,150.39
2777,2539,Fishermans Paradise,-35.52,150.39
2778,2539,Kings Point,-35.52,150.39
2779,2539,Kioloa,-35.52,150.39
2780,2539,Lake Conjola,-35.52,150.39
2781,2539,Lake Tabourie,-35.52,150.39
2782,2539,Manyana,-35.52,150.39
2783,2539,Mollymook,-35.52,150.39
2784,2539,Mollymook Beach,-35.52,150.39
2785,2539,Mount Kingiman,-35.52,150.39
2786,2539,Narrawallee,-35.52,150.39
2787,2539,Pointer Mountain,-35.52,150.39
2788,2539,Pretty Beach,-35.52,150.39
2789,2539,Termeil,-35.52,150.39
2790,2539,Ulladulla,-35.52,150.39
2791,2539,Yadboro,-35.52,150.39
2792,2539,Yatte Yattah,-35.52,150.39
2793,2540,Bamarang,-34.89,150.53
2794,2540,Barringella,-34.89,150.53
2795,2540,Basin View,-34.89,150.53
2796,2540,Beecroft Peninsula,-34.89,150.53
2797,2540,Berrara,-34.89,150.53
2798,2540,Bewong,-34.89,150.53
2799,2540,Bolong,-34.89,150.53
2800,2540,Boolijah,-34.89,150.53
2801,2540,Bream Beach,-34.89,150.53
2802,2540,Browns Mountain,-34.89,150.53
2803,2540,Brundee,-34.89,150.53
2804,2540,Buangla,-34.89,150.53
2805,2540,Burrier,-34.89,150.53
2806,2540,Callala Bay,-34.89,150.53
2807,2540,Callala Beach,-34.89,150.53
2808,2540,Cambewarra,-34.89,150.53
2809,2540,Cambewarra Village,-34.89,150.53
2810,2540,Comberton,-34.89,150.53
2811,2540,Comerong Island,-34.89,150.53
2812,2540,Cudmirrah,-34.89,150.53
2813,2540,Culburra Beach,-34.89,150.53
2814,2540,Currarong,-34.89,150.53
2815,2540,Erowal Bay,-34.89,150.53
2816,2540,Ettrema,-34.89,150.53
2817,2540,Falls Creek,-34.89,150.53
2818,2540,Greenwell Point,-34.89,150.53
2819,2540,Hmas Albatross,-34.89,150.53
2820,2540,Hmas Creswell,-34.89,150.53
2821,2540,Huskisson,-34.89,150.53
2822,2540,Hyams Beach,-34.89,150.53
2823,2540,Illaroo,-34.89,150.53
2824,2540,Jerrawangala,-34.89,150.53
2825,2540,Jervis Bay,-34.89,150.53
2826,2540,Kinghorne,-34.89,150.53
2827,2540,Longreach,-34.89,150.53
2828,2540,Mayfield,-34.89,150.53
2829,2540,Meroo Meadow,-34.89,150.53
2830,2540,Mondayong,-34.89,150.53
2831,2540,Moollattoo,-34.89,150.53
2832,2540,Mundamia,-34.89,150.53
2833,2540,Myola,-34.89,150.53
2834,2540,Nowra Hill,-34.89,150.53
2835,2540,Nowra Naval Po,-34.89,150.53
2836,2540,Numbaa,-34.89,150.53
2837,2540,Old Erowal Bay,-34.89,150.53
2838,2540,Orient Point,-34.89,150.53
2839,2540,Parma,-34.89,150.53
2840,2540,Pyree,-34.89,150.53
2841,2540,Sanctuary Point,-34.89,150.53
2842,2540,St Georges Basin,-34.89,150.53
2843,2540,Sussex Inlet,-34.89,150.53
2844,2540,Swanhaven,-34.89,150.53
2845,2540,Tallowal,-34.89,150.53
2846,2540,Tapitallee,-34.89,150.53
2847,2540,Terara,-34.89,150.53
2848,2540,Tomerong,-34.89,150.53
2849,2540,Tullarwalla,-34.89,150.53
2850,2540,Twelve Mile Peg,-34.89,150.53
2851,2540,Vincentia,-34.89,150.53
2852,2540,Wandandian,-34.89,150.53
2853,2540,Watersleigh,-34.89,150.53
2854,2540,Wollumboola,-34.89,150.53
2855,2540,Woollamia,-34.89,150.53
2856,2540,Worrigee,-34.89,150.53
2857,2540,Worrowing Heights,-34.89,150.53
2858,2540,Wrights Beach,-34.89,150.53
2859,2540,Yalwal,-34.89,150.53
2860,2540,Yerriyong,-34.89,150.53
2861,2541,Bangalee,-34.84,150.57
2862,2541,Bomaderry,-34.84,150.57
2863,2541,North Nowra,-34.84,150.57
2864,2541,Nowra,-34.84,150.57
2865,2541,Nowra DC,-34.84,150.57
2866,2541,Nowra East,-34.84,150.57
2867,2541,Nowra North,-34.84,150.57
2868,2541,South Nowra,-34.84,150.57
2869,2541,West Nowra,-34.84,150.57
2870,2545,Belowra,-36.15,149.71
2871,2545,Bodalla,-36.15,149.71
2872,2545,Cadgee,-36.15,149.71
2873,2545,Eurobodalla,-36.15,149.71
2874,2545,Nerrigundah,-36.15,149.71
2875,2545,Potato Point,-36.15,149.71
2876,2546,Akolele,-36.36,150.08
2877,2546,Barragga Bay,-36.36,150.08
2878,2546,Bermagui,-36.36,150.08
2879,2546,Central Tilba,-36.36,150.08
2880,2546,Corunna,-36.36,150.08
2881,2546,Cuttagee,-36.36,150.08
2882,2546,Dalmeny,-36.36,150.08
2883,2546,Dignams Creek,-36.36,150.08
2884,2546,Kianga,-36.36,150.08
2885,2546,Murrah,-36.36,150.08
2886,2546,Mystery Bay,-36.36,150.08
2887,2546,Narooma,-36.36,150.08
2888,2546,North Narooma,-36.36,150.08
2889,2546,Tilba Tilba,-36.36,150.08
2890,2546,Tinpot,-36.36,150.08
2891,2546,Wadbilliga,-36.36,150.08
2892,2546,Wallaga Lake,-36.36,150.08
2893,2548,Berrambool,-36.88,149.92
2894,2548,Bournda,-36.88,149.92
2895,2548,Merimbula,-36.88,149.92
2896,2548,Mirador,-36.88,149.92
2897,2548,Tura Beach,-36.88,149.92
2898,2548,Yellow Pinch,-36.88,149.92
2899,2549,Bald Hills,-36.91,149.85
2900,2549,Broadwater,-36.91,149.85
2901,2549,Greigs Flat,-36.91,149.85
2902,2549,Lochiel,-36.91,149.85
2903,2549,Millingandi,-36.91,149.85
2904,2549,Nethercote,-36.91,149.85
2905,2549,Pambula,-36.91,149.85
2906,2549,Pambula Beach,-36.91,149.85
2907,2549,South Pambula,-36.91,149.85
2908,2550,Angledale,-36.64,149.86
2909,2550,Bega,-36.64,149.86
2910,2550,Bemboka,-36.64,149.86
2911,2550,Black Range,-36.64,149.86
2912,2550,Brogo,-36.64,149.86
2913,2550,Buckajo,-36.64,149.86
2914,2550,Burragate,-36.64,149.86
2915,2550,Candelo,-36.64,149.86
2916,2550,Chinnock,-36.64,149.86
2917,2550,Cobargo,-36.64,149.86
2918,2550,Coolagolite,-36.64,149.86
2919,2550,Coolangubra,-36.64,149.86
2920,2550,Coopers Gully,-36.64,149.86
2921,2550,Devils Hole,-36.64,149.86
2922,2550,Doctor George Mountain,-36.64,149.86
2923,2550,Frogs Hollow,-36.64,149.86
2924,2550,Greendale,-36.64,149.86
2925,2550,Jellat Jellat,-36.64,149.86
2926,2550,Kalaru,-36.64,149.86
2927,2550,Kameruka,-36.64,149.86
2928,2550,Kanoona,-36.64,149.86
2929,2550,Kingswood,-36.64,149.86
2930,2550,Mogareeka,-36.64,149.86
2931,2550,Mogilla,-36.64,149.86
2932,2550,Morans Crossing,-36.64,149.86
2933,2550,Mumbulla Mountain,-36.64,149.86
2934,2550,Myrtle Mountain,-36.64,149.86
2935,2550,Nelson,-36.64,149.86
2936,2550,New Buildings,-36.64,149.86
2937,2550,Numbugga,-36.64,149.86
2938,2550,Pericoe,-36.64,149.86
2939,2550,Quaama,-36.64,149.86
2940,2550,Reedy Swamp,-36.64,149.86
2941,2550,Rocky Hall,-36.64,149.86
2942,2550,South Wolumla,-36.64,149.86
2943,2550,Stony Creek,-36.64,149.86
2944,2550,Tanja,-36.64,149.86
2945,2550,Tantawangalo,-36.64,149.86
2946,2550,Tarraganda,-36.64,149.86
2947,2550,Tathra,-36.64,149.86
2948,2550,Toothdale,-36.64,149.86
2949,2550,Towamba,-36.64,149.86
2950,2550,Verona,-36.64,149.86
2951,2550,Wallagoot,-36.64,149.86
2952,2550,Wandella,-36.64,149.86
2953,2550,Wapengo,-36.64,149.86
2954,2550,Wog Wog,-36.64,149.86
2955,2550,Wolumla,-36.64,149.86
2956,2550,Wyndham,-36.64,149.86
2957,2550,Yambulla,-36.64,149.86
2958,2550,Yankees Creek,-36.64,149.86
2959,2550,Yowrie,-36.64,149.86
2960,2551,Boydtown,-37.1,149.88
2961,2551,Eden,-37.1,149.88
2962,2551,Edrom,-37.1,149.88
2963,2551,Green Cape,-37.1,149.88
2964,2551,Kiah,-37.1,149.88
2965,2551,Nadgee,-37.1,149.88
2966,2551,Narrabarba,-37.1,149.88
2967,2551,Nullica,-37.1,149.88
2968,2551,Nungatta,-37.1,149.88
2969,2551,Nungatta South,-37.1,149.88
2970,2551,Timbillica,-37.1,149.88
2971,2551,Wonboyn,-37.1,149.88
2972,2551,Wonboyn Lake,-37.1,149.88
2973,2551,Wonboyn North,-37.1,149.88
2974,2555,Badgerys Creek,-33.88,150.74
2975,2556,Bringelly,-33.95,150.73
2976,2557,Catherine Field,-33.99,150.77
2977,2557,Gregory Hills,-33.99,150.77
2978,2557,Rossmore,-33.99,150.77
2979,2558,Eagle Vale,-34.04,150.81
2980,2558,Eschol Park,-34.04,150.81
2981,2558,Kearns,-34.04,150.81
2982,2559,Blairmount,-34.05,150.8
2983,2559,Claymore,-34.05,150.8
2984,2560,Airds,-34.08,150.83
2985,2560,Ambarvale,-34.08,150.83
2986,2560,Appin,-34.08,150.83
2987,2560,Blair Athol,-34.08,150.83
2988,2560,Bradbury,-34.08,150.83
2989,2560,Campbelltown,-34.08,150.83
2990,2560,Campbelltown North,-34.08,150.83
2991,2560,Cataract,-34.08,150.83
2992,2560,Englorie Park,-34.08,150.83
2993,2560,Gilead,-34.08,150.83
2994,2560,Glen Alpine,-34.08,150.83
2995,2560,Kentlyn,-34.08,150.83
2996,2560,Leumeah,-34.08,150.83
2997,2560,Macarthur Square,-34.08,150.83
2998,2560,Rosemeadow,-34.08,150.83
2999,2560,Ruse,-34.08,150.83
3000,2560,St Helens Park,-34.08,150.83
3001,2560,Wedderburn,-34.08,150.83
3002,2560,Woodbine,-34.08,150.83
3003,2563,Menangle Park,-34.1,150.76
3004,2564,Glenquarie,-33.99,150.89
3005,2564,Long Point,-33.99,150.89
3006,2564,Macquarie Fields,-33.99,150.89
3007,2565,Bardia,-33.99,150.84
3008,2565,Denham Court,-33.99,150.84
3009,2565,Ingleburn,-33.99,150.84
3010,2565,Macquarie Links,-33.99,150.84
3011,2566,Bow Bowing,-34.02,150.84
3012,2566,Minto,-34.02,150.84
3013,2566,Minto DC,-34.02,150.84
3014,2566,Minto Heights,-34.02,150.84
3015,2566,Raby,-34.02,150.84
3016,2566,St Andrews,-34.02,150.84
3017,2566,Varroville,-34.02,150.84
3018,2567,Currans Hill,-34.05,150.76
3019,2567,Harrington Park,-34.05,150.76
3020,2567,Mount Annan,-34.05,150.76
3021,2567,Narellan,-34.05,150.76
3022,2567,Narellan DC,-34.05,150.76
3023,2567,Narellan Vale,-34.05,150.76
3024,2567,Smeaton Grange,-34.05,150.76
3025,2568,Menangle,-34.11,150.75
3026,2569,Douglas Park,-34.19,150.71
3027,2570,Belimbla Park,-34.08,150.54
3028,2570,Bickley Vale,-34.08,150.54
3029,2570,Brownlow Hill,-34.08,150.54
3030,2570,Camden,-34.08,150.54
3031,2570,Camden Park,-34.08,150.54
3032,2570,Camden South,-34.08,150.54
3033,2570,Cawdor,-34.08,150.54
3034,2570,Cobbitty,-34.08,150.54
3035,2570,Elderslie,-34.08,150.54
3036,2570,Ellis Lane,-34.08,150.54
3037,2570,Glenmore,-34.08,150.54
3038,2570,Grasmere,-34.08,150.54
3039,2570,Kirkham,-34.08,150.54
3040,2570,Mount Hunter,-34.08,150.54
3041,2570,Nattai,-34.08,150.54
3042,2570,Oakdale,-34.08,150.54
3043,2570,Oran Park,-34.08,150.54
3044,2570,Orangeville,-34.08,150.54
3045,2570,Spring Farm,-34.08,150.54
3046,2570,The Oaks,-34.08,150.54
3047,2570,Theresa Park,-34.08,150.54
3048,2570,Werombi,-34.08,150.54
3049,2571,Balmoral,-34.29,150.53
3050,2571,Buxton,-34.29,150.53
3051,2571,Couridjah,-34.29,150.53
3052,2571,Maldon,-34.29,150.53
3053,2571,Mowbray Park,-34.29,150.53
3054,2571,Picton,-34.29,150.53
3055,2571,Razorback,-34.29,150.53
3056,2571,Wilton,-34.29,150.53
3057,2572,Lakesland,-34.18,150.53
3058,2572,Thirlmere,-34.18,150.53
3059,2573,Tahmoor,-34.22,150.59
3060,2574,Avon,-34.35,150.63
3061,2574,Bargo,-34.35,150.63
3062,2574,Pheasants Nest,-34.35,150.63
3063,2574,Yanderra,-34.35,150.63
3064,2575,Alpine,-34.41,150.52
3065,2575,Aylmerton,-34.41,150.52
3066,2575,Braemar,-34.41,150.52
3067,2575,Bullio,-34.41,150.52
3068,2575,Colo Vale,-34.41,150.52
3069,2575,High Range,-34.41,150.52
3070,2575,Hill Top,-34.41,150.52
3071,2575,Joadja,-34.41,150.52
3072,2575,Mittagong,-34.41,150.52
3073,2575,Mount Lindsey,-34.41,150.52
3074,2575,Wattle Ridge,-34.41,150.52
3075,2575,Welby,-34.41,150.52
3076,2575,Willow Vale,-34.41,150.52
3077,2575,Woodlands,-34.41,150.52
3078,2575,Yerrinbool,-34.41,150.52
3079,2576,Bowral,-34.54,150.39
3080,2576,Burradoo,-34.54,150.39
3081,2576,East Bowral,-34.54,150.39
3082,2576,East Kangaloon,-34.54,150.39
3083,2576,Glenquarry,-34.54,150.39
3084,2576,Kangaloon,-34.54,150.39
3085,2577,Avoca,-34.61,150.48
3086,2577,Bangadilly,-34.61,150.48
3087,2577,Barren Grounds,-34.61,150.48
3088,2577,Barrengarry,-34.61,150.48
3089,2577,Beaumont,-34.61,150.48
3090,2577,Belanglo,-34.61,150.48
3091,2577,Berrima,-34.61,150.48
3092,2577,Budgong,-34.61,150.48
3093,2577,Burrawang,-34.61,150.48
3094,2577,Canyonleigh,-34.61,150.48
3095,2577,Carrington Falls,-34.61,150.48
3096,2577,Fitzroy Falls,-34.61,150.48
3097,2577,Hanging Rock,-34.61,150.48
3098,2577,Kangaroo Valley,-34.61,150.48
3099,2577,Knights Hill,-34.61,150.48
3100,2577,Macquarie Pass,-34.61,150.48
3101,2577,Manchester Square,-34.61,150.48
3102,2577,Medway,-34.61,150.48
3103,2577,Meryla,-34.61,150.48
3104,2577,Moss Vale,-34.61,150.48
3105,2577,Mount Murray,-34.61,150.48
3106,2577,New Berrima,-34.61,150.48
3107,2577,Paddys River,-34.61,150.48
3108,2577,Red Rocks,-34.61,150.48
3109,2577,Robertson,-34.61,150.48
3110,2577,Sutton Forest,-34.61,150.48
3111,2577,Upper Kangaroo River,-34.61,150.48
3112,2577,Upper Kangaroo Valley,-34.61,150.48
3113,2577,Werai,-34.61,150.48
3114,2577,Wildes Meadow,-34.61,150.48
3115,2578,Bundanoon,-34.63,150.32
3116,2579,Big Hill,-34.56,149.99
3117,2579,Brayton,-34.56,149.99
3118,2579,Exeter,-34.56,149.99
3119,2579,Marulan,-34.56,149.99
3120,2579,Penrose,-34.56,149.99
3121,2579,Tallong,-34.56,149.99
3122,2579,Wingello,-34.56,149.99
3123,2580,Bannaby,-34.44,149.96
3124,2580,Bannister,-34.44,149.96
3125,2580,Baw Baw,-34.44,149.96
3126,2580,Boxers Creek,-34.44,149.96
3127,2580,Brisbane Grove,-34.44,149.96
3128,2580,Bungonia,-34.44,149.96
3129,2580,Carrick,-34.44,149.96
3130,2580,Chatsbury,-34.44,149.96
3131,2580,Currawang,-34.44,149.96
3132,2580,Curraweela,-34.44,149.96
3133,2580,Golspie,-34.44,149.96
3134,2580,Goulburn,-34.44,149.96
3135,2580,Goulburn DC,-34.44,149.96
3136,2580,Goulburn North,-34.44,149.96
3137,2580,Greenwich Park,-34.44,149.96
3138,2580,Gundary,-34.44,149.96
3139,2580,Jerrong,-34.44,149.96
3140,2580,Kingsdale,-34.44,149.96
3141,2580,Lake Bathurst,-34.44,149.96
3142,2580,Lower Boro,-34.44,149.96
3143,2580,Mayfield,-34.44,149.96
3144,2580,Middle Arm,-34.44,149.96
3145,2580,Mount Fairy,-34.44,149.96
3146,2580,Mummel,-34.44,149.96
3147,2580,Myrtleville,-34.44,149.96
3148,2580,Paling Yards,-34.44,149.96
3149,2580,Parkesbourne,-34.44,149.96
3150,2580,Pomeroy,-34.44,149.96
3151,2580,Quialigo,-34.44,149.96
3152,2580,Richlands,-34.44,149.96
3153,2580,Roslyn,-34.44,149.96
3154,2580,Run-O-Waters,-34.44,149.96
3155,2580,Stonequarry,-34.44,149.96
3156,2580,Tarago,-34.44,149.96
3157,2580,Taralga,-34.44,149.96
3158,2580,Tarlo,-34.44,149.96
3159,2580,Tirrannaville,-34.44,149.96
3160,2580,Towrang,-34.44,149.96
3161,2580,Wayo,-34.44,149.96
3162,2580,Wiarborough,-34.44,149.96
3163,2580,Windellama,-34.44,149.96
3164,2580,Wombeyan Caves,-34.44,149.96
3165,2580,Woodhouselee,-34.44,149.96
3166,2580,Yalbraith,-34.44,149.96
3167,2580,Yarra,-34.44,149.96
3168,2581,Bellmount Forest,-34.92,149.24
3169,2581,Bevendale,-34.92,149.24
3170,2581,Biala,-34.92,149.24
3171,2581,Blakney Creek,-34.92,149.24
3172,2581,Breadalbane,-34.92,149.24
3173,2581,Broadway,-34.92,149.24
3174,2581,Collector,-34.92,149.24
3175,2581,Cullerin,-34.92,149.24
3176,2581,Dalton,-34.92,149.24
3177,2581,Gunning,-34.92,149.24
3178,2581,Gurrundah,-34.92,149.24
3179,2581,Lade Vale,-34.92,149.24
3180,2581,Lake George,-34.92,149.24
3181,2581,Lerida,-34.92,149.24
3182,2581,Merrill,-34.92,149.24
3183,2581,Oolong,-34.92,149.24
3184,2581,Wollogorang,-34.92,149.24
3185,2582,Bango,-34.75,148.96
3186,2582,Berremangra,-34.75,148.96
3187,2582,Boambolo,-34.75,148.96
3188,2582,Bookham,-34.75,148.96
3189,2582,Bowning,-34.75,148.96
3190,2582,Burrinjuck,-34.75,148.96
3191,2582,Cavan,-34.75,148.96
3192,2582,Good Hope,-34.75,148.96
3193,2582,Jeir,-34.75,148.96
3194,2582,Jerrawa,-34.75,148.96
3195,2582,Kangiara,-34.75,148.96
3196,2582,Laverstock,-34.75,148.96
3197,2582,Manton,-34.75,148.96
3198,2582,Marchmont,-34.75,148.96
3199,2582,Mullion,-34.75,148.96
3200,2582,Murrumbateman,-34.75,148.96
3201,2582,Narrangullen,-34.75,148.96
3202,2582,Wee Jasper,-34.75,148.96
3203,2582,Woolgarlo,-34.75,148.96
3204,2582,Yass,-34.75,148.96
3205,2582,Yass River,-34.75,148.96
3206,2583,Bigga,-34.08,149.15
3207,2583,Binda,-34.08,149.15
3208,2583,Crooked Corner,-34.08,149.15
3209,2583,Crookwell,-34.08,149.15
3210,2583,Fullerton,-34.08,149.15
3211,2583,Grabben Gullen,-34.08,149.15
3212,2583,Grabine,-34.08,149.15
3213,2583,Laggan,-34.08,149.15
3214,2583,Limerick,-34.08,149.15
3215,2583,Lost River,-34.08,149.15
3216,2583,Narrawa,-34.08,149.15
3217,2583,Peelwood,-34.08,149.15
3218,2583,Pejar,-34.08,149.15
3219,2583,Rugby,-34.08,149.15
3220,2583,Tuena,-34.08,149.15
3221,2583,Wheeo,-34.08,149.15
3222,2584,Binalong,-34.67,148.63
3223,2585,Galong,-34.6,148.56
3224,2586,Boorowa,-34.44,148.72
3225,2586,Frogmore,-34.44,148.72
3226,2586,Godfreys Creek,-34.44,148.72
3227,2586,Murringo,-34.44,148.72
3228,2586,Reids Flat,-34.44,148.72
3229,2586,Rye Park,-34.44,148.72
3230,2586,Taylors Flat,-34.44,148.72
3231,2587,Harden,-34.55,148.37
3232,2587,Kingsvale,-34.55,148.37
3233,2587,Mcmahons Reef,-34.55,148.37
3234,2587,Murrumburrah,-34.55,148.37
3235,2587,Nubba,-34.55,148.37
3236,2587,Wombat,-34.55,148.37
3237,2588,Wallendbeen,-34.52,148.16
3238,2590,Bethungra,-34.76,147.85
3239,2590,Cootamundra,-34.76,147.85
3240,2590,Illabo,-34.76,147.85
3241,2594,Berthong,-34.43,148.07
3242,2594,Bribbaree,-34.43,148.07
3243,2594,Bulla Creek,-34.43,148.07
3244,2594,Burrangong,-34.43,148.07
3245,2594,Kikiamah,-34.43,148.07
3246,2594,Maimuru,-34.43,148.07
3247,2594,Memagong,-34.43,148.07
3248,2594,Milvale,-34.43,148.07
3249,2594,Monteagle,-34.43,148.07
3250,2594,Thuddungra,-34.43,148.07
3251,2594,Tubbul,-34.43,148.07
3252,2594,Weedallion,-34.43,148.07
3253,2594,Young,-34.43,148.07
3254,2600,Barton,-35.31,149.14
3255,2600,Canberra,-35.31,149.14
3256,2600,Capital Hill,-35.31,149.14
3257,2600,Deakin,-35.31,149.14
3258,2600,Deakin West,-35.31,149.14
3259,2600,Duntroon,-35.31,149.14
3260,2600,Harman,-35.31,149.14
3261,2600,Hmas Harman,-35.31,149.14
3262,2600,Parkes,-35.31,149.14
3263,2600,Parliament House,-35.31,149.14
3264,2600,Russell,-35.31,149.14
3265,2600,Russell Hill,-35.31,149.14
3266,2600,Yarralumla,-35.31,149.14
3267,2601,Acton,-35.28,149.11
3268,2601,Black Mountain,-35.28,149.11
3269,2601,Canberra,-35.28,149.11
3270,2601,City,-35.28,149.11
3271,2602,Ainslie,-35.26,149.15
3272,2602,Dickson,-35.26,149.15
3273,2602,Downer,-35.26,149.15
3274,2602,Hackett,-35.26,149.15
3275,2602,Lyneham,-35.26,149.15
3276,2602,O'Connor,-35.26,149.15
3277,2602,Watson,-35.26,149.15
3278,2603,Forrest,-35.32,149.12
3279,2603,Griffith,-35.32,149.12
3280,2603,Manuka,-35.32,149.12
3281,2603,Red Hill,-35.32,149.12
3282,2604,Causeway,-35.32,149.15
3283,2604,Kingston,-35.32,149.15
3284,2604,Narrabundah,-35.32,149.15
3285,2605,Curtin,-35.32,149.08
3286,2605,Garran,-35.32,149.08
3287,2605,Hughes,-35.32,149.08
3288,2606,Chifley,-35.35,149.08
3289,2606,Lyons,-35.35,149.08
3290,2606,O'Malley,-35.35,149.08
3291,2606,Phillip,-35.35,149.08
3292,2606,Phillip DC,-35.35,149.08
3293,2606,Swinger Hill,-35.35,149.08
3294,2606,Woden,-35.35,149.08
3295,2607,Farrer,-35.38,149.1
3296,2607,Isaacs,-35.38,149.1
3297,2607,Mawson,-35.38,149.1
3298,2607,Pearce,-35.38,149.1
3299,2607,Torrens,-35.38,149.1
3300,2608,Civic Square,-35.28,149.13
3301,2609,Canberra International Airport,-35.3,149.19
3302,2609,Fyshwick,-35.3,149.19
3303,2609,Majura,-35.3,149.19
3304,2609,Pialligo,-35.3,149.19
3305,2609,Symonston,-35.3,149.19
3306,2610,Canberra BC,0,0
3307,2610,Canberra MC,0,0
3308,2611,Bimberi,-35.56,148.62
3309,2611,Brindabella,-35.56,148.62
3310,2611,Chapman,-35.56,148.62
3311,2611,Cooleman,-35.56,148.62
3312,2611,Duffy,-35.56,148.62
3313,2611,Fisher,-35.56,148.62
3314,2611,Holder,-35.56,148.62
3315,2611,Mount Stromlo,-35.56,148.62
3316,2611,Pierces Creek,-35.56,148.62
3317,2611,Rivett,-35.56,148.62
3318,2611,Stirling,-35.56,148.62
3319,2611,Uriarra,-35.56,148.62
3320,2611,Uriarra,-35.56,148.62
3321,2611,Uriarra Forest,-35.56,148.62
3322,2611,Waramanga,-35.56,148.62
3323,2611,Weston,-35.56,148.62
3324,2611,Weston Creek,-35.56,148.62
3325,2612,Braddon,-35.27,149.13
3326,2612,Campbell,-35.27,149.13
3327,2612,Reid,-35.27,149.13
3328,2612,Turner,-35.27,149.13
3329,2614,Aranda,-35.26,149.08
3330,2614,Cook,-35.26,149.08
3331,2614,Hawker,-35.26,149.08
3332,2614,Jamison Centre,-35.26,149.08
3333,2614,Macquarie,-35.26,149.08
3334,2614,Page,-35.26,149.08
3335,2614,Scullin,-35.26,149.08
3336,2614,Weetangera,-35.26,149.08
3337,2615,Charnwood,-35.2,149.03
3338,2615,Dunlop,-35.2,149.03
3339,2615,Florey,-35.2,149.03
3340,2615,Flynn,-35.2,149.03
3341,2615,Fraser,-35.2,149.03
3342,2615,Higgins,-35.2,149.03
3343,2615,Holt,-35.2,149.03
3344,2615,Kippax,-35.2,149.03
3345,2615,Latham,-35.2,149.03
3346,2615,Macgregor,-35.2,149.03
3347,2615,Melba,-35.2,149.03
3348,2615,Spence,-35.2,149.03
3349,2616,Belconnen,-35.25,149.07
3350,2617,Belconnen,-35.24,149.07
3351,2617,Belconnen DC,-35.24,149.07
3352,2617,Bruce,-35.24,149.07
3353,2617,Evatt,-35.24,149.07
3354,2617,Giralang,-35.24,149.07
3355,2617,Kaleen,-35.24,149.07
3356,2617,Lawson,-35.24,149.07
3357,2617,Mckellar,-35.24,149.07
3358,2617,University Of Canberra,-35.24,149.07
3359,2618,Hall,-35.52,149.08
3360,2618,Nanima,-35.52,149.08
3361,2618,Springrange,-35.52,149.08
3362,2618,Wallaroo,-35.52,149.08
3363,2619,Jerrabomberra,-35.38,149.2
3364,2620,Beard,-35.58,149.23
3365,2620,Burra,-35.58,149.23
3366,2620,Carwoola,-35.58,149.23
3367,2620,Clear Range,-35.58,149.23
3368,2620,Crestwood,-35.58,149.23
3369,2620,Environa,-35.58,149.23
3370,2620,Googong,-35.58,149.23
3371,2620,Greenleigh,-35.58,149.23
3372,2620,Gundaroo,-35.58,149.23
3373,2620,Hume,-35.58,149.23
3374,2620,Karabar,-35.58,149.23
3375,2620,Kowen Forest,-35.58,149.23
3376,2620,Michelago,-35.58,149.23
3377,2620,Oaks Estate,-35.58,149.23
3378,2620,Queanbeyan,-35.58,149.23
3379,2620,Queanbeyan DC,-35.58,149.23
3380,2620,Queanbeyan East,-35.58,149.23
3381,2620,Queanbeyan West,-35.58,149.23
3382,2620,Royalla,-35.58,149.23
3383,2620,Sutton,-35.58,149.23
3384,2620,Tharwa,-35.58,149.23
3385,2620,The Angle,-35.58,149.23
3386,2620,The Ridgeway,-35.58,149.23
3387,2620,Tinderry,-35.58,149.23
3388,2620,Top Naas,-35.58,149.23
3389,2620,Tralee,-35.58,149.23
3390,2620,Urila,-35.58,149.23
3391,2620,Wamboin,-35.58,149.23
3392,2620,Williamsdale,-35.58,149.23
3393,2620,Williamsdale,-35.58,149.23
3394,2620,Yarrow,-35.58,149.23
3395,2621,Anembo,-35.81,149.43
3396,2621,Bungendore,-35.81,149.43
3397,2621,Bywong,-35.81,149.43
3398,2621,Forbes Creek,-35.81,149.43
3399,2621,Hoskinstown,-35.81,149.43
3400,2621,Primrose Valley,-35.81,149.43
3401,2621,Rossi,-35.81,149.43
3402,2622,Araluen,-35.65,149.81
3403,2622,Back Creek,-35.65,149.81
3404,2622,Ballalaba,-35.65,149.81
3405,2622,Bendoura,-35.65,149.81
3406,2622,Berlang,-35.65,149.81
3407,2622,Bombay,-35.65,149.81
3408,2622,Boro,-35.65,149.81
3409,2622,Braidwood,-35.65,149.81
3410,2622,Budawang,-35.65,149.81
3411,2622,Bulee,-35.65,149.81
3412,2622,Charleys Forest,-35.65,149.81
3413,2622,Coolumburra,-35.65,149.81
3414,2622,Corang,-35.65,149.81
3415,2622,Durran Durra,-35.65,149.81
3416,2622,Endrick,-35.65,149.81
3417,2622,Farringdon,-35.65,149.81
3418,2622,Harolds Cross,-35.65,149.81
3419,2622,Hereford Hall,-35.65,149.81
3420,2622,Jembaicumbene,-35.65,149.81
3421,2622,Jerrabattgulla,-35.65,149.81
3422,2622,Jinden,-35.65,149.81
3423,2622,Jingera,-35.65,149.81
3424,2622,Kindervale,-35.65,149.81
3425,2622,Krawarree,-35.65,149.81
3426,2622,Larbert,-35.65,149.81
3427,2622,Majors Creek,-35.65,149.81
3428,2622,Manar,-35.65,149.81
3429,2622,Marlowe,-35.65,149.81
3430,2622,Merricumbene,-35.65,149.81
3431,2622,Monga,-35.65,149.81
3432,2622,Mongarlowe,-35.65,149.81
3433,2622,Mulloon,-35.65,149.81
3434,2622,Murrengenburg,-35.65,149.81
3435,2622,Neringla,-35.65,149.81
3436,2622,Nerriga,-35.65,149.81
3437,2622,Northangera,-35.65,149.81
3438,2622,Oallen,-35.65,149.81
3439,2622,Palerang,-35.65,149.81
3440,2622,Quiera,-35.65,149.81
3441,2622,Reidsdale,-35.65,149.81
3442,2622,Sassafras,-35.65,149.81
3443,2622,Snowball,-35.65,149.81
3444,2622,St George,-35.65,149.81
3445,2622,Tianjara,-35.65,149.81
3446,2622,Tolwong,-35.65,149.81
3447,2622,Tomboye,-35.65,149.81
3448,2622,Touga,-35.65,149.81
3449,2622,Warri,-35.65,149.81
3450,2622,Wog Wog,-35.65,149.81
3451,2622,Wyanbene,-35.65,149.81
3452,2623,Captains Flat,-35.55,149.45
3453,2624,Perisher Valley,-36.18,148.44
3454,2625,Thredbo,-36.51,148.3
3455,2626,Bredbo,-35.96,149.15
3456,2626,Bumbalong,-35.96,149.15
3457,2626,Colinton,-35.96,149.15
3458,2627,Crackenback,-36.44,148.51
3459,2627,East Jindabyne,-36.44,148.51
3460,2627,Grosses Plain,-36.44,148.51
3461,2627,Ingebirah,-36.44,148.51
3462,2627,Jindabyne,-36.44,148.51
3463,2627,Kalkite,-36.44,148.51
3464,2627,Kosciuszko,-36.44,148.51
3465,2627,Kosciuszko National Park,-36.44,148.51
3466,2627,Moonbah,-36.44,148.51
3467,2627,Pilot Wilderness,-36.44,148.51
3468,2628,Avonside,-36.44,148.7
3469,2628,Beloka,-36.44,148.7
3470,2628,Berridale,-36.44,148.7
3471,2628,Braemar Bay,-36.44,148.7
3472,2628,Byadbo Wilderness,-36.44,148.7
3473,2628,Cootralantra,-36.44,148.7
3474,2628,Dalgety,-36.44,148.7
3475,2628,Eucumbene,-36.44,148.7
3476,2628,Hill Top,-36.44,148.7
3477,2628,Nimmo,-36.44,148.7
3478,2628,Numbla Vale,-36.44,148.7
3479,2628,Paupong,-36.44,148.7
3480,2628,Rocky Plain,-36.44,148.7
3481,2628,Snowy Plain,-36.44,148.7
3482,2629,Adaminaby,-36,148.77
3483,2629,Anglers Reach,-36,148.77
3484,2629,Bolaro,-36,148.77
3485,2629,Cabramurra,-36,148.77
3486,2629,Long Plain,-36,148.77
3487,2629,Old Adaminaby,-36,148.77
3488,2629,Providence Portal,-36,148.77
3489,2629,Tantangara,-36,148.77
3490,2629,Yaouk,-36,148.77
3491,2630,Arable,-36.37,148.95
3492,2630,Badja,-36.37,148.95
3493,2630,Billilingra,-36.37,148.95
3494,2630,Binjura,-36.37,148.95
3495,2630,Bobundara,-36.37,148.95
3496,2630,Buckenderra,-36.37,148.95
3497,2630,Bungarby,-36.37,148.95
3498,2630,Bunyan,-36.37,148.95
3499,2630,Carlaminda,-36.37,148.95
3500,2630,Chakola,-36.37,148.95
3501,2630,Coolringdon,-36.37,148.95
3502,2630,Cooma,-36.37,148.95
3503,2630,Cooma North,-36.37,148.95
3504,2630,Countegany,-36.37,148.95
3505,2630,Dairymans Plains,-36.37,148.95
3506,2630,Dangelong,-36.37,148.95
3507,2630,Dry Plain,-36.37,148.95
3508,2630,Frying Pan,-36.37,148.95
3509,2630,Glen Fergus,-36.37,148.95
3510,2630,Ironmungy,-36.37,148.95
3511,2630,Jerangle,-36.37,148.95
3512,2630,Jimenbuen,-36.37,148.95
3513,2630,Maffra,-36.37,148.95
3514,2630,Middle Flat,-36.37,148.95
3515,2630,Middlingbank,-36.37,148.95
3516,2630,Murrumbucca,-36.37,148.95
3517,2630,Myalla,-36.37,148.95
3518,2630,Numeralla,-36.37,148.95
3519,2630,Peak View,-36.37,148.95
3520,2630,Pine Valley,-36.37,148.95
3521,2630,Polo Flat,-36.37,148.95
3522,2630,Rhine Falls,-36.37,148.95
3523,2630,Rock Flat,-36.37,148.95
3524,2630,Rose Valley,-36.37,148.95
3525,2630,Shannons Flat,-36.37,148.95
3526,2630,Springfield,-36.37,148.95
3527,2630,The Brothers,-36.37,148.95
3528,2630,Tuross,-36.37,148.95
3529,2630,Wambrook,-36.37,148.95
3530,2631,Ando,-36.74,149.26
3531,2631,Boco,-36.74,149.26
3532,2631,Creewah,-36.74,149.26
3533,2631,Glen Allen,-36.74,149.26
3534,2631,Greenlands,-36.74,149.26
3535,2631,Holts Flat,-36.74,149.26
3536,2631,Jincumbilly,-36.74,149.26
3537,2631,Kybeyan,-36.74,149.26
3538,2631,Mount Cooper,-36.74,149.26
3539,2631,Nimmitabel,-36.74,149.26
3540,2631,Steeple Flat,-36.74,149.26
3541,2631,Winifred,-36.74,149.26
3542,2632,Bibbenluke,-36.82,149.28
3543,2632,Bombala,-36.82,149.28
3544,2632,Bondi Forest,-36.82,149.28
3545,2632,Bukalong,-36.82,149.28
3546,2632,Cambalong,-36.82,149.28
3547,2632,Cathcart,-36.82,149.28
3548,2632,Coolumbooka,-36.82,149.28
3549,2632,Craigie,-36.82,149.28
3550,2632,Gunningrah,-36.82,149.28
3551,2632,Lords Hill,-36.82,149.28
3552,2632,Merriangaah,-36.82,149.28
3553,2632,Mila,-36.82,149.28
3554,2632,Mount Darragh,-36.82,149.28
3555,2632,Paddys Flat,-36.82,149.28
3556,2632,Palarang,-36.82,149.28
3557,2632,Quidong,-36.82,149.28
3558,2632,Rockton,-36.82,149.28
3559,2632,Rosemeath,-36.82,149.28
3560,2633,Corrowong,-36.93,148.83
3561,2633,Delegate,-36.93,148.83
3562,2633,Tombong,-36.93,148.83
3563,2640,Albury,-36.08,146.91
3564,2640,Bungowannah,-36.08,146.91
3565,2640,East Albury,-36.08,146.91
3566,2640,Ettamogah,-36.08,146.91
3567,2640,Glenroy,-36.08,146.91
3568,2640,Lavington DC,-36.08,146.91
3569,2640,Moorwatha,-36.08,146.91
3570,2640,North Albury,-36.08,146.91
3571,2640,Ournie,-36.08,146.91
3572,2640,South Albury,-36.08,146.91
3573,2640,Splitters Creek,-36.08,146.91
3574,2640,Table Top,-36.08,146.91
3575,2640,Talmalmo,-36.08,146.91
3576,2640,Thurgoona,-36.08,146.91
3577,2640,West Albury,-36.08,146.91
3578,2640,Wirlinga,-36.08,146.91
3579,2640,Wymah,-36.08,146.91
3580,2641,Hamilton Valley,-36.04,146.92
3581,2641,Lavington,-36.04,146.92
3582,2641,Springdale Heights,-36.04,146.92
3583,2642,Bidgeemia,-35.44,146.44
3584,2642,Brocklesby,-35.44,146.44
3585,2642,Burrumbuttock,-35.44,146.44
3586,2642,Geehi,-35.44,146.44
3587,2642,Gerogery,-35.44,146.44
3588,2642,Glenellen,-35.44,146.44
3589,2642,Greg Greg,-35.44,146.44
3590,2642,Indi,-35.44,146.44
3591,2642,Jagumba,-35.44,146.44
3592,2642,Jagungal Wilderness,-35.44,146.44
3593,2642,Jindera,-35.44,146.44
3594,2642,Jingellic,-35.44,146.44
3595,2642,Khancoban,-35.44,146.44
3596,2642,Murray Gorge,-35.44,146.44
3597,2642,Rand,-35.44,146.44
3598,2642,Tooma,-35.44,146.44
3599,2642,Walbundrie,-35.44,146.44
3600,2642,Welaregang,-35.44,146.44
3601,2642,Wrathall,-35.44,146.44
3602,2642,Yerong Creek,-35.44,146.44
3603,2643,Howlong,-35.96,146.61
3604,2644,Bowna,-35.96,147.13
3605,2644,Coppabella,-35.96,147.13
3606,2644,Holbrook,-35.96,147.13
3607,2644,Lankeys Creek,-35.96,147.13
3608,2644,Little Billabong,-35.96,147.13
3609,2644,Mountain Creek,-35.96,147.13
3610,2644,Mullengandra,-35.96,147.13
3611,2644,Wantagong,-35.96,147.13
3612,2644,Woomargama,-35.96,147.13
3613,2644,Yarara,-35.96,147.13
3614,2645,Cullivel,-35.13,146.13
3615,2645,Urana,-35.13,146.13
3616,2646,Balldale,-35.85,146.52
3617,2646,Collendina,-35.85,146.52
3618,2646,Coreen,-35.85,146.52
3619,2646,Corowa,-35.85,146.52
3620,2646,Daysdale,-35.85,146.52
3621,2646,Goombargana,-35.85,146.52
3622,2646,Hopefield,-35.85,146.52
3623,2646,Lowesdale,-35.85,146.52
3624,2646,Nyora,-35.85,146.52
3625,2646,Oaklands,-35.85,146.52
3626,2646,Redlands,-35.85,146.52
3627,2646,Rennie,-35.85,146.52
3628,2646,Ringwood,-35.85,146.52
3629,2646,Sanger,-35.85,146.52
3630,2646,Savernake,-35.85,146.52
3631,2647,Mulwala,-35.95,145.96
3632,2648,Anabranch,-34.15,142.09
3633,2648,Curlwaa,-34.15,142.09
3634,2648,Pan Ban,-34.15,142.09
3635,2648,Pooncarie,-34.15,142.09
3636,2648,Rufus River,-34.15,142.09
3637,2648,Scotia,-34.15,142.09
3638,2648,Wentworth,-34.15,142.09
3639,2649,Laurel Hill,-35.6,148.09
3640,2649,Nurenmerenmong,-35.6,148.09
3641,2650,Alfredtown,-35.16,147.51
3642,2650,Ashmont,-35.16,147.51
3643,2650,Belfrayden,-35.16,147.51
3644,2650,Big Springs,-35.16,147.51
3645,2650,Bomen,-35.16,147.51
3646,2650,Book Book,-35.16,147.51
3647,2650,Boorooma,-35.16,147.51
3648,2650,Borambola,-35.16,147.51
3649,2650,Bourkelands,-35.16,147.51
3650,2650,Brucedale,-35.16,147.51
3651,2650,Bulgary,-35.16,147.51
3652,2650,Burrandana,-35.16,147.51
3653,2650,Carabost,-35.16,147.51
3654,2650,Cartwrights Hill,-35.16,147.51
3655,2650,Collingullie,-35.16,147.51
3656,2650,Cookardinia,-35.16,147.51
3657,2650,Currawarna,-35.16,147.51
3658,2650,Downside,-35.16,147.51
3659,2650,East Wagga Wagga,-35.16,147.51
3660,2650,Estella,-35.16,147.51
3661,2650,Euberta,-35.16,147.51
3662,2650,Eunanoreenya,-35.16,147.51
3663,2650,Galore,-35.16,147.51
3664,2650,Gelston Park,-35.16,147.51
3665,2650,Glenfield Park,-35.16,147.51
3666,2650,Gobbagombalin,-35.16,147.51
3667,2650,Gregadoo,-35.16,147.51
3668,2650,Harefield,-35.16,147.51
3669,2650,Hillgrove,-35.16,147.51
3670,2650,Kooringal,-35.16,147.51
3671,2650,Kyeamba,-35.16,147.51
3672,2650,Lake Albert,-35.16,147.51
3673,2650,Lloyd,-35.16,147.51
3674,2650,Maxwell,-35.16,147.51
3675,2650,Moorong,-35.16,147.51
3676,2650,Mount Austin,-35.16,147.51
3677,2650,North Wagga Wagga,-35.16,147.51
3678,2650,Oberne Creek,-35.16,147.51
3679,2650,Oura,-35.16,147.51
3680,2650,Pulletop,-35.16,147.51
3681,2650,Rowan,-35.16,147.51
3682,2650,San Isidore,-35.16,147.51
3683,2650,Springvale,-35.16,147.51
3684,2650,Tatton,-35.16,147.51
3685,2650,The Gap,-35.16,147.51
3686,2650,Tolland,-35.16,147.51
3687,2650,Turvey Park,-35.16,147.51
3688,2650,Wagga Wagga,-35.16,147.51
3689,2650,Wagga Wagga BC,-35.16,147.51
3690,2650,Wallacetown,-35.16,147.51
3691,2650,Wantabadgery,-35.16,147.51
3692,2650,Yarragundry,-35.16,147.51
3693,2650,Yathella,-35.16,147.51
3694,2651,Forest Hill,-32.71,151.55
3695,2651,Wagga Wagga Raaf,-32.71,151.55
3696,2652,Boorga,-34.04,146.03
3697,2652,Boree Creek,-34.04,146.03
3698,2652,Goolgowi,-34.04,146.03
3699,2652,Grong Grong,-34.04,146.03
3700,2652,Gumly Gumly,-34.04,146.03
3701,2652,Humula,-34.04,146.03
3702,2652,Ladysmith,-34.04,146.03
3703,2652,Landervale,-34.04,146.03
3704,2652,Mangoplah,-34.04,146.03
3705,2652,Marrar,-34.04,146.03
3706,2652,Matong,-34.04,146.03
3707,2652,Merriwagga,-34.04,146.03
3708,2652,Murrulebale,-34.04,146.03
3709,2652,Old Junee,-34.04,146.03
3710,2652,Rosewood,-34.04,146.03
3711,2652,Tabbita,-34.04,146.03
3712,2652,Tarcutta,-34.04,146.03
3713,2652,Uranquinty,-34.04,146.03
3714,2653,Burra,-35.83,148.07
3715,2653,Courabyra,-35.83,148.07
3716,2653,Glenroy,-35.83,148.07
3717,2653,Mannus,-35.83,148.07
3718,2653,Maragle,-35.83,148.07
3719,2653,Munderoo,-35.83,148.07
3720,2653,Paddys River,-35.83,148.07
3721,2653,Taradale,-35.83,148.07
3722,2653,Tumbarumba,-35.83,148.07
3723,2653,Westdale,-35.83,148.07
3724,2653,Willigobung,-35.83,148.07
3725,2655,French Park,-35.32,147.19
3726,2655,Kubura,-35.32,147.19
3727,2655,The Rock,-35.32,147.19
3728,2655,Tootool,-35.32,147.19
3729,2656,Brookdale,-35.12,147
3730,2656,Brookong,-35.12,147
3731,2656,Fargunyah,-35.12,147
3732,2656,Lockhart,-35.12,147
3733,2656,Milbrulong,-35.12,147
3734,2656,Osborne,-35.12,147
3735,2656,Urangeline,-35.12,147
3736,2656,Urangeline East,-35.12,147
3737,2658,Henty,-35.44,146.99
3738,2658,Munyabla,-35.44,146.99
3739,2658,Pleasant Hills,-35.44,146.99
3740,2658,Ryan,-35.44,146.99
3741,2659,Alma Park,-35.6,146.79
3742,2659,Walla Walla,-35.6,146.79
3743,2660,Culcairn,-35.67,147
3744,2660,Morven,-35.67,147
3745,2661,Kapooka,-35.15,147.3
3746,2663,Cowabbie,-35.15,145.98
3747,2663,Erin Vale,-35.15,145.98
3748,2663,Eurongilly,-35.15,145.98
3749,2663,Junee,-35.15,145.98
3750,2663,Marinna,-35.15,145.98
3751,2663,Wantiool,-35.15,145.98
3752,2665,Ardlethan,-34.36,146.9
3753,2665,Ariah Park,-34.36,146.9
3754,2665,Barellan,-34.36,146.9
3755,2665,Beckom,-34.36,146.9
3756,2665,Bectric,-34.36,146.9
3757,2665,Binya,-34.36,146.9
3758,2665,Kamarah,-34.36,146.9
3759,2665,Mirrool,-34.36,146.9
3760,2665,Moombooldool,-34.36,146.9
3761,2665,Quandary,-34.36,146.9
3762,2665,Tara,-34.36,146.9
3763,2665,Walleroobie,-34.36,146.9
3764,2666,Combaning,-34.46,147.68
3765,2666,Dirnaseer,-34.46,147.68
3766,2666,Gidginbung,-34.46,147.68
3767,2666,Grogan,-34.46,147.68
3768,2666,Junee Reefs,-34.46,147.68
3769,2666,Mimosa,-34.46,147.68
3770,2666,Morangarell,-34.46,147.68
3771,2666,Narraburra,-34.46,147.68
3772,2666,Pucawan,-34.46,147.68
3773,2666,Reefton,-34.46,147.68
3774,2666,Sebastopol,-34.46,147.68
3775,2666,Springdale,-34.46,147.68
3776,2666,Temora,-34.46,147.68
3777,2666,Trungley Hall,-34.46,147.68
3778,2668,Barmedman,-34.18,147.41
3779,2669,Erigolia,-33.5,146.8
3780,2669,Girral,-33.5,146.8
3781,2669,Kikoira,-33.5,146.8
3782,2669,Melbergen,-33.5,146.8
3783,2669,Naradhan,-33.5,146.8
3784,2669,Rankins Springs,-33.5,146.8
3785,2669,Tallimba,-33.5,146.8
3786,2669,Tullibigeal,-33.5,146.8
3787,2669,Ungarie,-33.5,146.8
3788,2669,Weethalle,-33.5,146.8
3789,2671,Alleena,-34.11,147.14
3790,2671,Back Creek,-34.11,147.14
3791,2671,Burcher,-34.11,147.14
3792,2671,Lake Cowal,-34.11,147.14
3793,2671,North Yalgogrin,-34.11,147.14
3794,2671,West Wyalong,-34.11,147.14
3795,2671,Wyalong,-34.11,147.14
3796,2672,Curlew Waters,-33.39,146.58
3797,2672,Lake Cargelligo,-33.39,146.58
3798,2672,Murrin Bridge,-33.39,146.58
3799,2675,Hillston,-33.48,145.53
3800,2675,Lake Brewster,-33.48,145.53
3801,2675,Monia Gap,-33.48,145.53
3802,2675,Roto,-33.48,145.53
3803,2675,Wallanthery,-33.48,145.53
3804,2678,Charles Sturt University,-35.06,147.35
3805,2678,Riverina Msc,-35.06,147.35
3806,2680,Beelbangera,-34.26,146.1
3807,2680,Benerembah,-34.26,146.1
3808,2680,Bilbul,-34.26,146.1
3809,2680,Griffith,-34.26,146.1
3810,2680,Griffith DC,-34.26,146.1
3811,2680,Griffith East,-34.26,146.1
3812,2680,Hanwood,-34.26,146.1
3813,2680,Kooba,-34.26,146.1
3814,2680,Lake Wyangan,-34.26,146.1
3815,2680,Nericon,-34.26,146.1
3816,2680,Tharbogang,-34.26,146.1
3817,2680,Warburn,-34.26,146.1
3818,2680,Warrawidgee,-34.26,146.1
3819,2680,Widgelli,-34.26,146.1
3820,2680,Willbriggie,-34.26,146.1
3821,2680,Yoogali,-34.26,146.1
3822,2681,Myall Park,-34.18,146.11
3823,2681,Yenda,-34.18,146.11
3824,2700,Bundure,-35.03,146.61
3825,2700,Colinroobie,-35.03,146.61
3826,2700,Corobimilla,-35.03,146.61
3827,2700,Cudgel,-35.03,146.61
3828,2700,Euroley,-35.03,146.61
3829,2700,Gillenbah,-35.03,146.61
3830,2700,Kywong,-35.03,146.61
3831,2700,Morundah,-35.03,146.61
3832,2700,Narrandera,-35.03,146.61
3833,2700,Sandigo,-35.03,146.61
3834,2701,Berry Jerry,-34.82,147.2
3835,2701,Coolamon,-34.82,147.2
3836,2701,Methul,-34.82,147.2
3837,2701,Rannock,-34.82,147.2
3838,2702,Ganmain,-34.79,147.04
3839,2703,Yanco,-34.63,146.4
3840,2705,Brobenah,-34.49,146.43
3841,2705,Corbie Hill,-34.49,146.43
3842,2705,Gogeldrie,-34.49,146.43
3843,2705,Leeton,-34.49,146.43
3844,2705,Merungle Hill,-34.49,146.43
3845,2705,Murrami,-34.49,146.43
3846,2705,Stanbridge,-34.49,146.43
3847,2705,Whitton,-34.49,146.43
3848,2706,Darlington Point,-34.56,146.01
3849,2707,Argoon,-34.86,145.67
3850,2707,Coleambally,-34.86,145.67
3851,2708,Albury Msc,0,0
3852,2708,Murray Region MC,0,0
3853,2710,Barratta,-35.23,144.49
3854,2710,Birganbigil,-35.23,144.49
3855,2710,Booroorban,-35.23,144.49
3856,2710,Bullatale,-35.23,144.49
3857,2710,Caldwell,-35.23,144.49
3858,2710,Calimo,-35.23,144.49
3859,2710,Conargo,-35.23,144.49
3860,2710,Coree,-35.23,144.49
3861,2710,Deniliquin,-35.23,144.49
3862,2710,Hartwood,-35.23,144.49
3863,2710,Lindifferon,-35.23,144.49
3864,2710,Mathoura,-35.23,144.49
3865,2710,Mayrung,-35.23,144.49
3866,2710,Moonbria,-35.23,144.49
3867,2710,Morago,-35.23,144.49
3868,2710,Pretty Pine,-35.23,144.49
3869,2710,Steam Plains,-35.23,144.49
3870,2710,Stud Park,-35.23,144.49
3871,2710,Wakool,-35.23,144.49
3872,2710,Wandook,-35.23,144.49
3873,2710,Wanganella,-35.23,144.49
3874,2710,Warragoon,-35.23,144.49
3875,2710,Willurah,-35.23,144.49
3876,2711,Booligal,-33.68,144.75
3877,2711,Carrathool,-33.68,144.75
3878,2711,Clare,-33.68,144.75
3879,2711,Corrong,-33.68,144.75
3880,2711,Gunbar,-33.68,144.75
3881,2711,Hay,-33.68,144.75
3882,2711,Hay South,-33.68,144.75
3883,2711,Keri Keri,-33.68,144.75
3884,2711,Maude,-33.68,144.75
3885,2711,One Tree,-33.68,144.75
3886,2711,Oxley,-33.68,144.75
3887,2711,Waugorah,-33.68,144.75
3888,2711,Yanga,-33.68,144.75
3889,2712,Berrigan,-35.66,145.81
3890,2712,Boomanoomana,-35.66,145.81
3891,2713,Blighty,-35.59,145.29
3892,2713,Finley,-35.59,145.29
3893,2713,Logie Brae,-35.59,145.29
3894,2713,Myrtle Park,-35.59,145.29
3895,2714,Aratula,-35.51,145.05
3896,2714,Pine Lodge,-35.51,145.05
3897,2714,Tocumwal,-35.51,145.05
3898,2714,Tuppal,-35.51,145.05
3899,2715,Arumpo,-33.87,142.89
3900,2715,Balranald,-33.87,142.89
3901,2715,Hatfield,-33.87,142.89
3902,2715,Mungo,-33.87,142.89
3903,2716,Four Corners,-35.35,145.53
3904,2716,Gala Vale,-35.35,145.53
3905,2716,Jerilderie,-35.35,145.53
3906,2716,Mabins Well,-35.35,145.53
3907,2716,Mairjimmy,-35.35,145.53
3908,2717,Dareton,-34.09,142.04
3909,2720,Argalong,-35.32,148.45
3910,2720,Blowering,-35.32,148.45
3911,2720,Bogong Peaks Wilderness,-35.32,148.45
3912,2720,Bombowlee,-35.32,148.45
3913,2720,Bombowlee Creek,-35.32,148.45
3914,2720,Buddong,-35.32,148.45
3915,2720,Couragago,-35.32,148.45
3916,2720,Gadara,-35.32,148.45
3917,2720,Gilmore,-35.32,148.45
3918,2720,Gocup,-35.32,148.45
3919,2720,Goobarragandra,-35.32,148.45
3920,2720,Jones Bridge,-35.32,148.45
3921,2720,Killimicat,-35.32,148.45
3922,2720,Lacmalac,-35.32,148.45
3923,2720,Little River,-35.32,148.45
3924,2720,Minjary,-35.32,148.45
3925,2720,Mundongo,-35.32,148.45
3926,2720,Pinbeyan,-35.32,148.45
3927,2720,Red Hill,-35.32,148.45
3928,2720,Talbingo,-35.32,148.45
3929,2720,Tumorrama,-35.32,148.45
3930,2720,Tumut,-35.32,148.45
3931,2720,Tumut Plains,-35.32,148.45
3932,2720,Wereboldera,-35.32,148.45
3933,2720,Wermatong,-35.32,148.45
3934,2720,Windowie,-35.32,148.45
3935,2720,Wyangle,-35.32,148.45
3936,2720,Yarrangobilly,-35.32,148.45
3937,2721,Bland,-33.99,147.68
3938,2721,Quandialla,-33.99,147.68
3939,2722,Brungle,-34.82,148.08
3940,2722,Brungle Creek,-34.82,148.08
3941,2722,Burra Creek,-34.82,148.08
3942,2722,Darbalara,-34.82,148.08
3943,2722,Gundagai,-34.82,148.08
3944,2722,Jones Creek,-34.82,148.08
3945,2722,Muttama,-34.82,148.08
3946,2722,Nangus,-34.82,148.08
3947,2722,South Gundagai,-34.82,148.08
3948,2725,Stockinbingal,-34.51,147.88
3949,2726,Jugiong,-34.91,148.32
3950,2727,Adjungbilly,-35.08,148.41
3951,2727,Coolac,-35.08,148.41
3952,2727,Gobarralong,-35.08,148.41
3953,2729,Adelong,-35.31,148.06
3954,2729,Bangadang,-35.31,148.06
3955,2729,Black Creek,-35.31,148.06
3956,2729,Califat,-35.31,148.06
3957,2729,Cooleys Creek,-35.31,148.06
3958,2729,Darlow,-35.31,148.06
3959,2729,Ellerslie,-35.31,148.06
3960,2729,Grahamstown,-35.31,148.06
3961,2729,Mount Adrah,-35.31,148.06
3962,2729,Mount Horeb,-35.31,148.06
3963,2729,Mundarlo,-35.31,148.06
3964,2729,Sandy Gully,-35.31,148.06
3965,2729,Sharps Creek,-35.31,148.06
3966,2729,Tumblong,-35.31,148.06
3967,2729,Westwood,-35.31,148.06
3968,2729,Wondalga,-35.31,148.06
3969,2729,Yaven Creek,-35.31,148.06
3970,2730,Batlow,-31.49,152.66
3971,2730,Green Hills,-31.49,152.66
3972,2730,Kunama,-31.49,152.66
3973,2730,Lower Bago,-31.49,152.66
3974,2731,Bunnaloo,-35.79,144.63
3975,2731,Moama,-35.79,144.63
3976,2731,Tantonan,-35.79,144.63
3977,2731,Thyra,-35.79,144.63
3978,2731,Womboota,-35.79,144.63
3979,2732,Barham,-35.63,144.13
3980,2732,Burraboi,-35.63,144.13
3981,2732,Cobramunga,-35.63,144.13
3982,2732,Gonn,-35.63,144.13
3983,2732,Noorong,-35.63,144.13
3984,2732,Thule,-35.63,144.13
3985,2732,Tullakool,-35.63,144.13
3986,2733,Dhuragoon,-35.19,144.16
3987,2733,Moulamein,-35.19,144.16
3988,2733,Niemur,-35.19,144.16
3989,2734,Cunninyeuk,-35.25,143.9
3990,2734,Dilpurra,-35.25,143.9
3991,2734,Kyalite,-35.25,143.9
3992,2734,Mellool,-35.25,143.9
3993,2734,Moolpa,-35.25,143.9
3994,2734,Stony Crossing,-35.25,143.9
3995,2734,Tooranie,-35.25,143.9
3996,2734,Wetuppa,-35.25,143.9
3997,2735,Koraleigh,-35.66,144.14
3998,2735,Speewa,-35.66,144.14
3999,2736,Goodnight,-34.96,143.34
4000,2736,Tooleybuc,-34.96,143.34
4001,2737,Euston,-34.51,142.85
4002,2738,Gol Gol,-34.18,142.22
4003,2738,Monak,-34.18,142.22
4004,2739,Buronga,-34.17,142.18
4005,2745,Glenmore Park,-33.79,150.67
4006,2745,Greendale,-33.79,150.67
4007,2745,Luddenham,-33.79,150.67
4008,2745,Mulgoa,-33.79,150.67
4009,2745,Regentville,-33.79,150.67
4010,2745,Wallacia,-33.79,150.67
4011,2747,Cambridge Gardens,-33.74,150.72
4012,2747,Cambridge Park,-33.74,150.72
4013,2747,Claremont Meadows,-33.74,150.72
4014,2747,Kingswood,-33.74,150.72
4015,2747,Llandilo,-33.74,150.72
4016,2747,Shanes Park,-33.74,150.72
4017,2747,Werrington,-33.74,150.72
4018,2747,Werrington County,-33.74,150.72
4019,2747,Werrington Downs,-33.74,150.72
4020,2748,Orchard Hills,-33.78,150.72
4021,2749,Castlereagh,-33.67,150.68
4022,2749,Cranebrook,-33.67,150.68
4023,2750,Emu Heights,-33.74,150.65
4024,2750,Emu Plains,-33.74,150.65
4025,2750,Jamisontown,-33.74,150.65
4026,2750,Leonay,-33.74,150.65
4027,2750,Penrith,-33.74,150.65
4028,2750,Penrith Plaza,-33.74,150.65
4029,2750,Penrith South,-33.74,150.65
4030,2750,South Penrith,-33.74,150.65
4031,2751,Penrith,-33.73,151.28
4032,2752,Silverdale,-33.94,150.58
4033,2752,Warragamba,-33.94,150.58
4034,2753,Agnes Banks,-33.62,150.71
4035,2753,Bowen Mountain,-33.62,150.71
4036,2753,Grose Vale,-33.62,150.71
4037,2753,Grose Wold,-33.62,150.71
4038,2753,Hobartville,-33.62,150.71
4039,2753,Londonderry,-33.62,150.71
4040,2753,Richmond,-33.62,150.71
4041,2753,Richmond Lowlands,-33.62,150.71
4042,2753,Yarramundi,-33.62,150.71
4043,2754,North Richmond,-33.58,150.72
4044,2754,Tennyson,-33.58,150.72
4045,2754,The Slopes,-33.58,150.72
4046,2755,Richmond Raaf,-33.6,150.8
4047,2756,Bligh Park,-33.64,150.79
4048,2756,Cattai,-33.64,150.79
4049,2756,Central Colo,-33.64,150.79
4050,2756,Clarendon,-33.64,150.79
4051,2756,Colo,-33.64,150.79
4052,2756,Colo Heights,-33.64,150.79
4053,2756,Cornwallis,-33.64,150.79
4054,2756,Cumberland Reach,-33.64,150.79
4055,2756,Ebenezer,-33.64,150.79
4056,2756,Freemans Reach,-33.64,150.79
4057,2756,Glossodia,-33.64,150.79
4058,2756,Lower Portland,-33.64,150.79
4059,2756,Maroota,-33.64,150.79
4060,2756,Mcgraths Hill,-33.64,150.79
4061,2756,Mellong,-33.64,150.79
4062,2756,Mulgrave,-33.64,150.79
4063,2756,Pitt Town,-33.64,150.79
4064,2756,Pitt Town Bottoms,-33.64,150.79
4065,2756,Sackville,-33.64,150.79
4066,2756,Sackville North,-33.64,150.79
4067,2756,Scheyville,-33.64,150.79
4068,2756,South Maroota,-33.64,150.79
4069,2756,South Windsor,-33.64,150.79
4070,2756,Upper Colo,-33.64,150.79
4071,2756,Wilberforce,-33.64,150.79
4072,2756,Windsor,-33.64,150.79
4073,2756,Windsor Downs,-33.64,150.79
4074,2756,Womerah,-33.64,150.79
4075,2757,Kurmond,-33.55,150.7
4076,2758,Berambing,-33.54,150.44
4077,2758,Bilpin,-33.54,150.44
4078,2758,Blaxlands Ridge,-33.54,150.44
4079,2758,East Kurrajong,-33.54,150.44
4080,2758,Kurrajong,-33.54,150.44
4081,2758,Kurrajong Heights,-33.54,150.44
4082,2758,Kurrajong Hills,-33.54,150.44
4083,2758,Mount Tomah,-33.54,150.44
4084,2758,Mountain Lagoon,-33.54,150.44
4085,2758,The Devils Wilderness,-33.54,150.44
4086,2758,Wheeny Creek,-33.54,150.44
4087,2759,Erskine Park,-33.81,150.79
4088,2759,St Clair,-33.81,150.79
4089,2760,Colyton,-33.78,150.79
4090,2760,North St Marys,-33.78,150.79
4091,2760,Oxley Park,-33.78,150.79
4092,2760,Ropes Crossing,-33.78,150.79
4093,2760,St Marys,-33.78,150.79
4094,2760,St Marys East,-33.78,150.79
4095,2760,St Marys South,-33.78,150.79
4096,2761,Colebee,-33.73,150.87
4097,2761,Dean Park,-33.73,150.87
4098,2761,Glendenning,-33.73,150.87
4099,2761,Hassall Grove,-33.73,150.87
4100,2761,Oakhurst,-33.73,150.87
4101,2761,Plumpton,-33.73,150.87
4102,2762,Schofields,-33.7,150.89
4103,2763,Acacia Gardens,-33.73,150.91
4104,2763,Quakers Hill,-33.73,150.91
4105,2765,Berkshire Park,-33.67,150.8
4106,2765,Box Hill,-33.67,150.8
4107,2765,Maraylya,-33.67,150.8
4108,2765,Marsden Park,-33.67,150.8
4109,2765,Nelson,-33.67,150.8
4110,2765,Oakville,-33.67,150.8
4111,2765,Riverstone,-33.67,150.8
4112,2765,Vineyard,-33.67,150.8
4113,2766,Eastern Creek,-33.8,150.85
4114,2766,Rooty Hill,-33.8,150.85
4115,2767,Doonside,-33.77,150.87
4116,2767,Woodcroft,-33.77,150.87
4117,2768,Glenwood,-33.74,150.92
4118,2768,Parklea,-33.74,150.92
4119,2768,Stanhope Gardens,-33.74,150.92
4120,2769,The Ponds,-34.05,150.75
4121,2770,Bidwill,-33.73,150.82
4122,2770,Blackett,-33.73,150.82
4123,2770,Dharruk,-33.73,150.82
4124,2770,Emerton,-33.73,150.82
4125,2770,Hebersham,-33.73,150.82
4126,2770,Lethbridge Park,-33.73,150.82
4127,2770,Minchinbury,-33.73,150.82
4128,2770,Mount Druitt,-33.73,150.82
4129,2770,Mount Druitt Village,-33.73,150.82
4130,2770,Shalvey,-33.73,150.82
4131,2770,Tregear,-33.73,150.82
4132,2770,Whalan,-33.73,150.82
4133,2770,Willmot,-33.73,150.82
4134,2773,Glenbrook,-33.77,150.62
4135,2773,Lapstone,-33.77,150.62
4136,2774,Blaxland,-33.74,150.61
4137,2774,Blaxland East,-33.74,150.61
4138,2774,Mount Riverview,-33.74,150.61
4139,2774,Warrimoo,-33.74,150.61
4140,2775,Central Macdonald,-33.33,150.98
4141,2775,Fernances,-33.33,150.98
4142,2775,Gunderman,-33.33,150.98
4143,2775,Higher Macdonald,-33.33,150.98
4144,2775,Laughtondale,-33.33,150.98
4145,2775,Leets Vale,-33.33,150.98
4146,2775,Lower Macdonald,-33.33,150.98
4147,2775,Marlow,-33.33,150.98
4148,2775,Mogo Creek,-33.33,150.98
4149,2775,Perrys Crossing,-33.33,150.98
4150,2775,Singletons Mill,-33.33,150.98
4151,2775,Spencer,-33.33,150.98
4152,2775,St Albans,-33.33,150.98
4153,2775,Upper Macdonald,-33.33,150.98
4154,2775,Webbs Creek,-33.33,150.98
4155,2775,Wisemans Ferry,-33.33,150.98
4156,2775,Wrights Creek,-33.33,150.98
4157,2776,Faulconbridge,-33.7,150.53
4158,2777,Hawkesbury Heights,-33.67,150.65
4159,2777,Springwood,-33.67,150.65
4160,2777,Sun Valley,-33.67,150.65
4161,2777,Valley Heights,-33.67,150.65
4162,2777,Winmalee,-33.67,150.65
4163,2777,Yellow Rock,-33.67,150.65
4164,2778,Linden,-33.79,150.04
4165,2778,Woodford,-33.79,150.04
4166,2779,Hazelbrook,-33.72,150.45
4167,2780,Katoomba,-33.71,150.31
4168,2780,Katoomba DC,-33.71,150.31
4169,2780,Leura,-33.71,150.31
4170,2780,Medlow Bath,-33.71,150.31
4171,2782,Wentworth Falls,-33.71,150.38
4172,2783,Lawson,-33.72,150.43
4173,2784,Bullaburra,-33.72,150.41
4174,2785,Blackheath,-33.64,150.28
4175,2785,Megalong,-33.64,150.28
4176,2786,Bell,-33.51,150.28
4177,2786,Dargan,-33.51,150.28
4178,2786,Mount Irvine,-33.51,150.28
4179,2786,Mount Victoria,-33.51,150.28
4180,2786,Mount Wilson,-33.51,150.28
4181,2787,Black Springs,-33.84,149.71
4182,2787,Chatham Valley,-33.84,149.71
4183,2787,Duckmaloi,-33.84,149.71
4184,2787,Edith,-33.84,149.71
4185,2787,Gingkin,-33.84,149.71
4186,2787,Gurnang,-33.84,149.71
4187,2787,Hazelgrove,-33.84,149.71
4188,2787,Jaunter,-33.84,149.71
4189,2787,Kanangra,-33.84,149.71
4190,2787,Mayfield,-33.84,149.71
4191,2787,Mount Olive,-33.84,149.71
4192,2787,Mount Werong,-33.84,149.71
4193,2787,Mozart,-33.84,149.71
4194,2787,Norway,-33.84,149.71
4195,2787,Oberon,-33.84,149.71
4196,2787,Porters Retreat,-33.84,149.71
4197,2787,Shooters Hill,-33.84,149.71
4198,2787,Tarana,-33.84,149.71
4199,2787,The Meadows,-33.84,149.71
4200,2790,Ben Bullen,-33.22,150.02
4201,2790,Blackmans Flat,-33.22,150.02
4202,2790,Bowenfels,-33.22,150.02
4203,2790,Clarence,-33.22,150.02
4204,2790,Cobar Park,-33.22,150.02
4205,2790,Corney Town,-33.22,150.02
4206,2790,Cullen Bullen,-33.22,150.02
4207,2790,Doctors Gap,-33.22,150.02
4208,2790,Ganbenang,-33.22,150.02
4209,2790,Hampton,-33.22,150.02
4210,2790,Hartley,-33.22,150.02
4211,2790,Hartley Vale,-33.22,150.02
4212,2790,Hassans Walls,-33.22,150.02
4213,2790,Hermitage Flat,-33.22,150.02
4214,2790,Jenolan,-33.22,150.02
4215,2790,Kanimbla,-33.22,150.02
4216,2790,Lidsdale,-33.22,150.02
4217,2790,Lithgow,-33.22,150.02
4218,2790,Lithgow DC,-33.22,150.02
4219,2790,Little Hartley,-33.22,150.02
4220,2790,Littleton,-33.22,150.02
4221,2790,Lowther,-33.22,150.02
4222,2790,Marrangaroo,-33.22,150.02
4223,2790,Mckellars Park,-33.22,150.02
4224,2790,Morts Estate,-33.22,150.02
4225,2790,Mount Lambie,-33.22,150.02
4226,2790,Newnes,-33.22,150.02
4227,2790,Newnes Plateau,-33.22,150.02
4228,2790,Oaky Park,-33.22,150.02
4229,2790,Pottery Estate,-33.22,150.02
4230,2790,Rydal,-33.22,150.02
4231,2790,Sheedys Gully,-33.22,150.02
4232,2790,Sodwalls,-33.22,150.02
4233,2790,South Bowenfels,-33.22,150.02
4234,2790,South Littleton,-33.22,150.02
4235,2790,Springvale,-33.22,150.02
4236,2790,State Mine Gully,-33.22,150.02
4237,2790,Vale Of Clwydd,-33.22,150.02
4238,2790,Wolgan Valley,-33.22,150.02
4239,2790,Wollangambe,-33.22,150.02
4240,2791,Carcoar,-33.61,149.14
4241,2791,Errowanbang,-33.61,149.14
4242,2792,Burnt Yards,-33.59,149.03
4243,2792,Mandurama,-33.59,149.03
4244,2793,Darbys Falls,-33.93,148.86
4245,2793,Roseberg,-33.93,148.86
4246,2793,Woodstock,-33.93,148.86
4247,2794,Bumbaldry,-33.91,148.46
4248,2794,Cowra,-33.91,148.46
4249,2794,Hovells Creek,-33.91,148.46
4250,2794,Mount Collins,-33.91,148.46
4251,2794,Wattamondara,-33.91,148.46
4252,2795,Abercrombie,-33.91,149.33
4253,2795,Abercrombie River,-33.91,149.33
4254,2795,Arkell,-33.91,149.33
4255,2795,Arkstone,-33.91,149.33
4256,2795,Bald Ridge,-33.91,149.33
4257,2795,Ballyroe,-33.91,149.33
4258,2795,Bathampton,-33.91,149.33
4259,2795,Bathurst,-33.91,149.33
4260,2795,Billywillinga,-33.91,149.33
4261,2795,Brewongle,-33.91,149.33
4262,2795,Bruinbun,-33.91,149.33
4263,2795,Burraga,-33.91,149.33
4264,2795,Caloola,-33.91,149.33
4265,2795,Charles Sturt University,-33.91,149.33
4266,2795,Charlton,-33.91,149.33
4267,2795,Clear Creek,-33.91,149.33
4268,2795,Colo,-33.91,149.33
4269,2795,Copperhannia,-33.91,149.33
4270,2795,Cow Flat,-33.91,149.33
4271,2795,Crudine,-33.91,149.33
4272,2795,Curragh,-33.91,149.33
4273,2795,Dark Corner,-33.91,149.33
4274,2795,Dog Rocks,-33.91,149.33
4275,2795,Dunkeld,-33.91,149.33
4276,2795,Duramana,-33.91,149.33
4277,2795,Eglinton,-33.91,149.33
4278,2795,Essington,-33.91,149.33
4279,2795,Evans Plains,-33.91,149.33
4280,2795,Fitzgeralds Valley,-33.91,149.33
4281,2795,Forest Grove,-33.91,149.33
4282,2795,Fosters Valley,-33.91,149.33
4283,2795,Freemantle,-33.91,149.33
4284,2795,Gemalla,-33.91,149.33
4285,2795,Georges Plains,-33.91,149.33
4286,2795,Gilmandyke,-33.91,149.33
4287,2795,Glanmire,-33.91,149.33
4288,2795,Gormans Hill,-33.91,149.33
4289,2795,Gowan,-33.91,149.33
4290,2795,Hobbys Yards,-33.91,149.33
4291,2795,Isabella,-33.91,149.33
4292,2795,Jeremy,-33.91,149.33
4293,2795,Judds Creek,-33.91,149.33
4294,2795,Kelso,-33.91,149.33
4295,2795,Killongbutta,-33.91,149.33
4296,2795,Kirkconnell,-33.91,149.33
4297,2795,Laffing Waters,-33.91,149.33
4298,2795,Limekilns,-33.91,149.33
4299,2795,Llanarth,-33.91,149.33
4300,2795,Locksley,-33.91,149.33
4301,2795,Meadow Flat,-33.91,149.33
4302,2795,Milkers Flat,-33.91,149.33
4303,2795,Millah Murrah,-33.91,149.33
4304,2795,Mitchell,-33.91,149.33
4305,2795,Moorilda,-33.91,149.33
4306,2795,Mount David,-33.91,149.33
4307,2795,Mount Panorama,-33.91,149.33
4308,2795,Mount Rankin,-33.91,149.33
4309,2795,Napoleon Reef,-33.91,149.33
4310,2795,Newbridge,-33.91,149.33
4311,2795,O'Connell,-33.91,149.33
4312,2795,Orton Park,-33.91,149.33
4313,2795,Paling Yards,-33.91,149.33
4314,2795,Palmers Oaky,-33.91,149.33
4315,2795,Peel,-33.91,149.33
4316,2795,Perthville,-33.91,149.33
4317,2795,Raglan,-33.91,149.33
4318,2795,Robin Hill,-33.91,149.33
4319,2795,Rock Forest,-33.91,149.33
4320,2795,Rockley,-33.91,149.33
4321,2795,Rockley Mount,-33.91,149.33
4322,2795,Sofala,-33.91,149.33
4323,2795,South Bathurst,-33.91,149.33
4324,2795,Stewarts Mount,-33.91,149.33
4325,2795,Sunny Corner,-33.91,149.33
4326,2795,Tambaroora,-33.91,149.33
4327,2795,Tannas Mount,-33.91,149.33
4328,2795,The Lagoon,-33.91,149.33
4329,2795,The Rocks,-33.91,149.33
4330,2795,Triangle Flat,-33.91,149.33
4331,2795,Trunkey Creek,-33.91,149.33
4332,2795,Turondale,-33.91,149.33
4333,2795,Twenty Forests,-33.91,149.33
4334,2795,Upper Turon,-33.91,149.33
4335,2795,Walang,-33.91,149.33
4336,2795,Wambool,-33.91,149.33
4337,2795,Wattle Flat,-33.91,149.33
4338,2795,Watton,-33.91,149.33
4339,2795,West Bathurst,-33.91,149.33
4340,2795,White Rock,-33.91,149.33
4341,2795,Wiagdon,-33.91,149.33
4342,2795,Wimbledon,-33.91,149.33
4343,2795,Winburndale,-33.91,149.33
4344,2795,Windradyne,-33.91,149.33
4345,2795,Wisemans Creek,-33.91,149.33
4346,2795,Yarras,-33.91,149.33
4347,2795,Yetholme,-33.91,149.33
4348,2796,Bathurst MC,0,0
4349,2797,Garland,-33.71,149.03
4350,2797,Lyndhurst,-33.71,149.03
4351,2798,Byng,-33.34,149.25
4352,2798,Forest Reefs,-33.34,149.25
4353,2798,Guyong,-33.34,149.25
4354,2798,Millthorpe,-33.34,149.25
4355,2798,Spring Terrace,-33.34,149.25
4356,2798,Tallwood,-33.34,149.25
4357,2799,Barry,-33.65,149.27
4358,2799,Blayney,-33.65,149.27
4359,2799,Browns Creek,-33.65,149.27
4360,2799,Fitzgeralds Mount,-33.65,149.27
4361,2799,Kings Plains,-33.65,149.27
4362,2799,Neville,-33.65,149.27
4363,2799,Vittoria,-33.65,149.27
4364,2800,Belgravia,-33.12,149.03
4365,2800,Borenore,-33.12,149.03
4366,2800,Cadia,-33.12,149.03
4367,2800,Canobolas,-33.12,149.03
4368,2800,Cargo,-33.12,149.03
4369,2800,Clergate,-33.12,149.03
4370,2800,Clifton Grove,-33.12,149.03
4371,2800,Emu Swamp,-33.12,149.03
4372,2800,Four Mile Creek,-33.12,149.03
4373,2800,Huntley,-33.12,149.03
4374,2800,Kangaroobie,-33.12,149.03
4375,2800,Kerrs Creek,-33.12,149.03
4376,2800,Lewis Ponds,-33.12,149.03
4377,2800,Lidster,-33.12,149.03
4378,2800,Lower Lewis Ponds,-33.12,149.03
4379,2800,Lucknow,-33.12,149.03
4380,2800,March,-33.12,149.03
4381,2800,Mullion Creek,-33.12,149.03
4382,2800,Nangar,-33.12,149.03
4383,2800,Nashdale,-33.12,149.03
4384,2800,Ophir,-33.12,149.03
4385,2800,Orange,-33.12,149.03
4386,2800,Orange DC,-33.12,149.03
4387,2800,Orange East,-33.12,149.03
4388,2800,Panuara,-33.12,149.03
4389,2800,Shadforth,-33.12,149.03
4390,2800,Spring Creek,-33.12,149.03
4391,2800,Spring Hill,-33.12,149.03
4392,2800,Springside,-33.12,149.03
4393,2800,Summer Hill Creek,-33.12,149.03
4394,2800,Waldegrave,-33.12,149.03
4395,2800,Windera,-33.12,149.03
4396,2803,Bendick Murrell,-34.16,148.45
4397,2803,Crowther,-34.16,148.45
4398,2803,Wirrimah,-34.16,148.45
4399,2804,Billimari,-33.68,148.62
4400,2804,Canowindra,-33.68,148.62
4401,2804,Moorbel,-33.68,148.62
4402,2804,Nyrang Creek,-33.68,148.62
4403,2805,Gooloogong,-33.65,148.41
4404,2806,Eugowra,-33.43,148.37
4405,2807,Koorawatha,-34.04,148.55
4406,2808,Wyangala,-33.94,149.05
4407,2809,Greenethorpe,-34.04,148.4
4408,2810,Bimbi,-33.99,147.93
4409,2810,Caragabal,-33.99,147.93
4410,2810,Glenelg,-33.99,147.93
4411,2810,Grenfell,-33.99,147.93
4412,2810,Piney Range,-33.99,147.93
4413,2810,Pinnacle,-33.99,147.93
4414,2810,Pullabooka,-33.99,147.93
4415,2810,Warraderry,-33.99,147.93
4416,2820,Apsley,-32.6,148.96
4417,2820,Arthurville,-32.6,148.96
4418,2820,Bakers Swamp,-32.6,148.96
4419,2820,Bodangora,-32.6,148.96
4420,2820,Comobella,-32.6,148.96
4421,2820,Curra Creek,-32.6,148.96
4422,2820,Dripstone,-32.6,148.96
4423,2820,Farnham,-32.6,148.96
4424,2820,Gollan,-32.6,148.96
4425,2820,Lake Burrendong,-32.6,148.96
4426,2820,Maryvale,-32.6,148.96
4427,2820,Medway,-32.6,148.96
4428,2820,Montefiores,-32.6,148.96
4429,2820,Mookerawa,-32.6,148.96
4430,2820,Mount Aquila,-32.6,148.96
4431,2820,Mount Arthur,-32.6,148.96
4432,2820,Mumbil,-32.6,148.96
4433,2820,Nanima,-32.6,148.96
4434,2820,Neurea,-32.6,148.96
4435,2820,Spicers Creek,-32.6,148.96
4436,2820,Stuart Town,-32.6,148.96
4437,2820,Suntop,-32.6,148.96
4438,2820,Walmer,-32.6,148.96
4439,2820,Wellington,-32.6,148.96
4440,2820,Wuuluman,-32.6,148.96
4441,2820,Yarragal,-32.6,148.96
4442,2821,Burroway,-32.06,148.26
4443,2821,Narromine,-32.06,148.26
4444,2823,Bundemar,-31.84,148.18
4445,2823,Cathundral,-31.84,148.18
4446,2823,Dandaloo,-31.84,148.18
4447,2823,Gin Gin,-31.84,148.18
4448,2823,Trangie,-31.84,148.18
4449,2824,Beemunnel,-31.67,147.86
4450,2824,Eenaweena,-31.67,147.86
4451,2824,Marthaguy,-31.67,147.86
4452,2824,Mount Foster,-31.67,147.86
4453,2824,Mount Harris,-31.67,147.86
4454,2824,Mumblebone Plain,-31.67,147.86
4455,2824,Oxley,-31.67,147.86
4456,2824,Pigeonbah,-31.67,147.86
4457,2824,Ravenswood,-31.67,147.86
4458,2824,Red Hill,-31.67,147.86
4459,2824,Snakes Plain,-31.67,147.86
4460,2824,Tenandra,-31.67,147.86
4461,2824,Warren,-31.67,147.86
4462,2825,Babinda,-31.94,146.48
4463,2825,Bobadah,-31.94,146.48
4464,2825,Bogan,-31.94,146.48
4465,2825,Buddabadah,-31.94,146.48
4466,2825,Canonba,-31.94,146.48
4467,2825,Five Ways,-31.94,146.48
4468,2825,Honeybugle,-31.94,146.48
4469,2825,Miandetta,-31.94,146.48
4470,2825,Mulla,-31.94,146.48
4471,2825,Mullengudgery,-31.94,146.48
4472,2825,Murrawombie,-31.94,146.48
4473,2825,Nyngan,-31.94,146.48
4474,2825,Pangee,-31.94,146.48
4475,2827,Bearbong,-31.66,148.88
4476,2827,Biddon,-31.66,148.88
4477,2827,Breelong,-31.66,148.88
4478,2827,Collie,-31.66,148.88
4479,2827,Curban,-31.66,148.88
4480,2827,Gilgandra,-31.66,148.88
4481,2827,Merrigal,-31.66,148.88
4482,2828,Black Hollow,-31.11,148.86
4483,2828,Bourbah,-31.11,148.86
4484,2828,Gulargambone,-31.11,148.86
4485,2828,Mount Tenandra,-31.11,148.86
4486,2828,Quanda,-31.11,148.86
4487,2828,Tonderburine,-31.11,148.86
4488,2828,Warrumbungle,-31.11,148.86
4489,2829,Billeroy,-31.12,148.37
4490,2829,Combara,-31.12,148.37
4491,2829,Conimbia,-31.12,148.37
4492,2829,Coonamble,-31.12,148.37
4493,2829,Gilgooma,-31.12,148.37
4494,2829,Magometon,-31.12,148.37
4495,2829,Nebea,-31.12,148.37
4496,2829,Pine Grove,-31.12,148.37
4497,2829,Teridgerie,-31.12,148.37
4498,2829,Urawilkie,-31.12,148.37
4499,2829,Wingadee,-31.12,148.37
4500,2830,Ballimore,-32.2,148.9
4501,2830,Barbigal,-32.2,148.9
4502,2830,Beni,-32.2,148.9
4503,2830,Boothenba,-32.2,148.9
4504,2830,Brocklehurst,-32.2,148.9
4505,2830,Bruah,-32.2,148.9
4506,2830,Bunglegumbie,-32.2,148.9
4507,2830,Burrabadine,-32.2,148.9
4508,2830,Butlers Falls,-32.2,148.9
4509,2830,Coolbaggie,-32.2,148.9
4510,2830,Cumboogle,-32.2,148.9
4511,2830,Dubbo,-32.2,148.9
4512,2830,Dubbo DC,-32.2,148.9
4513,2830,Dubbo East,-32.2,148.9
4514,2830,Dubbo Grove,-32.2,148.9
4515,2830,Dubbo West,-32.2,148.9
4516,2830,Eschol,-32.2,148.9
4517,2830,Eulomogo,-32.2,148.9
4518,2830,Glengerra,-32.2,148.9
4519,2830,Goonoo Forest,-32.2,148.9
4520,2830,Jones Creek,-32.2,148.9
4521,2830,Kickabil,-32.2,148.9
4522,2830,Minore,-32.2,148.9
4523,2830,Mogriguy,-32.2,148.9
4524,2830,Mountain Creek,-32.2,148.9
4525,2830,Muronbung,-32.2,148.9
4526,2830,Murrumbidgerie,-32.2,148.9
4527,2830,Rawsonville,-32.2,148.9
4528,2830,Terramungamine,-32.2,148.9
4529,2830,Toongi,-32.2,148.9
4530,2830,Wambangalang,-32.2,148.9
4531,2830,Yarrabar,-32.2,148.9
4532,2831,Armatree,-31.45,148.41
4533,2831,Balladoran,-31.45,148.41
4534,2831,Brenda,-31.45,148.41
4535,2831,Bullagreen,-31.45,148.41
4536,2831,Byrock,-31.45,148.41
4537,2831,Carinda,-31.45,148.41
4538,2831,Coolabah,-31.45,148.41
4539,2831,Elong Elong,-31.45,148.41
4540,2831,Eumungerie,-31.45,148.41
4541,2831,Geurie,-31.45,148.41
4542,2831,Girilambone,-31.45,148.41
4543,2831,Goodooga,-31.45,148.41
4544,2831,Gungalman,-31.45,148.41
4545,2831,Hermidale,-31.45,148.41
4546,2831,Macquarie Marshes,-31.45,148.41
4547,2831,Merrygoen,-31.45,148.41
4548,2831,Neilrex,-31.45,148.41
4549,2831,Nevertire,-31.45,148.41
4550,2831,Nubingerie,-31.45,148.41
4551,2831,Nymagee,-31.45,148.41
4552,2831,Pine Clump,-31.45,148.41
4553,2831,Ponto,-31.45,148.41
4554,2831,Quambone,-31.45,148.41
4555,2831,Terrabella,-31.45,148.41
4556,2831,The Marra,-31.45,148.41
4557,2831,Tooloon,-31.45,148.41
4558,2831,Tooraweenah,-31.45,148.41
4559,2831,Westella,-31.45,148.41
4560,2831,Wongarbon,-31.45,148.41
4561,2832,Come By Chance,-29.11,147.9
4562,2832,Cryon,-29.11,147.9
4563,2832,Cumborah,-29.11,147.9
4564,2832,Walgett,-29.11,147.9
4565,2833,Collarenebri,-29.55,148.58
4566,2834,Angledool,-29.43,147.98
4567,2834,Lightning Ridge,-29.43,147.98
4568,2835,Bulla,-32.03,144.44
4569,2835,Canbelego,-32.03,144.44
4570,2835,Cobar,-32.03,144.44
4571,2835,Cubba,-32.03,144.44
4572,2835,Gilgunnia,-32.03,144.44
4573,2835,Irymple,-32.03,144.44
4574,2835,Kerrigundi,-32.03,144.44
4575,2835,Kulwin,-32.03,144.44
4576,2835,Lerida,-32.03,144.44
4577,2835,Noona,-32.03,144.44
4578,2835,Sandy Creek,-32.03,144.44
4579,2835,Tindarey,-32.03,144.44
4580,2836,White Cliffs,-30.81,142.88
4581,2836,Wilcannia,-30.81,142.88
4582,2839,Bogan,-30.2,146.54
4583,2839,Brewarrina,-30.2,146.54
4584,2839,Collerina,-30.2,146.54
4585,2839,Gongolgon,-30.2,146.54
4586,2839,Narran Lake,-30.2,146.54
4587,2839,Talawanta,-30.2,146.54
4588,2839,Weilmoringle,-30.2,146.54
4589,2840,Bourke,-29.19,145.88
4590,2840,Enngonia,-29.19,145.88
4591,2840,Fords Bridge,-29.19,145.88
4592,2840,Gumbalie,-29.19,145.88
4593,2840,Gunderbooka,-29.19,145.88
4594,2840,Hungerford,-29.19,145.88
4595,2840,Louth,-29.19,145.88
4596,2840,Tilpa,-29.19,145.88
4597,2840,Wanaaring,-29.19,145.88
4598,2840,Yantabulla,-29.19,145.88
4599,2842,Mendooran,-31.82,149.12
4600,2842,Mollyan,-31.82,149.12
4601,2842,Wattle Springs,-31.82,149.12
4602,2842,Yarragrin,-31.82,149.12
4603,2843,Coolah,-31.77,149.61
4604,2844,Birriwa,-32.12,149.47
4605,2844,Dunedoo,-32.12,149.47
4606,2844,Leadville,-32.12,149.47
4607,2845,Wallerawang,-33.41,150.06
4608,2846,Capertee,-33.15,149.99
4609,2846,Glen Davis,-33.15,149.99
4610,2846,Round Swamp,-33.15,149.99
4611,2847,Portland,-33.35,149.98
4612,2848,Brogans Creek,-32.97,149.96
4613,2848,Charbon,-32.97,149.96
4614,2848,Clandulla,-32.97,149.96
4615,2848,Kandos,-32.97,149.96
4616,2849,Bogee,-32.98,150.1
4617,2849,Breakfast Creek,-32.98,150.1
4618,2849,Budden,-32.98,150.1
4619,2849,Bylong,-32.98,150.1
4620,2849,Camboon,-32.98,150.1
4621,2849,Carwell,-32.98,150.1
4622,2849,Coggan,-32.98,150.1
4623,2849,Coxs Creek,-32.98,150.1
4624,2849,Coxs Crown,-32.98,150.1
4625,2849,Dabee,-32.98,150.1
4626,2849,Dungeree,-32.98,150.1
4627,2849,Dunville Loop,-32.98,150.1
4628,2849,Ginghi,-32.98,150.1
4629,2849,Glen Alice,-32.98,150.1
4630,2849,Growee,-32.98,150.1
4631,2849,Kelgoola,-32.98,150.1
4632,2849,Lee Creek,-32.98,150.1
4633,2849,Mount Marsden,-32.98,150.1
4634,2849,Murrumbo,-32.98,150.1
4635,2849,Nullo Mountain,-32.98,150.1
4636,2849,Olinda,-32.98,150.1
4637,2849,Pinnacle Swamp,-32.98,150.1
4638,2849,Pyangle,-32.98,150.1
4639,2849,Reedy Creek,-32.98,150.1
4640,2849,Rylstone,-32.98,150.1
4641,2849,Upper Bylong,-32.98,150.1
4642,2849,Upper Growee,-32.98,150.1
4643,2849,Upper Nile,-32.98,150.1
4644,2849,Wirraba,-32.98,150.1
4645,2850,Aarons Pass,-32.86,149.8
4646,2850,Apple Tree Flat,-32.86,149.8
4647,2850,Avisford,-32.86,149.8
4648,2850,Bara,-32.86,149.8
4649,2850,Barigan,-32.86,149.8
4650,2850,Ben Buckley,-32.86,149.8
4651,2850,Bocoble,-32.86,149.8
4652,2850,Bombira,-32.86,149.8
4653,2850,Botobolar,-32.86,149.8
4654,2850,Buckaroo,-32.86,149.8
4655,2850,Budgee Budgee,-32.86,149.8
4656,2850,Burrundulla,-32.86,149.8
4657,2850,Caerleon,-32.86,149.8
4658,2850,Canadian Lead,-32.86,149.8
4659,2850,Carcalgong,-32.86,149.8
4660,2850,Collingwood,-32.86,149.8
4661,2850,Cooks Gap,-32.86,149.8
4662,2850,Cooyal,-32.86,149.8
4663,2850,Cross Roads,-32.86,149.8
4664,2850,Cudgegong,-32.86,149.8
4665,2850,Cullenbone,-32.86,149.8
4666,2850,Cumbo,-32.86,149.8
4667,2850,Erudgere,-32.86,149.8
4668,2850,Eurunderee,-32.86,149.8
4669,2850,Frog Rock,-32.86,149.8
4670,2850,Galambine,-32.86,149.8
4671,2850,Glen Ayr,-32.86,149.8
4672,2850,Grattai,-32.86,149.8
4673,2850,Green Gully,-32.86,149.8
4674,2850,Hargraves,-32.86,149.8
4675,2850,Havilah,-32.86,149.8
4676,2850,Hayes Gap,-32.86,149.8
4677,2850,Hill End,-32.86,149.8
4678,2850,Home Rule,-32.86,149.8
4679,2850,Ilford,-32.86,149.8
4680,2850,Kains Flat,-32.86,149.8
4681,2850,Linburn,-32.86,149.8
4682,2850,Lue,-32.86,149.8
4683,2850,Maitland Bar,-32.86,149.8
4684,2850,Menah,-32.86,149.8
4685,2850,Meroo,-32.86,149.8
4686,2850,Milroy,-32.86,149.8
4687,2850,Mogo,-32.86,149.8
4688,2850,Monivae,-32.86,149.8
4689,2850,Moolarben,-32.86,149.8
4690,2850,Mount Frome,-32.86,149.8
4691,2850,Mount Knowles,-32.86,149.8
4692,2850,Mount Vincent,-32.86,149.8
4693,2850,Mudgee,-32.86,149.8
4694,2850,Mullamuddy,-32.86,149.8
4695,2850,Munghorn,-32.86,149.8
4696,2850,Piambong,-32.86,149.8
4697,2850,Putta Bucca,-32.86,149.8
4698,2850,Pyramul,-32.86,149.8
4699,2850,Queens Pinch,-32.86,149.8
4700,2850,Razorback,-32.86,149.8
4701,2850,Riverlea,-32.86,149.8
4702,2850,Running Stream,-32.86,149.8
4703,2850,Sallys Flat,-32.86,149.8
4704,2850,Spring Flat,-32.86,149.8
4705,2850,St Fillans,-32.86,149.8
4706,2850,Stony Creek,-32.86,149.8
4707,2850,Tambaroora,-32.86,149.8
4708,2850,Tichular,-32.86,149.8
4709,2850,Totnes Valley,-32.86,149.8
4710,2850,Triamble,-32.86,149.8
4711,2850,Turill,-32.86,149.8
4712,2850,Twelve Mile,-32.86,149.8
4713,2850,Ulan,-32.86,149.8
4714,2850,Ullamalla,-32.86,149.8
4715,2850,Wilbetree,-32.86,149.8
4716,2850,Wilpinjong,-32.86,149.8
4717,2850,Windeyer,-32.86,149.8
4718,2850,Wollar,-32.86,149.8
4719,2850,Worlds End,-32.86,149.8
4720,2850,Yarrabin,-32.86,149.8
4721,2850,Yarrawonga,-32.86,149.8
4722,2852,Barneys Reef,-32.19,149.53
4723,2852,Beryl,-32.19,149.53
4724,2852,Biraganbil,-32.19,149.53
4725,2852,Bungaba,-32.19,149.53
4726,2852,Cope,-32.19,149.53
4727,2852,Cumbandry,-32.19,149.53
4728,2852,Goolma,-32.19,149.53
4729,2852,Gulgong,-32.19,149.53
4730,2852,Mebul,-32.19,149.53
4731,2852,Merotherie,-32.19,149.53
4732,2852,Stubbo,-32.19,149.53
4733,2852,Tallawang,-32.19,149.53
4734,2864,Boree,-33.23,148.84
4735,2864,Bowan Park,-33.23,148.84
4736,2864,Cudal,-33.23,148.84
4737,2864,Murga,-33.23,148.84
4738,2864,Toogong,-33.23,148.84
4739,2865,Bocobra,-33.1,148.54
4740,2865,Gumble,-33.1,148.54
4741,2865,Manildra,-33.1,148.54
4742,2866,Amaroo,-33.18,148.93
4743,2866,Boomey,-33.18,148.93
4744,2866,Cundumbul,-33.18,148.93
4745,2866,Euchareena,-33.18,148.93
4746,2866,Garra,-33.18,148.93
4747,2866,Larras Lee,-33.18,148.93
4748,2866,Molong,-33.18,148.93
4749,2867,Baldry,-32.87,148.5
4750,2867,Cumnock,-32.87,148.5
4751,2867,Eurimbla,-32.87,148.5
4752,2867,Loombah,-32.87,148.5
4753,2867,Yullundry,-32.87,148.5
4754,2868,Bournewood,-32.75,148.75
4755,2868,Little River,-32.75,148.75
4756,2868,North Yeoval,-32.75,148.75
4757,2868,Obley,-32.75,148.75
4758,2868,Upper Obley,-32.75,148.75
4759,2868,Yeoval,-32.75,148.75
4760,2869,Peak Hill,-32.73,148.19
4761,2869,Tomingley,-32.73,148.19
4762,2869,Trewilga,-32.73,148.19
4763,2870,Alectown,-32.93,148.26
4764,2870,Bumberry,-32.93,148.26
4765,2870,Cookamidgera,-32.93,148.26
4766,2870,Cooks Myalls,-32.93,148.26
4767,2870,Goonumbla,-32.93,148.26
4768,2870,Mandagery,-32.93,148.26
4769,2870,Parkes,-32.93,148.26
4770,2870,Tichborne,-32.93,148.26
4771,2871,Bandon,-33.5,148.31
4772,2871,Bedgerebong,-33.5,148.31
4773,2871,Bundaburrah,-33.5,148.31
4774,2871,Calarie,-33.5,148.31
4775,2871,Carrawabbity,-33.5,148.31
4776,2871,Corinella,-33.5,148.31
4777,2871,Cumbijowa,-33.5,148.31
4778,2871,Daroobalgie,-33.5,148.31
4779,2871,Fairholme,-33.5,148.31
4780,2871,Forbes,-33.5,148.31
4781,2871,Garema,-33.5,148.31
4782,2871,Grawlin,-33.5,148.31
4783,2871,Gunning Gap,-33.5,148.31
4784,2871,Jemalong,-33.5,148.31
4785,2871,Mulyandry,-33.5,148.31
4786,2871,Ooma,-33.5,148.31
4787,2871,Warroo,-33.5,148.31
4788,2871,Weelong,-33.5,148.31
4789,2871,Wirrinya,-33.5,148.31
4790,2871,Yarragong,-33.5,148.31
4791,2873,Albert,-32.42,147.51
4792,2873,Miamley,-32.42,147.51
4793,2873,Tottenham,-32.42,147.51
4794,2874,Tullamore,-32.63,147.56
4795,2875,Bruie Plains,-32.78,147.86
4796,2875,Fifield,-32.78,147.86
4797,2875,Ootha,-32.78,147.86
4798,2875,Trundle,-32.78,147.86
4799,2875,Yarrabandai,-32.78,147.86
4800,2876,Bogan Gate,-33.11,147.8
4801,2876,Gunningbland,-33.11,147.8
4802,2876,Nelungaloo,-33.11,147.8
4803,2877,Boona Mount,-33.09,147.15
4804,2877,Condobolin,-33.09,147.15
4805,2877,Derriwong,-33.09,147.15
4806,2877,Eremerang,-33.09,147.15
4807,2877,Euabalong,-33.09,147.15
4808,2877,Euabalong West,-33.09,147.15
4809,2877,Kiacatoo,-33.09,147.15
4810,2877,Mount Hope,-33.09,147.15
4811,2877,Mulguthrie,-33.09,147.15
4812,2878,Ivanhoe,-32.83,143.86
4813,2878,Mossgiel,-32.83,143.86
4814,2879,Menindee,-32.26,142.41
4815,2879,Sunset Strip,-32.26,142.41
4816,2880,Broken Hill,-31.96,141.47
4817,2880,Broken Hill North,-31.96,141.47
4818,2880,Broken Hill West,-31.96,141.47
4819,2880,Broughams Gate,-31.96,141.47
4820,2880,Fowlers Gap,-31.96,141.47
4821,2880,Little Topar,-31.96,141.47
4822,2880,Milparinka,-31.96,141.47
4823,2880,Mutawintji,-31.96,141.47
4824,2880,Packsaddle,-31.96,141.47
4825,2880,Silverton,-31.96,141.47
4826,2880,South Broken Hill,-31.96,141.47
4827,2880,Tibooburra,-31.96,141.47
4828,2890,Australian Defence Forces,0,0
4829,2891,Sydney Gateway Facility,0,0
4830,2898,Lord Howe Island,-31.55,159.08
4831,2899,Norfolk Island,-36.08,146.93